{"type":"FeatureCollection","source":"California State Assembly Districts Map 2020 (CA Open Data)","source_url":"https://gis.data.ca.gov/datasets/California::california-state-assembly-districts-map-2020","license":"Public domain / CA Open Data","note":"Simplified geometries for beachhead districts only (prototype).","features":[{"type":"Feature","properties":{"dist_no":"7","code":"AD-7","id":"ad-7","name":" "},"geometry":{"type":"Polygon","coordinates":[[[-121.1099,38.6988],[-121.094,38.6654],[-121.0826,38.629],[-121.0922,38.6271],[-121.1216,38.6194],[-121.1422,38.6172],[-121.1419,38.6107],[-121.1429,38.6115],[-121.1469,38.6121],[-121.1505,38.6141],[-121.1664,38.6089],[-121.1863,38.5827],[-121.1873,38.5362],[-121.222,38.5031],[-121.2428,38.5256],[-121.2704,38.5303],[-121.3081,38.5393],[-121.3163,38.5388],[-121.3189,38.5393],[-121.3572,38.535],[-121.3847,38.5471],[-121.3793,38.5586],[-121.3453,38.5625],[-121.3365,38.5724],[-121.3274,38.5789],[-121.3354,38.579],[-121.3462,38.5782],[-121.3484,38.5825],[-121.3522,38.5885],[-121.3548,38.5965],[-121.3553,38.6014],[-121.3553,38.6101],[-121.346,38.6137],[-121.3287,38.6135],[-121.3282,38.6333],[-121.3288,38.649],[-121.3399,38.6481],[-121.3436,38.6468],[-121.3471,38.6453],[-121.3506,38.6443],[-121.3533,38.6432],[-121.3576,38.6439],[-121.3635,38.644],[-121.373,38.6441],[-121.381,38.6406],[-121.3853,38.6426],[-121.3984,38.6414],[-121.4057,38.6398],[-121.4177,38.65],[-121.4235,38.6517],[-121.4222,38.6573],[-121.418,38.6601],[-121.4151,38.6587],[-121.4153,38.669],[-121.4097,38.6707],[-121.4037,38.6722],[-121.4031,38.6906],[-121.3808,38.7041],[-121.3564,38.7038],[-121.3367,38.7035],[-121.3303,38.7027],[-121.3182,38.7145],[-121.3065,38.7227],[-121.2987,38.722],[-121.2899,38.7215],[-121.2813,38.7209],[-121.2769,38.7206],[-121.2726,38.7203],[-121.2649,38.7197],[-121.2576,38.7193],[-121.2404,38.718],[-121.2331,38.7175],[-121.217,38.7162],[-121.1999,38.7151],[-121.1829,38.7139],[-121.1453,38.7118],[-121.139,38.7101],[-121.1349,38.7065],[-121.1304,38.707],[-121.1253,38.7101],[-121.1214,38.7142],[-121.1192,38.7163],[-121.1099,38.6988]]]}},{"type":"Feature","properties":{"dist_no":"27","code":"AD-27","id":"ad-27","name":" "},"geometry":{"type":"Polygon","coordinates":[[[-121.2206,37.1246],[-121.1293,37.2132],[-121.0345,37.2404],[-120.9619,37.2675],[-120.9306,37.2936],[-120.9136,37.2876],[-120.8967,37.2965],[-120.8634,37.289],[-120.8231,37.3811],[-120.7994,37.3968],[-120.7284,37.4264],[-120.6342,37.4255],[-120.5761,37.4071],[-120.4567,37.4148],[-120.3851,37.4201],[-120.3363,37.4415],[-120.2852,37.4627],[-120.2543,37.3851],[-120.1946,37.3065],[-120.0529,37.1829],[-120.1201,37.1655],[-120.2511,37.1575],[-120.2727,37.153],[-120.2935,37.151],[-120.3033,37.1423],[-120.2708,37.1272],[-120.2206,37.1131],[-120.1659,37.0764],[-120.1323,37.0216],[-120.1065,37.0235],[-120.0642,37.0399],[-120.0442,36.9868],[-120.0333,36.9747],[-120.0125,36.953],[-120.0068,36.943],[-120.0268,36.9292],[-120.0553,36.8999],[-120.0361,36.8159],[-119.9904,36.8376],[-119.9074,36.8487],[-119.889,36.8234],[-119.8557,36.8291],[-119.8418,36.8173],[-119.8443,36.7993],[-119.8468,36.7783],[-119.8966,36.779],[-119.9344,36.6786],[-119.834,36.5761],[-119.8483,36.4891],[-120.0101,36.4815],[-120.0313,36.4341],[-119.9593,36.4009],[-119.9589,36.2555],[-120.0706,36.0959],[-120.1311,36.0495],[-120.2654,35.9456],[-120.3539,35.946],[-120.4213,35.9739],[-120.4716,35.997],[-120.501,36.0223],[-120.5267,36.0231],[-120.5436,36.0442],[-120.5843,36.0655],[-120.611,36.0992],[-120.6537,36.1279],[-120.6651,36.1655],[-120.6412,36.1893],[-120.6514,36.2296],[-120.6744,36.2724],[-120.6498,36.317],[-120.6096,36.3243],[-120.6698,36.5412],[-120.9151,36.7374],[-121.1438,36.8473],[-121.1666,36.8755],[-121.2065,36.9117],[-121.2185,36.9479],[-121.2352,37.0026],[-121.239,37.0326],[-121.2126,37.0689],[-121.2316,37.0971],[-121.2206,37.1246]]]}},{"type":"Feature","properties":{"dist_no":"36","code":"AD-36","id":"ad-36","name":" "},"geometry":{"type":"Polygon","coordinates":[[[-117.1183,33.5727],[-117.136,33.6163],[-117.1366,33.6887],[-117.071,33.7335],[-116.9943,33.7474],[-116.9586,33.7404],[-116.9272,33.7121],[-116.8894,33.7312],[-116.8465,33.7364],[-116.8034,33.7241],[-116.7695,33.7113],[-116.7708,33.7027],[-116.753,33.6985],[-116.7296,33.7054],[-116.7005,33.6858],[-116.6559,33.6472],[-116.5121,33.6662],[-116.4225,33.6355],[-116.4015,33.6389],[-116.2578,33.584],[-116.2613,33.6854],[-116.2685,33.743],[-116.301,33.7874],[-116.3102,33.8425],[-116.3745,33.8806],[-116.3759,33.9356],[-116.1547,33.8386],[-115.8983,33.6688],[-115.6529,33.6686],[-115.452,33.704],[-115.364,33.7726],[-115.2472,33.9142],[-115.1156,34.0868],[-115.1405,34.262],[-115.0675,34.4117],[-115.0573,34.4889],[-115.0783,34.5215],[-115.137,34.5715],[-115.1425,34.6135],[-115.1674,34.6396],[-114.9929,34.8213],[-115.059,34.8608],[-115.029,34.9206],[-114.9642,35.0479],[-114.9533,35.1316],[-114.9504,35.2012],[-114.8039,35.1401],[-114.6298,34.943],[-114.5719,34.7963],[-114.4548,34.6745],[-114.383,34.4718],[-114.1933,34.3574],[-114.2995,34.1589],[-114.4344,34.0865],[-114.524,33.9535],[-114.5222,33.8323],[-114.5311,33.6045],[-114.641,33.4184],[-114.6721,33.2585],[-114.5311,33.0324],[-114.4901,32.8268],[-114.6213,32.7288],[-114.7057,32.7416],[-115.0824,32.6942],[-115.5511,32.6609],[-116.1059,32.6413],[-116.1036,32.8381],[-116.0812,33.1817],[-116.2336,33.4284],[-116.6842,33.4272],[-116.888,33.4313],[-116.8968,33.4438],[-116.9135,33.4662],[-116.9053,33.4949],[-116.9088,33.5135],[-116.946,33.5343],[-116.9719,33.5734],[-116.998,33.5474],[-117.0268,33.5405],[-117.041,33.5691],[-117.0985,33.5729],[-117.1183,33.5727]]]}},{"type":"Feature","properties":{"dist_no":"47","code":"AD-47","id":"ad-47","name":" "},"geometry":{"type":"Polygon","coordinates":[[[-116.6143,33.6878],[-116.6463,33.6384],[-116.6812,33.6741],[-116.7087,33.6909],[-116.726,33.7048],[-116.7411,33.7008],[-116.7567,33.6981],[-116.7641,33.7008],[-116.7558,33.7072],[-116.7715,33.7092],[-116.794,33.72],[-116.8194,33.7363],[-116.8462,33.7356],[-116.8758,33.7295],[-116.9195,33.7333],[-116.9119,33.7616],[-116.932,33.7873],[-116.9984,33.856],[-116.9859,33.9182],[-117.0231,33.9261],[-117.0906,33.9747],[-117.1231,33.9513],[-117.2555,33.9829],[-117.2876,34.0116],[-117.2405,34.0227],[-117.2356,34.0287],[-117.231,34.0266],[-117.2304,34.0347],[-117.2071,34.0355],[-117.1913,34.0333],[-117.1637,34.0438],[-117.138,34.0381],[-117.0994,34.0727],[-117.1824,34.1048],[-117.1682,34.1211],[-117.1347,34.1152],[-117.0687,34.0772],[-117.0331,34.0954],[-116.9995,34.1025],[-116.9436,34.0943],[-116.9145,34.0961],[-116.7825,34.1198],[-116.647,34.2068],[-116.5,34.2014],[-116.4735,34.1919],[-116.4226,34.187],[-116.3871,34.1658],[-116.3216,34.171],[-116.2769,34.1715],[-116.2558,34.1387],[-116.2349,34.1206],[-116.0544,34.1177],[-116.0241,34.0611],[-116.0397,34.0364],[-115.7912,34.0353],[-115.4785,34.035],[-115.1736,34.0668],[-115.2427,33.9535],[-115.2838,33.8103],[-115.4003,33.7657],[-115.4488,33.7227],[-115.5292,33.6856],[-115.6913,33.6651],[-115.8705,33.6695],[-115.9898,33.6894],[-116.2165,33.8697],[-116.2988,33.904],[-116.4062,33.9125],[-116.3807,33.88],[-116.387,33.8639],[-116.3253,33.821],[-116.3013,33.7751],[-116.2657,33.7438],[-116.2776,33.7177],[-116.2535,33.6854],[-116.229,33.6056],[-116.3729,33.6656],[-116.4018,33.6384],[-116.4184,33.6276],[-116.4291,33.6343],[-116.495,33.656],[-116.6143,33.6878]]]}},{"type":"Feature","properties":{"dist_no":"58","code":"AD-58","id":"ad-58","name":" "},"geometry":{"type":"Polygon","coordinates":[[[-117.4331,34.034],[-117.3887,34.0339],[-117.3756,34.0289],[-117.3682,34.0195],[-117.3395,34.0194],[-117.3309,34.0281],[-117.3293,34.0348],[-117.3355,34.0331],[-117.335,34.0356],[-117.3267,34.044],[-117.3246,34.0404],[-117.3167,34.042],[-117.3112,34.0434],[-117.3057,34.045],[-117.3002,34.0438],[-117.2961,34.0391],[-117.2952,34.0378],[-117.2912,34.0349],[-117.2876,34.0116],[-117.3136,34.0051],[-117.3283,34.0093],[-117.3369,34.0121],[-117.3557,33.9956],[-117.3485,33.9889],[-117.3485,33.9763],[-117.3479,33.9599],[-117.3465,33.9523],[-117.3517,33.9453],[-117.3622,33.9453],[-117.3704,33.9465],[-117.3752,33.9382],[-117.3845,33.9243],[-117.3835,33.9124],[-117.3836,33.8908],[-117.4328,33.8869],[-117.4554,33.8878],[-117.4647,33.8894],[-117.4725,33.8826],[-117.4936,33.8869],[-117.5003,33.8793],[-117.4903,33.8664],[-117.4845,33.8398],[-117.5091,33.8242],[-117.5233,33.8293],[-117.5241,33.8243],[-117.5365,33.8303],[-117.5342,33.8327],[-117.5351,33.8377],[-117.5361,33.8577],[-117.5451,33.8643],[-117.5597,33.856],[-117.574,33.8568],[-117.5978,33.8594],[-117.6029,33.8598],[-117.6077,33.865],[-117.6104,33.8688],[-117.6164,33.8722],[-117.6206,33.8811],[-117.6204,33.8818],[-117.5949,33.8817],[-117.5905,33.8951],[-117.5764,33.8964],[-117.5687,33.8965],[-117.5586,33.8953],[-117.5543,33.9017],[-117.5473,33.8979],[-117.5389,33.8998],[-117.5309,33.9049],[-117.5121,33.9137],[-117.5125,33.9372],[-117.5234,33.9556],[-117.5254,33.9594],[-117.5426,33.9564],[-117.5535,33.95],[-117.5538,33.9569],[-117.5907,33.9608],[-117.5583,34.0196],[-117.5502,34.0335],[-117.5141,34.0335],[-117.4992,34.0335],[-117.4813,34.0336],[-117.4331,34.034]]]}},{"type":"Feature","properties":{"dist_no":"74","code":"AD-74","id":"ad-74","name":" "},"geometry":{"type":"Polygon","coordinates":[[[-117.7186,33.5556],[-117.7153,33.5697],[-117.7028,33.5714],[-117.6855,33.5574],[-117.6727,33.5666],[-117.673,33.5424],[-117.6558,33.5319],[-117.6426,33.53],[-117.6272,33.5184],[-117.6258,33.5187],[-117.6223,33.5086],[-117.5943,33.4843],[-117.5778,33.4676],[-117.5392,33.4556],[-117.4648,33.505],[-117.3012,33.4681],[-117.2655,33.4565],[-117.2416,33.445],[-117.2251,33.4317],[-117.2274,33.4277],[-117.2325,33.4208],[-117.237,33.4159],[-117.2429,33.4136],[-117.2505,33.4006],[-117.2585,33.3582],[-117.2587,33.3293],[-117.2492,33.3188],[-117.245,33.3055],[-117.2429,33.2967],[-117.242,33.2929],[-117.2445,33.2867],[-117.2469,33.2815],[-117.2457,33.2788],[-117.2382,33.2663],[-117.2493,33.2636],[-117.2579,33.2437],[-117.2463,33.2358],[-117.2391,33.231],[-117.2359,33.2289],[-117.2291,33.2308],[-117.223,33.2358],[-117.2204,33.235],[-117.2189,33.2293],[-117.2154,33.2303],[-117.2156,33.2287],[-117.2106,33.2269],[-117.2065,33.2212],[-117.2079,33.218],[-117.2056,33.2094],[-117.1987,33.2083],[-117.1987,33.2026],[-117.2166,33.2019],[-117.2121,33.1945],[-117.2135,33.1867],[-117.2169,33.1908],[-117.2208,33.1869],[-117.2181,33.1825],[-117.2242,33.1808],[-117.2217,33.1736],[-117.2158,33.1755],[-117.2111,33.1698],[-117.2111,33.1674],[-117.216,33.1652],[-117.2152,33.1592],[-117.2166,33.1524],[-117.2144,33.1479],[-117.2261,33.1315],[-117.2532,33.1465],[-117.2803,33.1742],[-117.2944,33.1756],[-117.3146,33.1801],[-117.3247,33.1818],[-117.3403,33.1798],[-117.3593,33.1688],[-117.4679,33.2125],[-117.7257,33.4074],[-117.7314,33.4947],[-117.7378,33.5057],[-117.7346,33.5099],[-117.7393,33.5127],[-117.7202,33.55],[-117.7186,33.5556]]]}}]}