{"type":"FeatureCollection","source":{"authority":"California Citizens Redistricting Commission (2020 cycle)","wedrawthelines":"https://wedrawthelines.ca.gov/final-maps/","dataset":"https://data.ca.gov/dataset/california-state-assembly-districts-map-2020","download_kml":"https://gis.data.ca.gov/api/download/v1/items/1d4e5c18f82848afb7dbb2ce277f4c7d/kml?layers=0","download_geojson":"https://gis.data.ca.gov/api/download/v1/items/1d4e5c18f82848afb7dbb2ce277f4c7d/geojson?layers=0","fetched_at":"2026-10-07","conversion_notes":"Geometries from CA Open Data export of CRC Final Maps (same layer as official KML). Vertex decimation: context \u226430 pts/ring, beachheads \u2264110. Not for legal boundary determinations."},"features":[{"type":"Feature","properties":{"dist_no":"1","code":"AD-1","id":null,"beachhead":false,"name":" "},"geometry":{"type":"Polygon","coordinates":[[[-120.15193,41.99464],[-120.00216,39.5061],[-119.55821,38.4458],[-120.38497,38.46281],[-120.91104,38.2558],[-120.89101,38.45956],[-120.88367,38.53662],[-120.7254,38.59571],[-120.71691,38.6436],[-120.72983,38.72113],[-120.77377,38.78337],[-120.83145,38.87955],[-120.82074,38.93882],[-121.01538,38.97275],[-121.16955,39.01971],[-121.07701,39.39346],[-121.36562,40.21913],[-121.72175,40.44544],[-121.91481,40.426],[-122.1943,40.39104],[-122.75244,40.36269],[-122.90129,40.32299],[-122.99252,40.31036],[-122.82816,40.50736],[-122.67054,40.77277],[-122.52599,41.34195],[-123.27033,41.11392],[-123.64617,41.51527],[-123.54774,41.93702],[-121.80588,42.00217],[-120.16011,41.99461],[-120.15193,41.99464]]]}},{"type":"Feature","properties":{"dist_no":"2","code":"AD-2","id":null,"beachhead":false,"name":" "},"geometry":{"type":"Polygon","coordinates":[[[-124.29169,41.93635],[-123.53336,41.96355],[-123.674,41.79735],[-123.66567,41.54142],[-123.49815,41.37887],[-123.43629,41.2192],[-123.0433,41.0187],[-122.89473,41.20208],[-122.49963,41.19662],[-122.60919,40.92604],[-122.6907,40.76206],[-122.73104,40.65424],[-122.79658,40.51362],[-123.01641,40.3856],[-123.00546,40.25496],[-122.91411,39.93695],[-122.95276,39.86262],[-123.02525,39.51871],[-123.09423,39.09038],[-122.88967,38.88084],[-122.74446,38.78533],[-122.63081,38.57756],[-122.50089,38.43723],[-122.57752,38.43519],[-122.68264,38.43744],[-122.81199,38.38432],[-122.87797,38.36367],[-122.93623,38.31218],[-123.64127,38.7644],[-124.28019,40.79994],[-124.33,41.87476],[-124.29169,41.93635]]]}},{"type":"Feature","properties":{"dist_no":"3","code":"AD-3","id":null,"beachhead":false,"name":" "},"geometry":{"type":"Polygon","coordinates":[[[-122.15504,40.3971],[-121.99259,40.42409],[-121.8946,40.42733],[-121.79822,40.44283],[-121.7127,40.44933],[-121.63066,40.43784],[-121.38341,40.21053],[-121.02025,39.63279],[-121.05361,39.39546],[-121.25013,39.27857],[-121.21203,38.99362],[-121.22855,38.9478],[-121.18837,38.8936],[-121.32275,38.87366],[-121.40025,38.79894],[-121.65119,38.76471],[-121.72749,38.85309],[-121.79559,38.99523],[-121.92959,39.27061],[-122.50111,39.38407],[-122.93772,39.76884],[-122.94832,39.90014],[-122.96366,40.09375],[-123.02448,40.30379],[-122.95562,40.31021],[-122.91223,40.31174],[-122.87819,40.34474],[-122.79628,40.35536],[-122.72017,40.3479],[-122.46603,40.38084],[-122.16228,40.39436],[-122.15504,40.3971]]]}},{"type":"Feature","properties":{"dist_no":"4","code":"AD-4","id":null,"beachhead":false,"name":" "},"geometry":{"type":"Polygon","coordinates":[[[-122.4231,38.27127],[-122.48826,38.29097],[-122.51511,38.34862],[-122.47296,38.34087],[-122.47997,38.44873],[-122.63099,38.56916],[-122.71196,38.74132],[-122.78185,38.82712],[-122.88695,38.88084],[-123.03732,39.0065],[-123.02082,39.22069],[-123.02521,39.51769],[-122.66459,39.38473],[-121.88831,39.37123],[-121.93761,39.21775],[-121.83024,39.03232],[-121.80166,38.90577],[-121.72999,38.83413],[-121.66856,38.74927],[-121.60403,38.73098],[-121.51178,38.57484],[-121.5326,38.43002],[-121.60478,38.31308],[-121.69581,38.48797],[-121.76974,38.53161],[-121.95733,38.52388],[-122.04116,38.50465],[-122.10998,38.40775],[-122.19599,38.23041],[-122.4068,38.15564],[-122.42277,38.27115],[-122.4231,38.27127]]]}},{"type":"Feature","properties":{"dist_no":"5","code":"AD-5","id":null,"beachhead":false,"name":" "},"geometry":{"type":"Polygon","coordinates":[[[-121.11867,38.71708],[-121.35174,38.72565],[-121.31199,38.80496],[-121.34466,38.9232],[-121.18027,38.89809],[-121.22853,38.94859],[-121.21937,38.98875],[-121.13858,39.03781],[-121.03005,39.03663],[-120.9933,39.0097],[-121.02826,38.94497],[-120.90595,38.9539],[-120.80023,38.9385],[-120.79731,38.89862],[-120.8187,38.87384],[-120.81852,38.82871],[-120.82561,38.77548],[-120.75512,38.77564],[-120.71697,38.75607],[-120.75548,38.73643],[-120.75491,38.71104],[-120.72418,38.67405],[-120.71791,38.64389],[-120.73588,38.63427],[-120.70259,38.62446],[-120.77953,38.57447],[-120.83366,38.55523],[-120.87795,38.53981],[-120.92739,38.51504],[-120.99409,38.51378],[-121.1101,38.69923],[-121.11867,38.71708]]]}},{"type":"Feature","properties":{"dist_no":"6","code":"AD-6","id":null,"beachhead":false,"name":" "},"geometry":{"type":"Polygon","coordinates":[[[-121.57608,38.64861],[-121.63379,38.68617],[-121.6046,38.72748],[-121.56585,38.73591],[-121.47261,38.73384],[-121.4017,38.72923],[-121.34122,38.72498],[-121.31816,38.71455],[-121.35642,38.70376],[-121.40378,38.67204],[-121.41504,38.65835],[-121.42351,38.65109],[-121.3956,38.64206],[-121.37153,38.64455],[-121.35253,38.64308],[-121.34302,38.64763],[-121.32842,38.62439],[-121.35528,38.60656],[-121.3487,38.58477],[-121.32899,38.58016],[-121.37264,38.55958],[-121.42883,38.54685],[-121.46627,38.54885],[-121.47228,38.53383],[-121.48677,38.52099],[-121.51249,38.52125],[-121.51165,38.54714],[-121.51168,38.57493],[-121.50911,38.59741],[-121.52804,38.60453],[-121.56158,38.61861],[-121.57608,38.64861]]]}},{"type":"Feature","properties":{"dist_no":"7","code":"AD-7","id":"ad-7","beachhead":true,"name":" "},"geometry":{"type":"Polygon","coordinates":[[[-121.10987,38.69878],[-121.09891,38.67577],[-121.08422,38.64495],[-121.08297,38.62875],[-121.08896,38.6279],[-121.11632,38.62158],[-121.13075,38.61811],[-121.14173,38.61728],[-121.14167,38.6102],[-121.14224,38.6111],[-121.14298,38.61148],[-121.14555,38.61179],[-121.14822,38.61192],[-121.1515,38.61447],[-121.16454,38.60975],[-121.17435,38.60007],[-121.18728,38.56934],[-121.18731,38.5362],[-121.18877,38.53293],[-121.23592,38.50462],[-121.24424,38.52558],[-121.26531,38.52902],[-121.30228,38.53824],[-121.31295,38.5402],[-121.31618,38.53891],[-121.31796,38.53868],[-121.33478,38.54385],[-121.35933,38.53555],[-121.38486,38.54269],[-121.37673,38.55233],[-121.37553,38.55927],[-121.34898,38.56209],[-121.33639,38.56787],[-121.32754,38.57724],[-121.32744,38.57893],[-121.33098,38.57865],[-121.33982,38.57971],[-121.34641,38.57933],[-121.34837,38.58159],[-121.34887,38.58515],[-121.35387,38.58737],[-121.35485,38.59542],[-121.35522,38.60021],[-121.35529,38.60547],[-121.35423,38.61012],[-121.34605,38.61119],[-121.33951,38.61366],[-121.32858,38.61826],[-121.3282,38.63169],[-121.3279,38.64251],[-121.33109,38.64799],[-121.33991,38.6481],[-121.34314,38.64742],[-121.34485,38.64634],[-121.34763,38.64507],[-121.3487,38.64487],[-121.35215,38.6431],[-121.35365,38.64328],[-121.35736,38.64391],[-121.36161,38.64457],[-121.36648,38.64422],[-121.37575,38.64312],[-121.37936,38.64065],[-121.38327,38.6404],[-121.38613,38.6431],[-121.39716,38.64169],[-121.40548,38.63902],[-121.41059,38.6399],[-121.41766,38.64997],[-121.42348,38.65104],[-121.42223,38.65191],[-121.42212,38.65804],[-121.41949,38.66012],[-121.4157,38.65827],[-121.41521,38.65922],[-121.41527,38.66897],[-121.41264,38.67313],[-121.40867,38.67041],[-121.40359,38.67228],[-121.40601,38.68336],[-121.39397,38.70437],[-121.37664,38.70404],[-121.36048,38.70381],[-121.3423,38.70358],[-121.33536,38.70315],[-121.33026,38.70269],[-121.3261,38.707],[-121.31369,38.71821],[-121.30584,38.72263],[-121.2989,38.72205],[-121.29385,38.7218],[-121.28965,38.72147],[-121.28146,38.72091],[-121.27828,38.72061],[-121.27547,38.72042],[-121.27245,38.72025],[-121.26722,38.71989],[-121.26177,38.71951],[-121.25426,38.71895],[-121.24094,38.71807],[-121.23481,38.71761],[-121.22738,38.71701],[-121.21699,38.71622],[-121.20854,38.71567],[-121.19272,38.71461],[-121.18202,38.71389],[-121.17002,38.71308],[-121.14102,38.71176],[-121.13886,38.70898],[-121.13497,38.70675],[-121.13207,38.70583],[-121.12835,38.70888],[-121.12498,38.71006],[-121.12206,38.71323],[-121.11983,38.71451],[-121.1191,38.71708],[-121.10987,38.69878]]]}},{"type":"Feature","properties":{"dist_no":"8","code":"AD-8","id":null,"beachhead":false,"name":" "},"geometry":{"type":"Polygon","coordinates":[[[-116.47215,36.44656],[-115.66426,35.80924],[-117.117,35.79525],[-117.98615,35.93134],[-118.10563,36.21344],[-118.23593,36.47284],[-118.34294,36.70064],[-119.30457,36.67168],[-119.50866,36.7006],[-119.67311,36.78144],[-119.73172,36.80214],[-119.81749,36.79862],[-119.89889,36.84387],[-120.0272,36.93194],[-120.05622,37.0125],[-120.22038,37.1032],[-120.27181,37.15289],[-120.2246,37.34821],[-120.5495,37.75621],[-120.61908,37.92996],[-120.72177,38.0279],[-120.78284,38.11358],[-120.84852,38.18419],[-120.8247,38.27463],[-120.49886,38.44805],[-120.0725,38.49127],[-119.63613,38.32843],[-119.59151,38.57733],[-119.03047,38.32545],[-118.0142,37.5967],[-116.48841,36.45922],[-116.47215,36.44656]]]}},{"type":"Feature","properties":{"dist_no":"9","code":"AD-9","id":null,"beachhead":false,"name":" "},"geometry":{"type":"Polygon","coordinates":[[[-121.67642,38.1552],[-121.60258,38.26696],[-121.54098,38.34631],[-121.46286,38.40573],[-121.26875,38.48318],[-121.37064,38.53868],[-121.07048,38.6076],[-120.99832,38.51608],[-120.94879,38.51118],[-120.89733,38.46503],[-120.90854,38.40291],[-120.90639,38.32449],[-120.91745,38.27198],[-120.88741,38.23828],[-120.86591,38.18558],[-120.82095,38.15045],[-120.78918,38.11533],[-120.74852,38.01846],[-120.63789,37.9995],[-120.60234,37.91862],[-120.57115,37.77204],[-120.90088,37.66681],[-121.28556,37.62904],[-121.40835,37.80611],[-121.33298,37.81686],[-121.33202,37.87842],[-121.23669,37.87665],[-121.23131,37.94129],[-121.25833,38.03903],[-121.43195,38.04426],[-121.67089,38.153],[-121.67642,38.1552]]]}},{"type":"Feature","properties":{"dist_no":"10","code":"AD-10","id":null,"beachhead":false,"name":" "},"geometry":{"type":"Polygon","coordinates":[[[-121.39075,38.53967],[-121.36869,38.51393],[-121.30776,38.49637],[-121.27149,38.488],[-121.27321,38.48689],[-121.27523,38.48673],[-121.2742,38.48555],[-121.27148,38.4846],[-121.26926,38.48342],[-121.26678,38.48301],[-121.26673,38.46268],[-121.27017,38.42912],[-121.29947,38.41733],[-121.35247,38.38289],[-121.35848,38.37271],[-121.4506,38.37925],[-121.46158,38.40699],[-121.48057,38.3943],[-121.50116,38.45914],[-121.50874,38.47274],[-121.55002,38.48471],[-121.55209,38.51369],[-121.52406,38.52071],[-121.51092,38.54079],[-121.51264,38.52127],[-121.4952,38.52079],[-121.47051,38.5249],[-121.47394,38.54116],[-121.46658,38.54919],[-121.43573,38.54677],[-121.39075,38.53967]]]}},{"type":"Feature","properties":{"dist_no":"11","code":"AD-11","id":null,"beachhead":false,"name":" "},"geometry":{"type":"Polygon","coordinates":[[[-121.66782,37.87855],[-121.68228,37.95692],[-121.71946,37.96892],[-121.75152,38.01976],[-121.8802,38.04871],[-122.11585,38.0403],[-122.22587,38.06102],[-122.3402,38.15543],[-122.19795,38.1606],[-122.20043,38.27203],[-122.08693,38.38162],[-122.12114,38.4201],[-122.09245,38.51508],[-122.03248,38.49431],[-121.99657,38.49991],[-121.94263,38.53218],[-121.83135,38.52969],[-121.7685,38.52928],[-121.72195,38.53488],[-121.69573,38.48994],[-121.69444,38.33165],[-121.61685,38.31315],[-121.60545,38.286],[-121.60189,38.24422],[-121.62713,38.19357],[-121.5804,38.12608],[-121.58062,38.0694],[-121.57453,37.99889],[-121.55684,37.92267],[-121.62313,37.88303],[-121.66079,37.87403],[-121.66782,37.87855]]]}},{"type":"Feature","properties":{"dist_no":"12","code":"AD-12","id":null,"beachhead":false,"name":" "},"geometry":{"type":"Polygon","coordinates":[[[-122.6123,37.81523],[-123.04457,38.29559],[-122.95603,38.31374],[-122.93489,38.3125],[-122.9165,38.31281],[-122.8991,38.31722],[-122.87427,38.3638],[-122.83951,38.36407],[-122.79183,38.36528],[-122.814,38.38803],[-122.7813,38.41962],[-122.71532,38.43124],[-122.66958,38.44026],[-122.66453,38.46388],[-122.62062,38.45254],[-122.55951,38.42913],[-122.53512,38.44191],[-122.50936,38.43539],[-122.49793,38.44728],[-122.45431,38.36502],[-122.4655,38.34354],[-122.48496,38.33859],[-122.50764,38.34032],[-122.50147,38.31927],[-122.4962,38.29173],[-122.47183,38.28243],[-122.43844,38.27267],[-122.3788,38.2505],[-122.38006,38.16005],[-122.47713,37.83346],[-122.5509,37.81533],[-122.6123,37.81523]]]}},{"type":"Feature","properties":{"dist_no":"13","code":"AD-13","id":null,"beachhead":false,"name":" "},"geometry":{"type":"Polygon","coordinates":[[[-121.55667,37.55004],[-121.55692,37.76809],[-121.53799,37.8415],[-121.56336,37.85423],[-121.56453,37.91403],[-121.57416,37.97182],[-121.55799,38.01595],[-121.48785,38.03832],[-121.44323,38.04399],[-121.3722,38.0581],[-121.32278,38.04009],[-121.25885,38.04997],[-121.27327,37.99791],[-121.23837,37.95261],[-121.22572,37.94262],[-121.20444,37.91596],[-121.22179,37.87179],[-121.25055,37.87171],[-121.30231,37.88268],[-121.3311,37.8866],[-121.32508,37.86523],[-121.31919,37.84211],[-121.32784,37.80856],[-121.34506,37.8196],[-121.37778,37.82166],[-121.39778,37.80788],[-121.40058,37.80276],[-121.34642,37.74073],[-121.36055,37.57006],[-121.48008,37.49791],[-121.54577,37.53254],[-121.55667,37.55004]]]}},{"type":"Feature","properties":{"dist_no":"14","code":"AD-14","id":null,"beachhead":false,"name":" "},"geometry":{"type":"Polygon","coordinates":[[[-122.21699,37.86878],[-122.20348,37.86692],[-122.18329,37.83957],[-122.18276,37.83524],[-122.16343,37.82139],[-122.18711,37.81877],[-122.20516,37.82024],[-122.21481,37.81259],[-122.23241,37.81624],[-122.2428,37.81872],[-122.25345,37.82572],[-122.26418,37.83787],[-122.26886,37.85107],[-122.27762,37.84755],[-122.28602,37.85018],[-122.38175,37.88996],[-122.26536,38.05992],[-122.22859,38.05661],[-122.23634,38.05165],[-122.24736,38.02044],[-122.22037,38.00786],[-122.22892,37.9933],[-122.24637,37.96417],[-122.2411,37.95702],[-122.24684,37.95519],[-122.25374,37.95028],[-122.2545,37.94563],[-122.24215,37.91817],[-122.21533,37.90255],[-122.20947,37.89474],[-122.22044,37.87755],[-122.21699,37.86878]]]}},{"type":"Feature","properties":{"dist_no":"15","code":"AD-15","id":null,"beachhead":false,"name":" "},"geometry":{"type":"Polygon","coordinates":[[[-121.75069,37.76927],[-121.79868,37.7708],[-121.80338,37.79639],[-121.79847,37.81357],[-121.81283,37.81993],[-121.81475,37.86728],[-121.8097,37.88948],[-121.84166,37.93813],[-121.87263,37.94049],[-121.93273,37.92544],[-121.98579,37.93389],[-122.04805,37.93534],[-122.07353,37.93247],[-122.09785,37.92087],[-122.1461,37.91487],[-122.18666,37.91936],[-122.2266,37.90545],[-122.25512,37.94798],[-122.24282,37.95483],[-122.23912,37.97187],[-122.23772,38.00538],[-122.23371,38.05697],[-122.13155,38.0345],[-121.88959,38.04666],[-121.75097,38.01632],[-121.70581,37.96157],[-121.67797,37.92293],[-121.62224,37.84568],[-121.5742,37.88402],[-121.53666,37.8451],[-121.75069,37.76927]]]}},{"type":"Feature","properties":{"dist_no":"16","code":"AD-16","id":null,"beachhead":false,"name":" "},"geometry":{"type":"Polygon","coordinates":[[[-122.07528,37.72075],[-122.09001,37.77101],[-122.09298,37.78833],[-122.11169,37.7873],[-122.11779,37.79717],[-122.18127,37.83625],[-122.22137,37.87993],[-122.20008,37.91672],[-122.12124,37.91714],[-122.07813,37.92629],[-122.03786,37.93838],[-121.95728,37.93693],[-121.87187,37.94129],[-121.83473,37.9371],[-121.8096,37.86873],[-121.80797,37.81472],[-121.80119,37.7998],[-121.80159,37.76968],[-121.55688,37.7662],[-121.4744,37.49356],[-121.87686,37.52039],[-121.86427,37.57307],[-121.88117,37.62565],[-121.90355,37.69258],[-121.97432,37.72709],[-122.00447,37.71976],[-122.01875,37.73593],[-122.03492,37.72965],[-122.04302,37.72565],[-122.05337,37.73613],[-122.06171,37.72956],[-122.07528,37.72075]]]}},{"type":"Feature","properties":{"dist_no":"17","code":"AD-17","id":null,"beachhead":false,"name":" "},"geometry":{"type":"Polygon","coordinates":[[[-122.46635,37.74908],[-122.45604,37.75286],[-122.44855,37.75905],[-122.44401,37.7647],[-122.4365,37.77004],[-122.44169,37.77738],[-122.43521,37.78728],[-122.42392,37.78538],[-122.4233,37.79481],[-122.4169,37.80522],[-122.43364,37.84692],[-122.42039,37.86343],[-122.36899,37.87013],[-122.33518,37.79277],[-122.28519,37.71363],[-122.40134,37.70834],[-122.41291,37.70831],[-122.4239,37.70824],[-122.43236,37.70824],[-122.43922,37.70829],[-122.44925,37.70822],[-122.44894,37.71008],[-122.4384,37.72],[-122.42889,37.73118],[-122.43544,37.73179],[-122.43995,37.73484],[-122.44891,37.73428],[-122.45402,37.72917],[-122.45718,37.72413],[-122.46769,37.72836],[-122.47036,37.73677],[-122.46635,37.74908]]]}},{"type":"Feature","properties":{"dist_no":"18","code":"AD-18","id":null,"beachhead":false,"name":" "},"geometry":{"type":"Polygon","coordinates":[[[-122.11983,37.73164],[-122.13977,37.73391],[-122.1609,37.73746],[-122.17465,37.72633],[-122.19733,37.72654],[-122.28979,37.72083],[-122.29529,37.84866],[-122.28219,37.84831],[-122.26918,37.84688],[-122.26552,37.84733],[-122.25347,37.83515],[-122.24634,37.8205],[-122.23819,37.81739],[-122.22381,37.8143],[-122.21146,37.81774],[-122.19904,37.81521],[-122.18656,37.82301],[-122.11472,37.80073],[-122.121,37.79299],[-122.11758,37.78698],[-122.11367,37.78548],[-122.10941,37.7883],[-122.10231,37.78519],[-122.09545,37.78728],[-122.09454,37.78369],[-122.09234,37.77943],[-122.09117,37.77385],[-122.09183,37.7686],[-122.07556,37.74678],[-122.08035,37.72971],[-122.0969,37.7282],[-122.11983,37.73164]]]}},{"type":"Feature","properties":{"dist_no":"19","code":"AD-19","id":null,"beachhead":false,"name":" "},"geometry":{"type":"MultiPolygon","coordinates":[[[[-123.12613,37.82167],[-123.09527,37.82188],[-123.04883,37.79982],[-123.03385,37.77838],[-123.01698,37.77607],[-123.00112,37.77206],[-122.98743,37.76387],[-122.97546,37.75259],[-122.97046,37.74782],[-122.96107,37.74196],[-122.95,37.73219],[-122.93972,37.71535],[-122.93588,37.70246],[-122.93904,37.68655],[-122.94502,37.66978],[-122.96302,37.65199],[-122.98676,37.64179],[-123.00112,37.63983],[-123.02717,37.64523],[-123.06359,37.66732],[-123.07493,37.69007],[-123.08607,37.70075],[-123.09286,37.71369],[-123.10493,37.71265],[-123.12613,37.71673],[-123.14914,37.73228],[-123.16671,37.74993],[-123.17378,37.77184],[-123.16912,37.79237],[-123.15388,37.80707],[-123.13945,37.81672],[-123.12613,37.82167]]],[[[-122.57991,37.74808],[-122.52384,37.82456],[-122.4921,37.82533],[-122.4745,37.83364],[-122.4153,37.79729],[-122.43056,37.78933],[-122.43785,37.77499],[-122.44422,37.76438],[-122.45604,37.75286],[-122.47079,37.73617],[-122.4582,37.72435],[-122.44934,37.73492],[-122.43326,37.73331],[-122.43364,37.72624],[-122.454,37.70824],[-122.43857,37.70824],[-122.4201,37.70824],[-122.40906,37.70523],[-122.42102,37.69919],[-122.42025,37.68952],[-122.40807,37.68155],[-122.40268,37.67327],[-122.41318,37.67062],[-122.42946,37.66153],[-122.43611,37.65401],[-122.44099,37.64481],[-122.44545,37.63509],[-122.46456,37.63927],[-122.48036,37.66502],[-122.49022,37.6611],[-122.57991,37.74808]]]]}},{"type":"Feature","properties":{"dist_no":"20","code":"AD-20","id":null,"beachhead":false,"name":" "},"geometry":{"type":"Polygon","coordinates":[[[-122.12726,37.72983],[-122.0774,37.72238],[-122.05674,37.74787],[-122.05389,37.73845],[-122.05127,37.73143],[-122.05439,37.71712],[-122.04034,37.72326],[-122.03672,37.72681],[-122.03333,37.7354],[-122.02603,37.73821],[-122.01607,37.7318],[-122.00766,37.72522],[-122.01018,37.71651],[-122.02029,37.70539],[-121.9439,37.72267],[-121.91019,37.71801],[-121.90381,37.68173],[-121.89213,37.64599],[-121.88296,37.62355],[-121.94389,37.64663],[-121.93441,37.63648],[-121.92751,37.61678],[-121.94749,37.59802],[-122.00688,37.58328],[-122.03872,37.58779],[-122.06587,37.56757],[-122.10732,37.56137],[-122.1972,37.71575],[-122.17618,37.72525],[-122.1518,37.74],[-122.13066,37.73013],[-122.12726,37.72983]]]}},{"type":"Feature","properties":{"dist_no":"21","code":"AD-21","id":null,"beachhead":false,"name":" "},"geometry":{"type":"Polygon","coordinates":[[[-122.14919,37.54584],[-122.12279,37.45763],[-122.13174,37.45361],[-122.14248,37.458],[-122.15104,37.46255],[-122.17877,37.48246],[-122.19243,37.46891],[-122.21614,37.46488],[-122.22947,37.45288],[-122.24311,37.45369],[-122.26665,37.45076],[-122.26856,37.45545],[-122.27364,37.45625],[-122.27679,37.4624],[-122.28008,37.47526],[-122.31617,37.49835],[-122.35766,37.52498],[-122.39931,37.57271],[-122.42306,37.59903],[-122.45275,37.61825],[-122.46579,37.63835],[-122.43998,37.6369],[-122.43435,37.64618],[-122.4323,37.65629],[-122.41833,37.67308],[-122.40413,37.67399],[-122.40803,37.68025],[-122.4222,37.69034],[-122.414,37.69782],[-122.40134,37.70834],[-122.19544,37.60338],[-122.14919,37.54584]]]}},{"type":"Feature","properties":{"dist_no":"22","code":"AD-22","id":null,"beachhead":false,"name":" "},"geometry":{"type":"Polygon","coordinates":[[[-121.19666,37.15924],[-121.28021,37.18308],[-121.36426,37.18136],[-121.41104,37.17398],[-121.44521,37.23451],[-121.44947,37.28936],[-121.42251,37.3631],[-121.46746,37.43372],[-121.41215,37.52947],[-121.20663,37.63762],[-121.07302,37.70001],[-120.96308,37.69987],[-120.89704,37.61907],[-120.56242,37.56546],[-120.32134,37.52391],[-120.30005,37.48901],[-120.31863,37.45098],[-120.37,37.42238],[-120.45201,37.40344],[-120.50467,37.40397],[-120.62826,37.42374],[-120.70154,37.42665],[-120.79571,37.40946],[-120.81985,37.38192],[-120.85911,37.29291],[-120.89565,37.29599],[-120.91343,37.28802],[-120.93067,37.29365],[-120.96194,37.26638],[-121.03912,37.23956],[-121.15012,37.19661],[-121.19666,37.15924]]]}},{"type":"Feature","properties":{"dist_no":"23","code":"AD-23","id":null,"beachhead":false,"name":" "},"geometry":{"type":"Polygon","coordinates":[[[-122.2949,37.10415],[-122.49576,37.66563],[-122.47064,37.63621],[-122.40763,37.58488],[-122.31783,37.49922],[-122.27669,37.45836],[-122.26882,37.45251],[-122.22756,37.45661],[-122.18361,37.4814],[-122.14094,37.4574],[-122.07906,37.47631],[-122.04527,37.39366],[-122.06249,37.35355],[-122.06472,37.33477],[-122.08766,37.3396],[-122.09405,37.30096],[-122.04347,37.29379],[-122.02129,37.30951],[-121.97801,37.30272],[-121.94398,37.30663],[-121.91807,37.29139],[-121.94007,37.27302],[-121.95473,37.25713],[-121.99195,37.26282],[-122.00025,37.24261],[-122.00775,37.22832],[-122.08927,37.22315],[-122.1329,37.26212],[-122.15222,37.2856],[-122.23215,37.2152],[-122.29267,37.10767],[-122.2949,37.10415]]]}},{"type":"Feature","properties":{"dist_no":"24","code":"AD-24","id":null,"beachhead":false,"name":" "},"geometry":{"type":"Polygon","coordinates":[[[-121.8783,37.50372],[-121.84504,37.46256],[-121.84092,37.45006],[-121.82409,37.43966],[-121.8033,37.43067],[-121.77971,37.41756],[-121.78925,37.41414],[-121.80668,37.39033],[-121.81585,37.38436],[-121.83178,37.37768],[-121.85959,37.35879],[-121.91732,37.37226],[-121.94193,37.37824],[-121.93001,37.39965],[-121.92096,37.40484],[-121.92811,37.42847],[-121.92786,37.45527],[-121.94549,37.46917],[-122.06937,37.4702],[-122.08377,37.56793],[-122.05553,37.59092],[-122.01969,37.57503],[-121.95345,37.59529],[-121.93308,37.59159],[-121.93401,37.63482],[-121.94242,37.64545],[-121.88615,37.62278],[-121.81518,37.6078],[-121.86418,37.57233],[-121.85133,37.52828],[-121.87807,37.52053],[-121.8783,37.50372]]]}},{"type":"Feature","properties":{"dist_no":"25","code":"AD-25","id":null,"beachhead":false,"name":" "},"geometry":{"type":"Polygon","coordinates":[[[-121.78412,37.39504],[-121.78233,37.41953],[-121.81928,37.43643],[-121.84109,37.4524],[-121.83288,37.48434],[-121.4628,37.45004],[-121.41885,37.30256],[-121.42846,37.22534],[-121.36318,37.18351],[-121.23135,37.13855],[-121.23037,37.08252],[-121.24228,37.02137],[-121.35311,36.9602],[-121.43771,36.97851],[-121.52614,37.02574],[-121.5563,37.08322],[-121.58842,37.15211],[-121.61495,37.16125],[-121.66729,37.15357],[-121.79463,37.23681],[-121.83075,37.24478],[-121.84107,37.26897],[-121.87041,37.27528],[-121.87522,37.31555],[-121.89952,37.32947],[-121.93458,37.32991],[-121.93205,37.34221],[-121.91753,37.37255],[-121.84019,37.372],[-121.81504,37.38554],[-121.78427,37.39479],[-121.78412,37.39504]]]}},{"type":"Feature","properties":{"dist_no":"26","code":"AD-26","id":null,"beachhead":false,"name":" "},"geometry":{"type":"Polygon","coordinates":[[[-122.06079,37.27931],[-122.08235,37.31949],[-122.09051,37.33914],[-122.07385,37.33195],[-122.06619,37.33645],[-122.06471,37.34896],[-122.063,37.36635],[-122.04499,37.39983],[-122.0597,37.43288],[-121.95193,37.46147],[-121.93114,37.45739],[-121.924,37.44482],[-121.93006,37.42082],[-121.91998,37.40227],[-121.92977,37.39971],[-121.941,37.37847],[-121.94155,37.36695],[-121.93209,37.33929],[-121.9486,37.32946],[-121.92939,37.33091],[-121.90997,37.32978],[-121.9024,37.32361],[-121.90302,37.30856],[-121.90922,37.29946],[-121.93169,37.29803],[-121.94579,37.30155],[-121.97301,37.30262],[-121.98553,37.30859],[-122.02762,37.31115],[-122.03517,37.2938],[-122.06378,37.28272],[-122.06079,37.27931]]]}},{"type":"Feature","properties":{"dist_no":"27","code":"AD-27","id":"ad-27","beachhead":true,"name":" "},"geometry":{"type":"Polygon","coordinates":[[[-121.22062,37.12463],[-121.18018,37.17242],[-121.08483,37.24895],[-121.01262,37.24202],[-120.96377,37.26044],[-120.93708,37.29736],[-120.92549,37.29025],[-120.91332,37.2894],[-120.89916,37.29542],[-120.87542,37.29137],[-120.85134,37.29859],[-120.82308,37.38156],[-120.80474,37.39177],[-120.78987,37.44421],[-120.70148,37.42689],[-120.63632,37.42513],[-120.61281,37.40392],[-120.48392,37.41614],[-120.45272,37.4113],[-120.39744,37.41735],[-120.35371,37.43138],[-120.31989,37.45013],[-120.2845,37.46281],[-120.27839,37.41961],[-120.22602,37.35021],[-120.18393,37.27172],[-120.0563,37.18662],[-120.10305,37.16796],[-120.17534,37.16532],[-120.25225,37.15709],[-120.27138,37.15306],[-120.28988,37.15262],[-120.29824,37.14757],[-120.30338,37.14222],[-120.28481,37.12236],[-120.25118,37.13309],[-120.22035,37.10359],[-120.16214,37.08361],[-120.15486,37.03945],[-120.12184,37.01331],[-120.10463,37.02404],[-120.07437,37.02419],[-120.05623,37.00994],[-120.03934,36.98082],[-120.03276,36.9707],[-120.01206,36.95719],[-120.0097,36.94853],[-120.00465,36.94076],[-120.03192,36.93418],[-120.04659,36.92237],[-120.05598,36.87413],[-120.02568,36.81535],[-119.99124,36.83217],[-119.93251,36.84304],[-119.90223,36.84178],[-119.88848,36.82203],[-119.86466,36.82993],[-119.84722,36.82272],[-119.84248,36.81418],[-119.84433,36.79983],[-119.83595,36.77375],[-119.85691,36.77799],[-119.91629,36.77456],[-119.93437,36.68987],[-119.84457,36.63412],[-119.82681,36.54675],[-119.86114,36.48907],[-120.00326,36.48627],[-120.02395,36.46212],[-120.01326,36.42994],[-119.95965,36.40098],[-119.95894,36.30633],[-119.96794,36.17494],[-120.08839,36.08222],[-120.12818,36.05172],[-120.19596,35.99997],[-120.328,35.9133],[-120.35569,35.94806],[-120.40634,35.97397],[-120.44909,35.98617],[-120.48046,36.00593],[-120.50036,36.02202],[-120.51954,36.02505],[-120.52882,36.03465],[-120.54882,36.0474],[-120.58157,36.06317],[-120.59034,36.08927],[-120.6268,36.09824],[-120.65545,36.1307],[-120.67202,36.16291],[-120.65116,36.17501],[-120.635,36.19808],[-120.65117,36.22872],[-120.67297,36.25768],[-120.68274,36.29445],[-120.6384,36.31876],[-120.61289,36.32334],[-120.5971,36.45251],[-120.75141,36.60647],[-120.93114,36.74999],[-121.14261,36.83907],[-121.15312,36.86454],[-121.17455,36.88622],[-121.20651,36.91169],[-121.23291,36.93267],[-121.22935,36.96765],[-121.23746,37.00887],[-121.24419,37.03197],[-121.21163,37.05596],[-121.23018,37.08237],[-121.23015,37.10238],[-121.22062,37.12463]]]}},{"type":"Feature","properties":{"dist_no":"28","code":"AD-28","id":null,"beachhead":false,"name":" "},"geometry":{"type":"Polygon","coordinates":[[[-121.62678,37.0643],[-121.63233,37.01209],[-121.66975,37.00292],[-121.73836,36.99114],[-121.77971,37.02649],[-121.80446,37.00704],[-121.82879,37.02798],[-121.85012,37.06938],[-121.88524,37.04867],[-121.91514,36.99771],[-121.96398,37.01113],[-121.98804,36.99467],[-122.08933,36.93639],[-122.23088,37.2152],[-122.15038,37.27669],[-122.11236,37.24866],[-122.02984,37.22404],[-121.99685,37.24455],[-121.97728,37.26507],[-121.94128,37.26754],[-121.91807,37.29213],[-121.90391,37.31364],[-121.87472,37.29832],[-121.85258,37.27393],[-121.8295,37.25733],[-121.81752,37.24108],[-121.69348,37.1907],[-121.62131,37.1673],[-121.59356,37.14806],[-121.62581,37.10924],[-121.62327,37.06726],[-121.62678,37.0643]]]}},{"type":"Feature","properties":{"dist_no":"29","code":"AD-29","id":null,"beachhead":false,"name":" "},"geometry":{"type":"Polygon","coordinates":[[[-121.39978,36.35293],[-121.54652,36.48068],[-121.62762,36.54039],[-121.70202,36.62209],[-121.7553,36.76134],[-121.7444,36.8709],[-121.7691,36.88552],[-121.80251,36.88973],[-121.84554,36.94522],[-121.832,36.98932],[-121.80561,37.00785],[-121.76514,37.02158],[-121.68777,36.99616],[-121.64032,37.01042],[-121.6239,37.06697],[-121.60092,37.11794],[-121.54796,37.05264],[-121.44036,36.98374],[-121.21359,36.95529],[-121.15542,36.86672],[-120.71726,36.57941],[-120.66996,36.30633],[-120.636,36.19797],[-120.64659,36.11381],[-120.65334,36.07312],[-120.72186,36.01968],[-120.87347,35.94063],[-121.01858,35.98825],[-121.20556,36.12379],[-121.28403,36.23552],[-121.39175,36.35023],[-121.39978,36.35293]]]}},{"type":"Feature","properties":{"dist_no":"30","code":"AD-30","id":null,"beachhead":false,"name":" "},"geometry":{"type":"Polygon","coordinates":[[[-121.96743,36.33462],[-121.98542,37.0007],[-121.91197,37.00163],[-121.84017,37.06323],[-121.81172,36.99218],[-121.81618,36.93302],[-121.77971,36.88366],[-121.75207,36.84934],[-121.70441,36.64031],[-121.61629,36.53268],[-121.40703,36.35431],[-121.24013,36.16344],[-121.01833,35.98779],[-120.79848,35.98082],[-120.63724,36.05764],[-120.52595,36.02281],[-120.35652,35.94923],[-120.21583,35.79249],[-119.49041,35.09],[-119.65,34.95893],[-119.8534,35.03161],[-119.95841,35.05644],[-120.09378,35.1135],[-120.1299,35.09606],[-120.16413,35.07572],[-120.20378,35.02754],[-120.26602,35.02163],[-120.3146,34.90547],[-120.45022,35.00767],[-120.58453,35.08308],[-121.9605,36.29005],[-121.96743,36.33462]]]}},{"type":"Feature","properties":{"dist_no":"31","code":"AD-31","id":null,"beachhead":false,"name":" "},"geometry":{"type":"Polygon","coordinates":[[[-119.45744,36.70583],[-119.31688,36.71999],[-119.29021,36.71476],[-119.31209,36.57382],[-119.44093,36.62591],[-119.52109,36.5998],[-119.61064,36.60528],[-119.60003,36.57147],[-119.57231,36.51074],[-119.64117,36.43804],[-119.67105,36.4307],[-119.71208,36.41944],[-119.73605,36.41608],[-119.77662,36.40202],[-119.9275,36.40136],[-120.03129,36.44409],[-119.9573,36.48857],[-119.84122,36.57611],[-119.93436,36.73105],[-119.84815,36.77891],[-119.84261,36.80827],[-119.80431,36.78545],[-119.78759,36.80852],[-119.75417,36.81298],[-119.73629,36.78134],[-119.72283,36.76199],[-119.69541,36.79372],[-119.63874,36.75931],[-119.61374,36.76199],[-119.52702,36.72103],[-119.48305,36.70593],[-119.45744,36.70583]]]}},{"type":"Feature","properties":{"dist_no":"32","code":"AD-32","id":null,"beachhead":false,"name":" "},"geometry":{"type":"Polygon","coordinates":[[[-117.67247,35.46633],[-117.76785,35.47181],[-117.86385,35.45577],[-117.96659,35.45562],[-118.10022,35.20458],[-118.22128,35.07014],[-118.31686,34.96812],[-118.51797,34.85453],[-118.86619,34.8031],[-119.5548,35.16689],[-119.48305,35.38366],[-119.0152,35.3848],[-118.87807,35.16543],[-118.93204,35.42286],[-118.97,35.63075],[-119.02534,35.65539],[-118.99269,35.82413],[-118.99107,35.91648],[-118.9466,36.0539],[-119.05164,36.20241],[-119.33907,36.24036],[-119.39458,36.34289],[-119.22639,36.34913],[-119.07596,36.38047],[-119.1504,36.47221],[-119.25702,36.66117],[-118.32954,36.66544],[-118.19543,36.42784],[-118.05893,36.15295],[-118.00373,35.81828],[-117.67096,35.46501],[-117.67247,35.46633]]]}},{"type":"Feature","properties":{"dist_no":"33","code":"AD-33","id":null,"beachhead":false,"name":" "},"geometry":{"type":"Polygon","coordinates":[[[-120.25566,35.85258],[-120.25703,35.95203],[-120.00544,36.1461],[-119.89257,36.40177],[-119.73977,36.41764],[-119.69958,36.42493],[-119.64766,36.43292],[-119.59434,36.54644],[-119.60074,36.60523],[-119.48535,36.61883],[-119.28357,36.58791],[-119.1694,36.47106],[-119.09895,36.42825],[-119.03627,36.40195],[-119.1706,36.32639],[-119.22736,36.32717],[-119.29751,36.33376],[-119.31926,36.37212],[-119.42144,36.31195],[-119.36228,36.22936],[-119.19844,36.21077],[-119.06341,36.22153],[-119.01809,36.11731],[-118.96338,36.06232],[-118.99092,36.03029],[-118.97449,35.92739],[-118.9817,35.84523],[-118.99256,35.82898],[-118.99204,35.79475],[-119.60843,35.78978],[-120.25099,35.83402],[-120.25566,35.85258]]]}},{"type":"Feature","properties":{"dist_no":"34","code":"AD-34","id":null,"beachhead":false,"name":" "},"geometry":{"type":"Polygon","coordinates":[[[-115.69284,34.03532],[-116.2646,34.14125],[-116.49745,34.20188],[-117.01992,34.10254],[-117.21135,34.12661],[-117.30972,34.18934],[-117.43559,34.36125],[-117.28779,34.45726],[-117.40078,34.5864],[-118.01951,34.82221],[-118.08865,34.5319],[-117.96858,34.40901],[-118.26078,34.38419],[-118.54221,34.48353],[-118.57978,34.54189],[-118.57889,34.55527],[-118.61619,34.55838],[-118.65642,34.58765],[-118.60576,34.81823],[-118.38653,34.91946],[-118.22127,35.07179],[-118.05903,35.28965],[-117.89576,35.45409],[-117.76999,35.46195],[-117.65033,35.45764],[-116.65399,35.79544],[-115.10097,35.37569],[-114.98403,34.92516],[-115.15504,34.62395],[-115.06073,34.47994],[-115.65598,34.03535],[-115.69284,34.03532]]]}},{"type":"Feature","properties":{"dist_no":"35","code":"AD-35","id":null,"beachhead":false,"name":" "},"geometry":{"type":"Polygon","coordinates":[[[-120.19395,35.63621],[-119.97218,35.78917],[-119.53379,35.78993],[-119.21472,35.7905],[-119.05645,35.74228],[-119.04281,35.6559],[-119.02678,35.66299],[-118.99006,35.6532],[-118.97307,35.6468],[-118.96092,35.64069],[-118.98745,35.6223],[-118.96726,35.59175],[-118.95934,35.53795],[-118.94634,35.43136],[-118.92394,35.41669],[-118.93211,35.3804],[-118.85263,35.36928],[-118.75261,35.2768],[-118.99023,35.1495],[-119.03023,35.25967],[-119.07448,35.32414],[-119.03878,35.3686],[-119.01285,35.3962],[-119.01271,35.42543],[-119.06027,35.44338],[-119.25456,35.44168],[-119.55389,35.38385],[-119.7893,35.35069],[-119.80109,35.3397],[-119.8879,35.43913],[-120.12497,35.61435],[-120.19395,35.63621]]]}},{"type":"Feature","properties":{"dist_no":"36","code":"AD-36","id":"ad-36","beachhead":true,"name":" "},"geometry":{"type":"Polygon","coordinates":[[[-117.11835,33.57266],[-117.12111,33.5987],[-117.11907,33.63853],[-117.12137,33.69966],[-117.07143,33.72992],[-117.03092,33.74389],[-116.96429,33.7476],[-116.95587,33.73566],[-116.93697,33.71302],[-116.92242,33.73053],[-116.87235,33.72958],[-116.84686,33.73677],[-116.81357,33.73443],[-116.78614,33.71503],[-116.76418,33.70958],[-116.76825,33.70274],[-116.75865,33.69719],[-116.74353,33.70132],[-116.72627,33.70475],[-116.70654,33.68968],[-116.67697,33.67137],[-116.63478,33.64969],[-116.49034,33.62695],[-116.42691,33.63521],[-116.40885,33.62273],[-116.37329,33.64593],[-116.26765,33.584],[-116.23393,33.66747],[-116.2657,33.71199],[-116.26652,33.74377],[-116.30182,33.77422],[-116.31926,33.82515],[-116.38514,33.86854],[-116.37727,33.88562],[-116.42304,33.92978],[-116.26598,33.88916],[-116.04018,33.73988],[-115.89557,33.66877],[-115.71559,33.6612],[-115.53189,33.68497],[-115.44342,33.7233],[-115.39665,33.7726],[-115.25665,33.83703],[-115.23358,34.03391],[-115.12069,34.09315],[-115.11594,34.1937],[-115.12659,34.27825],[-115.087,34.41781],[-115.05627,34.49045],[-115.06749,34.50559],[-115.12985,34.54379],[-115.1175,34.59346],[-115.14214,34.61299],[-115.15963,34.62474],[-115.10503,34.68234],[-114.96734,34.84245],[-115.05687,34.85062],[-115.06284,34.91776],[-114.9821,34.96165],[-114.96084,35.04897],[-114.95416,35.11213],[-114.95169,35.17143],[-114.94936,35.22695],[-114.80458,35.14066],[-114.63438,35.00257],[-114.62764,34.86301],[-114.55481,34.76927],[-114.46266,34.6865],[-114.40472,34.56859],[-114.329,34.4423],[-114.16696,34.33577],[-114.26125,34.17182],[-114.3745,34.1167],[-114.45804,33.99716],[-114.52582,33.95147],[-114.51322,33.8599],[-114.49814,33.72064],[-114.54057,33.58439],[-114.62668,33.43504],[-114.70736,33.37663],[-114.687,33.07097],[-114.50466,33.01451],[-114.46539,32.8817],[-114.61502,32.73434],[-114.65353,32.73344],[-114.7084,32.73664],[-114.95767,32.70276],[-115.45059,32.66823],[-115.65786,32.65288],[-116.10618,32.64021],[-116.10354,32.75757],[-116.10301,32.97295],[-116.083,33.27002],[-116.17489,33.42796],[-116.51819,33.42689],[-116.81877,33.42689],[-116.88757,33.43308],[-116.88976,33.44185],[-116.89688,33.45014],[-116.91305,33.47681],[-116.9051,33.49484],[-116.89707,33.50932],[-116.93765,33.51408],[-116.94597,33.54414],[-116.96736,33.5731],[-116.98731,33.55967],[-117.00853,33.54009],[-117.03153,33.54374],[-117.03107,33.56189],[-117.08361,33.57804],[-117.11256,33.57],[-117.11835,33.57266]]]}},{"type":"Feature","properties":{"dist_no":"37","code":"AD-37","id":null,"beachhead":false,"name":" "},"geometry":{"type":"MultiPolygon","coordinates":[[[[-119.00094,33.5359],[-118.99786,33.5342],[-118.99281,33.53185],[-118.98621,33.52743],[-118.97911,33.52065],[-118.9729,33.51384],[-118.96832,33.50557],[-118.96492,33.49531],[-118.96274,33.47331],[-118.96678,33.45792],[-118.97269,33.44317],[-118.98052,33.4286],[-118.996,33.41997],[-119.00094,33.42131],[-119.01801,33.41506],[-119.03964,33.41222],[-119.06413,33.41255],[-119.07852,33.41677],[-119.09414,33.42688],[-119.10379,33.44045],[-119.10889,33.45116],[-119.10967,33.46229],[-119.10958,33.47428],[-119.10838,33.48579],[-119.10748,33.49542],[-119.10723,33.50003],[-119.11719,33.5056],[-119.11167,33.51548],[-119.10422,33.52289],[-119.09051,33.5303],[-119.07651,33.53515],[-119.06617,33.53672],[-119.05657,33.53603],[-119.05082,33.53716],[-119.04708,33.53723],[-119.03626,33.53963],[-119.02396,33.54001],[-119.01214,33.53834],[-119.00094,33.5359]]],[[[-119.4431,34.73327],[-119.44291,34.43817],[-119.4456,34.40744],[-119.47273,34.38347],[-120.07645,34.41112],[-120.69061,34.64145],[-120.62904,35.10002],[-120.54688,35.09127],[-120.46707,35.02457],[-120.45073,34.98913],[-120.34887,34.93696],[-120.29914,34.9107],[-120.3266,34.98597],[-120.26023,35.02646],[-120.23703,35.02309],[-120.20358,35.02833],[-120.18432,35.04744],[-120.16848,35.07487],[-120.14492,35.08333],[-120.13676,35.09627],[-120.12196,35.09771],[-120.10267,35.11166],[-120.08547,35.10837],[-120.00561,35.0718],[-119.93903,35.05523],[-119.89892,35.03694],[-119.84467,35.01678],[-119.75398,34.97936],[-119.63974,34.95372],[-119.54877,34.90638],[-119.44383,34.78654],[-119.4431,34.73327]]],[[[-119.48653,34.00001],[-119.5633,33.94496],[-119.63674,33.93828],[-119.69319,33.91369],[-119.78366,33.90999],[-119.87824,33.92266],[-119.9392,33.89865],[-120.02782,33.86652],[-120.13122,33.8432],[-120.20239,33.87598],[-120.27311,33.92958],[-120.33227,33.96843],[-120.43219,33.97471],[-120.5031,33.99735],[-120.5594,34.06238],[-120.56786,34.13562],[-120.48144,34.14217],[-120.40118,34.15873],[-120.33983,34.125],[-120.28466,34.09475],[-120.25098,34.05892],[-120.19111,34.06137],[-120.12014,34.07895],[-120.06334,34.08972],[-119.98996,34.07038],[-119.93617,34.12866],[-119.86884,34.12501],[-119.77802,34.10997],[-119.70112,34.09827],[-119.62948,34.08971],[-119.55744,34.10861],[-119.46808,34.06314],[-119.48653,34.00001]]]]}},{"type":"Feature","properties":{"dist_no":"38","code":"AD-38","id":null,"beachhead":false,"name":" "},"geometry":{"type":"MultiPolygon","coordinates":[[[[-119.42818,33.30003],[-119.41338,33.28951],[-119.38523,33.27093],[-119.3691,33.25578],[-119.36094,33.24206],[-119.36245,33.21483],[-119.37387,33.19503],[-119.38615,33.18629],[-119.46837,33.16461],[-119.47876,33.16367],[-119.50095,33.16739],[-119.51689,33.169],[-119.53225,33.17392],[-119.55155,33.18062],[-119.56934,33.18462],[-119.58727,33.19554],[-119.60529,33.20692],[-119.6195,33.22502],[-119.62357,33.23041],[-119.6313,33.24498],[-119.63155,33.25323],[-119.63631,33.27304],[-119.62909,33.29934],[-119.61454,33.3148],[-119.59253,33.32583],[-119.57492,33.32828],[-119.55462,33.33118],[-119.5342,33.33526],[-119.50856,33.331],[-119.47132,33.31683],[-119.42818,33.30003]]],[[[-119.47794,34.37628],[-119.45891,34.39278],[-119.44774,34.41099],[-119.4452,34.42929],[-119.44228,34.45524],[-119.4438,34.80991],[-119.27514,34.8573],[-118.94044,34.78965],[-118.74036,34.50249],[-118.67579,34.37126],[-118.67958,34.36156],[-118.69173,34.36339],[-118.70274,34.35797],[-118.71665,34.3559],[-118.73043,34.36522],[-118.74422,34.36861],[-118.75383,34.37201],[-118.76715,34.36952],[-118.76583,34.35502],[-118.82041,34.33939],[-118.83097,34.3436],[-118.82851,34.35183],[-118.81429,34.35801],[-118.87313,34.35117],[-118.88103,34.34421],[-118.90171,34.3357],[-118.92053,34.29578],[-119.01799,34.23237],[-119.1142,34.22166],[-119.08087,34.10096],[-119.4762,34.37471],[-119.47794,34.37628]]],[[[-119.29648,34.00001],[-119.29625,33.99724],[-119.29647,33.99692],[-119.29878,33.99345],[-119.3041,33.98654],[-119.31163,33.98003],[-119.31846,33.9749],[-119.33281,33.96773],[-119.34155,33.96543],[-119.35187,33.96446],[-119.35667,33.96149],[-119.36284,33.95877],[-119.36977,33.95636],[-119.37596,33.95491],[-119.37718,33.9544],[-119.38047,33.95362],[-119.38468,33.95332],[-119.38941,33.95327],[-119.39338,33.95469],[-119.39619,33.95387],[-119.40294,33.95379],[-119.41136,33.95542],[-119.41701,33.95378],[-119.4229,33.95412],[-119.43297,33.95591],[-119.44083,33.95894],[-119.45449,33.96331],[-119.4652,33.96743],[-119.47266,33.97065],[-119.48534,33.97773],[-119.4923,33.98322],[-119.48653,34.00001],[-119.46808,34.06314],[-119.46785,34.06294],[-119.46005,34.06474],[-119.45127,34.06644],[-119.43733,34.06772],[-119.42374,34.0677],[-119.40936,34.06679],[-119.39702,34.0638],[-119.38977,34.06604],[-119.37596,34.06867],[-119.36789,34.07042],[-119.3564,34.07081],[-119.34247,34.06897],[-119.33094,34.06507],[-119.32116,34.06062],[-119.3121,34.05439],[-119.30517,34.04745],[-119.29765,34.03659],[-119.29441,34.02751],[-119.29312,34.02016],[-119.29406,34.01109],[-119.29648,34.00001]]]]}},{"type":"Feature","properties":{"dist_no":"39","code":"AD-39","id":null,"beachhead":false,"name":" "},"geometry":{"type":"Polygon","coordinates":[[[-117.31232,34.47243],[-117.29974,34.43066],[-117.35297,34.39772],[-117.36139,34.40485],[-117.39407,34.40486],[-117.41713,34.45176],[-117.43475,34.47609],[-117.46428,34.48497],[-117.49096,34.50699],[-117.56184,34.50647],[-117.65068,34.49886],[-117.65977,34.45772],[-117.69874,34.42604],[-117.96578,34.43875],[-117.97325,34.43887],[-118.06856,34.52819],[-118.10846,34.51277],[-118.1304,34.54622],[-118.13634,34.64584],[-118.16583,34.69644],[-118.15104,34.79168],[-117.97344,34.82262],[-117.70273,34.82286],[-117.47239,34.75612],[-117.41158,34.67611],[-117.39201,34.64526],[-117.39666,34.57207],[-117.3402,34.56387],[-117.28911,34.53496],[-117.30323,34.51743],[-117.3124,34.48033],[-117.31232,34.47243]]]}},{"type":"Feature","properties":{"dist_no":"40","code":"AD-40","id":null,"beachhead":false,"name":" "},"geometry":{"type":"Polygon","coordinates":[[[-118.48521,34.22132],[-118.59609,34.23546],[-118.69352,34.40733],[-118.6633,34.55154],[-118.65815,34.58739],[-118.63214,34.57253],[-118.62295,34.5676],[-118.62377,34.5539],[-118.61643,34.55704],[-118.61657,34.54656],[-118.60055,34.55177],[-118.58346,34.54784],[-118.57514,34.55746],[-118.57195,34.56082],[-118.56683,34.55115],[-118.57364,34.54735],[-118.57968,34.53797],[-118.57952,34.53572],[-118.58674,34.5266],[-118.58766,34.50591],[-118.49019,34.48149],[-118.37971,34.48079],[-118.33369,34.44869],[-118.32561,34.38523],[-118.25069,34.38025],[-118.20918,34.28371],[-118.23726,34.28243],[-118.37485,34.28377],[-118.40082,34.3156],[-118.50792,34.33349],[-118.47416,34.22139],[-118.48521,34.22132]]]}},{"type":"Feature","properties":{"dist_no":"41","code":"AD-41","id":null,"beachhead":false,"name":" "},"geometry":{"type":"Polygon","coordinates":[[[-117.4392,34.47746],[-117.39369,34.40486],[-117.35518,34.3904],[-117.40944,34.34025],[-117.45005,34.34355],[-117.45674,34.26808],[-117.46131,34.21679],[-117.54784,34.1367],[-117.62579,34.10577],[-117.73682,34.10506],[-117.75807,34.09021],[-117.82103,34.0637],[-117.85369,34.08408],[-117.81177,34.13969],[-117.95964,34.15431],[-117.99706,34.12714],[-118.03639,34.1669],[-118.09774,34.13692],[-118.1507,34.12403],[-118.1838,34.14906],[-118.21785,34.20562],[-118.22697,34.22952],[-118.22632,34.28907],[-118.0946,34.37887],[-117.97593,34.3907],[-117.97144,34.41801],[-117.97525,34.43317],[-117.90844,34.42651],[-117.65999,34.48515],[-117.51597,34.50692],[-117.44773,34.47743],[-117.4392,34.47746]]]}},{"type":"Feature","properties":{"dist_no":"42","code":"AD-42","id":null,"beachhead":false,"name":" "},"geometry":{"type":"Polygon","coordinates":[[[-118.49505,34.12999],[-118.46444,34.13007],[-118.43151,34.13188],[-118.42221,34.11775],[-118.42021,34.09495],[-118.44283,34.07741],[-118.47787,34.04639],[-118.56314,33.98783],[-119.08074,34.10082],[-119.10157,34.22079],[-118.93971,34.27139],[-118.90237,34.33291],[-118.87733,34.34393],[-118.82601,34.3587],[-118.82512,34.35294],[-118.82854,34.34307],[-118.80548,34.33917],[-118.76692,34.36772],[-118.75266,34.37108],[-118.7395,34.36878],[-118.7201,34.35593],[-118.70234,34.35818],[-118.6886,34.36185],[-118.67228,34.36302],[-118.64588,34.24039],[-118.71039,34.21119],[-118.65861,34.17506],[-118.55608,34.1272],[-118.53454,34.13142],[-118.50896,34.13092],[-118.49612,34.13039],[-118.49505,34.12999]]]}},{"type":"Feature","properties":{"dist_no":"43","code":"AD-43","id":null,"beachhead":false,"name":" "},"geometry":{"type":"Polygon","coordinates":[[[-118.47194,34.27184],[-118.47277,34.2964],[-118.49538,34.32062],[-118.50778,34.33433],[-118.47235,34.33012],[-118.41865,34.32944],[-118.40492,34.32248],[-118.40083,34.31487],[-118.40116,34.29857],[-118.40402,34.288],[-118.38648,34.29695],[-118.37485,34.28377],[-118.37016,34.28561],[-118.37102,34.27962],[-118.37275,34.2761],[-118.38633,34.27627],[-118.40042,34.27136],[-118.38763,34.25672],[-118.37224,34.25236],[-118.36753,34.24106],[-118.35712,34.22027],[-118.34857,34.20665],[-118.36596,34.19558],[-118.37033,34.18669],[-118.40133,34.18694],[-118.39092,34.17414],[-118.42587,34.17213],[-118.44,34.19047],[-118.42987,34.20797],[-118.47305,34.2249],[-118.47201,34.27087],[-118.47194,34.27184]]]}},{"type":"Feature","properties":{"dist_no":"44","code":"AD-44","id":null,"beachhead":false,"name":" "},"geometry":{"type":"Polygon","coordinates":[[[-118.46957,34.14836],[-118.45745,34.17939],[-118.40093,34.18597],[-118.3627,34.20483],[-118.36762,34.24086],[-118.39662,34.25962],[-118.37263,34.27632],[-118.34313,34.28247],[-118.22396,34.24056],[-118.22725,34.22874],[-118.23169,34.21854],[-118.22205,34.20995],[-118.21346,34.19409],[-118.19261,34.18042],[-118.18161,34.14987],[-118.23498,34.15103],[-118.27912,34.15393],[-118.32212,34.15573],[-118.36423,34.13659],[-118.37378,34.13493],[-118.37355,34.13065],[-118.37497,34.1237],[-118.3833,34.12212],[-118.39247,34.1214],[-118.39888,34.12192],[-118.40649,34.12782],[-118.41821,34.12715],[-118.42955,34.13142],[-118.45117,34.13176],[-118.46559,34.13023],[-118.47077,34.14603],[-118.46957,34.14836]]]}},{"type":"Feature","properties":{"dist_no":"45","code":"AD-45","id":null,"beachhead":false,"name":" "},"geometry":{"type":"Polygon","coordinates":[[[-117.39988,34.22069],[-117.3731,34.21379],[-117.32524,34.1943],[-117.28524,34.20793],[-117.22619,34.17347],[-117.20741,34.15731],[-117.18063,34.13424],[-117.1975,34.13214],[-117.21226,34.13215],[-117.20442,34.11313],[-117.1123,34.08585],[-117.12147,34.05622],[-117.13943,34.03354],[-117.16835,34.05716],[-117.21826,34.06675],[-117.2618,34.08008],[-117.30487,34.07408],[-117.31837,34.08863],[-117.3398,34.08924],[-117.364,34.0832],[-117.38337,34.06825],[-117.40086,34.08501],[-117.40533,34.11561],[-117.46652,34.12141],[-117.49575,34.13678],[-117.44597,34.19879],[-117.46131,34.21679],[-117.47177,34.23192],[-117.46806,34.26477],[-117.45165,34.27584],[-117.40454,34.22299],[-117.39988,34.22069]]]}},{"type":"Feature","properties":{"dist_no":"46","code":"AD-46","id":null,"beachhead":false,"name":" "},"geometry":{"type":"Polygon","coordinates":[[[-118.50215,34.13049],[-118.5059,34.12888],[-118.51246,34.12938],[-118.52183,34.128],[-118.53134,34.12967],[-118.5361,34.1303],[-118.54271,34.1272],[-118.55425,34.12636],[-118.55679,34.1265],[-118.564,34.13109],[-118.63212,34.15056],[-118.65863,34.17152],[-118.70663,34.20366],[-118.70923,34.20741],[-118.71014,34.20997],[-118.71379,34.21459],[-118.67576,34.22419],[-118.66777,34.23476],[-118.63329,34.2404],[-118.59755,34.23546],[-118.57106,34.23185],[-118.51861,34.21204],[-118.48643,34.22132],[-118.42872,34.20775],[-118.43999,34.18083],[-118.46933,34.16653],[-118.46889,34.14967],[-118.47849,34.12498],[-118.4905,34.13121],[-118.49747,34.13033],[-118.50212,34.12997],[-118.50215,34.13049]]]}},{"type":"Feature","properties":{"dist_no":"47","code":"AD-47","id":"ad-47","beachhead":true,"name":" "},"geometry":{"type":"Polygon","coordinates":[[[-116.61426,33.68777],[-116.63418,33.64854],[-116.66624,33.65935],[-116.68481,33.67792],[-116.70614,33.68923],[-116.72242,33.70231],[-116.73135,33.70543],[-116.74266,33.70119],[-116.75324,33.69803],[-116.76123,33.69843],[-116.771,33.70266],[-116.75638,33.70767],[-116.7687,33.71073],[-116.78223,33.71523],[-116.79906,33.72097],[-116.81838,33.73642],[-116.8488,33.73826],[-116.84491,33.73238],[-116.88071,33.73213],[-116.91876,33.72977],[-116.90879,33.75089],[-116.91927,33.76702],[-116.93269,33.78689],[-116.96337,33.83623],[-116.96226,33.9035],[-116.99889,33.92299],[-117.02336,33.93298],[-117.07327,33.96588],[-117.11009,33.97743],[-117.13182,33.94694],[-117.2264,33.97527],[-117.28053,33.98966],[-117.27385,34.01874],[-117.24021,34.02315],[-117.23852,34.02873],[-117.23284,34.0284],[-117.23011,34.02556],[-117.2303,34.03458],[-117.2085,34.03152],[-117.20154,34.03374],[-117.19153,34.03131],[-117.16682,34.04405],[-117.1388,34.03513],[-117.12488,34.04829],[-117.10367,34.07709],[-117.13892,34.09915],[-117.18857,34.12121],[-117.15773,34.11971],[-117.13473,34.11693],[-117.06889,34.09028],[-117.04543,34.08101],[-117.02887,34.09683],[-117.00159,34.10217],[-116.95712,34.09573],[-116.92689,34.09184],[-116.91264,34.09784],[-116.9084,34.12023],[-116.7426,34.12137],[-116.53316,34.20562],[-116.49971,34.20146],[-116.48015,34.19628],[-116.45702,34.18993],[-116.42256,34.17639],[-116.38993,34.16585],[-116.33333,34.16754],[-116.31143,34.1713],[-116.27068,34.17158],[-116.26089,34.13873],[-116.2501,34.12057],[-116.16114,34.12041],[-116.05442,34.11733],[-116.02636,34.06976],[-116.0297,34.05249],[-116.04611,34.03446],[-115.81182,34.03529],[-115.62496,34.03528],[-115.30411,34.07786],[-115.19101,34.06408],[-115.2394,33.98261],[-115.25571,33.83926],[-115.30399,33.79358],[-115.40163,33.7649],[-115.43576,33.72738],[-115.46177,33.70056],[-115.56376,33.67779],[-115.68452,33.66616],[-115.8022,33.66136],[-115.91716,33.67131],[-116.00785,33.7029],[-116.18774,33.8552],[-116.2689,33.89142],[-116.37897,33.93683],[-116.40632,33.90953],[-116.37565,33.88207],[-116.38359,33.87248],[-116.31218,33.84466],[-116.3225,33.82282],[-116.30123,33.80334],[-116.30081,33.76429],[-116.26661,33.74377],[-116.27156,33.72196],[-116.27056,33.70681],[-116.23393,33.66837],[-116.23337,33.60078],[-116.32149,33.64964],[-116.3734,33.64741],[-116.40303,33.63224],[-116.41837,33.62763],[-116.42613,33.63636],[-116.44092,33.63142],[-116.55112,33.68484],[-116.61426,33.68777]]]}},{"type":"Feature","properties":{"dist_no":"48","code":"AD-48","id":null,"beachhead":false,"name":" "},"geometry":{"type":"Polygon","coordinates":[[[-117.98836,34.04854],[-117.99228,34.06117],[-118.00104,34.0807],[-117.99224,34.09506],[-118.01356,34.11708],[-118.0007,34.12494],[-117.98733,34.13044],[-117.96965,34.14371],[-117.96005,34.14368],[-117.89005,34.16149],[-117.8419,34.16131],[-117.83729,34.17947],[-117.81778,34.12641],[-117.83762,34.11026],[-117.84517,34.09345],[-117.85384,34.08334],[-117.84985,34.08266],[-117.83955,34.07201],[-117.84626,34.06162],[-117.85332,34.05923],[-117.89012,34.02921],[-117.88426,34.01638],[-117.86831,34.01469],[-117.87641,34.00186],[-117.92217,34.01205],[-117.93476,34.02799],[-117.94874,34.04566],[-117.9514,34.04843],[-117.96164,34.03594],[-117.96822,34.04967],[-117.98795,34.04828],[-117.98836,34.04854]]]}},{"type":"Feature","properties":{"dist_no":"49","code":"AD-49","id":null,"beachhead":false,"name":" "},"geometry":{"type":"Polygon","coordinates":[[[-118.16051,34.08109],[-118.1754,34.09862],[-118.17327,34.11342],[-118.15662,34.12404],[-118.14191,34.11952],[-118.12888,34.12099],[-118.11383,34.13469],[-118.09955,34.13686],[-118.08558,34.13304],[-118.08431,34.14457],[-118.07356,34.14785],[-118.03848,34.16682],[-118.01843,34.17541],[-118.02036,34.13247],[-118.0088,34.12539],[-118.0168,34.10948],[-117.99338,34.09415],[-118.00083,34.08192],[-118.01752,34.06598],[-118.06548,34.07219],[-118.06904,34.06377],[-118.07279,34.03104],[-118.08313,34.03806],[-118.09387,34.04287],[-118.10123,34.04326],[-118.10364,34.03208],[-118.13835,34.0335],[-118.15674,34.03625],[-118.16837,34.04662],[-118.16508,34.06377],[-118.16055,34.08082],[-118.16051,34.08109]]]}},{"type":"Feature","properties":{"dist_no":"50","code":"AD-50","id":null,"beachhead":false,"name":" "},"geometry":{"type":"Polygon","coordinates":[[[-117.4331,34.03401],[-117.52431,34.04542],[-117.57614,34.06761],[-117.62858,34.08478],[-117.6187,34.10504],[-117.61619,34.13036],[-117.54592,34.1367],[-117.46649,34.16098],[-117.47997,34.12143],[-117.40535,34.11706],[-117.39886,34.08499],[-117.37064,34.06684],[-117.35918,34.08502],[-117.32781,34.09527],[-117.30479,34.07762],[-117.27671,34.07023],[-117.23781,34.06674],[-117.16686,34.05638],[-117.17892,34.03736],[-117.19629,34.03648],[-117.21214,34.03385],[-117.22934,34.02832],[-117.23297,34.02808],[-117.24012,34.02677],[-117.27067,34.01872],[-117.29521,34.03781],[-117.30677,34.04512],[-117.32577,34.04016],[-117.33241,34.03445],[-117.34942,34.01952],[-117.41075,34.03423],[-117.4331,34.03401]]]}},{"type":"Feature","properties":{"dist_no":"51","code":"AD-51","id":null,"beachhead":false,"name":" "},"geometry":{"type":"Polygon","coordinates":[[[-118.48889,34.04579],[-118.46039,34.04986],[-118.44884,34.07357],[-118.43029,34.07973],[-118.4207,34.09428],[-118.4193,34.10086],[-118.42242,34.11634],[-118.41545,34.12642],[-118.40425,34.128],[-118.39874,34.12176],[-118.39285,34.12118],[-118.38549,34.12177],[-118.37555,34.12213],[-118.37195,34.12844],[-118.37507,34.13103],[-118.37176,34.13691],[-118.34432,34.14327],[-118.31033,34.16076],[-118.27628,34.14105],[-118.3076,34.10915],[-118.29788,34.09084],[-118.31534,34.06236],[-118.37108,34.07607],[-118.37953,34.0697],[-118.39387,34.05709],[-118.41078,34.05928],[-118.40182,34.03438],[-118.44439,34.02943],[-118.46823,34.00354],[-118.51762,34.02494],[-118.49435,34.05045],[-118.48889,34.04579]]]}},{"type":"Feature","properties":{"dist_no":"52","code":"AD-52","id":null,"beachhead":false,"name":" "},"geometry":{"type":"Polygon","coordinates":[[[-118.22644,34.08009],[-118.24508,34.0713],[-118.26383,34.07056],[-118.28892,34.07893],[-118.30031,34.10825],[-118.30752,34.11331],[-118.27008,34.12207],[-118.26883,34.15223],[-118.23968,34.15478],[-118.22247,34.14926],[-118.18244,34.14383],[-118.18548,34.13861],[-118.17677,34.1248],[-118.16621,34.12616],[-118.16903,34.1177],[-118.17801,34.10512],[-118.1559,34.09683],[-118.16175,34.07188],[-118.16927,34.06214],[-118.16941,34.0448],[-118.15575,34.03623],[-118.14412,34.03234],[-118.14221,34.02318],[-118.12711,34.01078],[-118.1466,34.01772],[-118.1636,34.01272],[-118.18617,34.01565],[-118.19141,34.03442],[-118.19753,34.06466],[-118.2146,34.07998],[-118.22605,34.08016],[-118.22644,34.08009]]]}},{"type":"Feature","properties":{"dist_no":"53","code":"AD-53","id":null,"beachhead":false,"name":" "},"geometry":{"type":"Polygon","coordinates":[[[-117.82692,34.06412],[-117.80016,34.06849],[-117.78215,34.07679],[-117.78024,34.08805],[-117.7648,34.09072],[-117.75613,34.0971],[-117.75614,34.10389],[-117.75082,34.10858],[-117.74211,34.10949],[-117.73681,34.10307],[-117.72242,34.07951],[-117.69469,34.10681],[-117.67207,34.10696],[-117.63601,34.10706],[-117.62858,34.09022],[-117.62025,34.07598],[-117.59327,34.06772],[-117.55034,34.06733],[-117.52413,34.06485],[-117.5444,34.0335],[-117.56253,33.9871],[-117.62201,33.95872],[-117.67938,33.96836],[-117.6979,34.00499],[-117.71649,34.01165],[-117.74052,34.01612],[-117.77397,34.02223],[-117.79791,34.04026],[-117.81647,34.03317],[-117.82535,34.03366],[-117.83432,34.04744],[-117.82692,34.06412]]]}},{"type":"Feature","properties":{"dist_no":"54","code":"AD-54","id":null,"beachhead":false,"name":" "},"geometry":{"type":"Polygon","coordinates":[[[-118.22657,34.07974],[-118.21564,34.07441],[-118.19259,34.0564],[-118.19233,34.0263],[-118.17266,34.01682],[-118.14832,34.01851],[-118.12702,34.01135],[-118.14284,34.02522],[-118.13011,34.03358],[-118.09774,34.03544],[-118.09659,34.04458],[-118.09054,34.04015],[-118.08007,34.03526],[-118.09287,34.01365],[-118.10664,33.99524],[-118.12046,33.97526],[-118.12996,33.97198],[-118.16707,33.97951],[-118.15447,33.99122],[-118.17678,33.99172],[-118.19446,33.99529],[-118.20606,33.98331],[-118.2278,33.9957],[-118.23974,34.01261],[-118.25127,34.04844],[-118.27453,34.03807],[-118.32204,34.05636],[-118.29884,34.08357],[-118.28562,34.07815],[-118.25421,34.05916],[-118.23592,34.07031],[-118.22657,34.07974]]]}},{"type":"Feature","properties":{"dist_no":"55","code":"AD-55","id":null,"beachhead":false,"name":" "},"geometry":{"type":"Polygon","coordinates":[[[-118.39977,34.04446],[-118.42143,34.05947],[-118.40574,34.0533],[-118.40248,34.05709],[-118.39734,34.0571],[-118.38273,34.06294],[-118.37434,34.06755],[-118.38377,34.07082],[-118.38485,34.07647],[-118.37908,34.0764],[-118.36141,34.0674],[-118.3438,34.05717],[-118.32246,34.04744],[-118.30027,34.03455],[-118.30019,34.00606],[-118.31714,33.99221],[-118.33521,33.98628],[-118.35863,33.98219],[-118.37278,33.98228],[-118.37983,33.97644],[-118.39355,33.98015],[-118.40704,33.98259],[-118.43262,33.97553],[-118.44041,33.98194],[-118.44507,33.99429],[-118.44752,34.01446],[-118.45219,34.02697],[-118.44067,34.03018],[-118.41997,34.03115],[-118.40283,34.03002],[-118.39865,34.04123],[-118.39977,34.04446]]]}},{"type":"Feature","properties":{"dist_no":"56","code":"AD-56","id":null,"beachhead":false,"name":" "},"geometry":{"type":"Polygon","coordinates":[[[-117.9646,34.04642],[-117.95179,34.04492],[-117.94477,34.04978],[-117.93537,34.0288],[-117.91893,34.01155],[-117.87314,34.00311],[-117.87855,34.01216],[-117.89451,34.02488],[-117.86193,34.05308],[-117.85046,34.06023],[-117.82728,34.04024],[-117.81746,34.03384],[-117.79023,34.03564],[-117.7833,33.94642],[-117.91688,33.94711],[-117.94764,33.94608],[-117.97653,33.93953],[-117.98013,33.92807],[-118.03449,33.95298],[-118.05533,33.96827],[-118.07348,33.97005],[-118.06834,33.96372],[-118.08688,33.9623],[-118.11911,33.97074],[-118.10504,33.99695],[-118.07381,34.02731],[-118.06897,34.06569],[-118.02685,34.06798],[-117.99034,34.0607],[-117.98387,34.04835],[-117.96687,34.04881],[-117.9646,34.04642]]]}},{"type":"Feature","properties":{"dist_no":"57","code":"AD-57","id":null,"beachhead":false,"name":" "},"geometry":{"type":"Polygon","coordinates":[[[-118.22971,33.9533],[-118.23344,33.94825],[-118.24191,33.95328],[-118.24847,33.95337],[-118.25412,33.94328],[-118.2538,33.92829],[-118.26992,33.92732],[-118.28012,33.9285],[-118.28072,33.93291],[-118.2797,33.94715],[-118.28093,33.96003],[-118.29349,33.95951],[-118.31777,33.96003],[-118.31774,33.97821],[-118.31494,33.99505],[-118.30019,34.00102],[-118.30018,34.01818],[-118.30028,34.03633],[-118.27988,34.03779],[-118.27327,34.04164],[-118.26855,34.04664],[-118.2581,34.05274],[-118.24432,34.04722],[-118.23882,34.0318],[-118.23965,34.01544],[-118.23931,34.00498],[-118.23901,33.98924],[-118.23897,33.98044],[-118.23407,33.97474],[-118.23022,33.97043],[-118.23003,33.96177],[-118.22971,33.9533]]]}},{"type":"Feature","properties":{"dist_no":"58","code":"AD-58","id":"ad-58","beachhead":true,"name":" "},"geometry":{"type":"Polygon","coordinates":[[[-117.4331,34.03401],[-117.39526,34.03381],[-117.37529,34.03235],[-117.377,34.02657],[-117.37055,34.01944],[-117.34723,34.01942],[-117.33617,34.01938],[-117.33051,34.02845],[-117.32995,34.03295],[-117.33193,34.03697],[-117.33739,34.03461],[-117.33504,34.03553],[-117.33154,34.04045],[-117.32735,34.03953],[-117.32431,34.04072],[-117.31784,34.04193],[-117.31347,34.04214],[-117.31008,34.04429],[-117.30569,34.04496],[-117.29993,34.04477],[-117.297,34.04112],[-117.29606,34.03901],[-117.29522,34.03783],[-117.29098,34.03531],[-117.29199,34.03378],[-117.28765,34.00475],[-117.31037,34.00459],[-117.3198,34.00655],[-117.33111,34.00664],[-117.3366,34.0121],[-117.34818,34.00693],[-117.35561,33.99353],[-117.34718,33.98751],[-117.34851,33.97757],[-117.34848,33.966],[-117.34688,33.95734],[-117.34647,33.95229],[-117.34976,33.94634],[-117.35548,33.94424],[-117.36469,33.94508],[-117.36947,33.94648],[-117.37254,33.94188],[-117.37815,33.93634],[-117.3844,33.92414],[-117.38351,33.91459],[-117.38355,33.9036],[-117.38571,33.88677],[-117.42689,33.88695],[-117.44966,33.88731],[-117.46098,33.88488],[-117.46503,33.88978],[-117.47159,33.88278],[-117.48233,33.88662],[-117.49423,33.88589],[-117.50034,33.87927],[-117.48894,33.86757],[-117.48919,33.85841],[-117.48893,33.8364],[-117.50814,33.82436],[-117.51639,33.82935],[-117.52674,33.82928],[-117.52415,33.8241],[-117.5366,33.8263],[-117.53251,33.83079],[-117.53583,33.83178],[-117.53524,33.83747],[-117.53411,33.85011],[-117.53908,33.86262],[-117.54738,33.86298],[-117.55743,33.85729],[-117.56581,33.85576],[-117.581,33.85764],[-117.59782,33.85941],[-117.60194,33.85933],[-117.60685,33.86033],[-117.60762,33.86585],[-117.61007,33.86889],[-117.61209,33.86715],[-117.61637,33.87484],[-117.62151,33.88143],[-117.62268,33.88223],[-117.60397,33.88021],[-117.59351,33.88407],[-117.59079,33.89448],[-117.57743,33.89424],[-117.57297,33.90057],[-117.56842,33.89668],[-117.55984,33.89502],[-117.5578,33.89974],[-117.55353,33.89901],[-117.54732,33.89789],[-117.54057,33.89719],[-117.53635,33.90344],[-117.52984,33.90561],[-117.5134,33.91107],[-117.51651,33.92754],[-117.5159,33.94561],[-117.52335,33.95607],[-117.52323,33.96088],[-117.53357,33.95916],[-117.54412,33.95356],[-117.55336,33.94999],[-117.55083,33.95344],[-117.56528,33.96072],[-117.59302,33.96806],[-117.55834,34.00049],[-117.55838,34.02536],[-117.54213,34.03349],[-117.5141,34.03349],[-117.50033,34.03349],[-117.49308,34.03344],[-117.4701,34.0337],[-117.4331,34.03401]]]}},{"type":"Feature","properties":{"dist_no":"59","code":"AD-59","id":null,"beachhead":false,"name":" "},"geometry":{"type":"Polygon","coordinates":[[[-117.70278,33.75598],[-117.73186,33.7536],[-117.77397,33.76372],[-117.8004,33.73726],[-117.80694,33.7534],[-117.81431,33.75024],[-117.82128,33.7671],[-117.83197,33.80464],[-117.84442,33.84686],[-117.86894,33.84683],[-117.88361,33.85808],[-117.88033,33.88494],[-117.90024,33.88143],[-117.91864,33.88458],[-117.93774,33.87441],[-117.94847,33.88506],[-117.95286,33.89816],[-117.94176,33.91342],[-117.92435,33.92908],[-117.91666,33.94707],[-117.78328,33.94639],[-117.75203,34.02114],[-117.71321,34.01168],[-117.68748,33.97619],[-117.61094,33.95187],[-117.67407,33.88882],[-117.6328,33.82569],[-117.61952,33.79813],[-117.6608,33.76428],[-117.67826,33.75518],[-117.69634,33.75618],[-117.70278,33.75598]]]}},{"type":"Feature","properties":{"dist_no":"60","code":"AD-60","id":null,"beachhead":false,"name":" "},"geometry":{"type":"Polygon","coordinates":[[[-117.31215,33.80032],[-117.32193,33.86385],[-117.27783,33.9046],[-117.30026,33.94729],[-117.31005,33.96941],[-117.30738,33.98707],[-117.35507,33.99273],[-117.32141,34.00704],[-117.27204,33.98987],[-117.1651,33.96586],[-117.11304,33.97982],[-117.06558,33.95914],[-117.00497,33.92628],[-116.96766,33.90932],[-116.97246,33.82378],[-116.92465,33.78397],[-116.91032,33.75506],[-116.92268,33.7304],[-116.93529,33.71178],[-116.96218,33.72947],[-116.94821,33.74406],[-116.99346,33.74745],[-117.06299,33.74284],[-117.07751,33.7219],[-117.12636,33.73597],[-117.18718,33.75495],[-117.21678,33.74306],[-117.24376,33.71421],[-117.26961,33.74278],[-117.30525,33.78322],[-117.30217,33.79988],[-117.31215,33.80032]]]}},{"type":"Feature","properties":{"dist_no":"61","code":"AD-61","id":null,"beachhead":false,"name":" "},"geometry":{"type":"Polygon","coordinates":[[[-118.4866,33.99374],[-118.47509,33.99987],[-118.46776,34.00378],[-118.45423,34.00754],[-118.44433,33.98675],[-118.43584,33.97803],[-118.42106,33.97617],[-118.39935,33.98353],[-118.38543,33.97666],[-118.37678,33.98266],[-118.36021,33.98304],[-118.3352,33.98176],[-118.31761,33.9891],[-118.31777,33.96003],[-118.28389,33.96008],[-118.28009,33.94327],[-118.2826,33.92889],[-118.29167,33.90479],[-118.30837,33.90193],[-118.3268,33.90155],[-118.33194,33.89734],[-118.34244,33.8934],[-118.3449,33.87688],[-118.36133,33.88183],[-118.36182,33.89464],[-118.37873,33.89559],[-118.3787,33.91144],[-118.37838,33.92036],[-118.37879,33.93091],[-118.42877,33.92721],[-118.50864,33.93252],[-118.4866,33.99374]]]}},{"type":"Feature","properties":{"dist_no":"62","code":"AD-62","id":null,"beachhead":false,"name":" "},"geometry":{"type":"Polygon","coordinates":[[[-118.15873,33.95193],[-118.16215,33.92905],[-118.15443,33.91619],[-118.14292,33.90797],[-118.10849,33.90699],[-118.10846,33.86671],[-118.09955,33.8465],[-118.06118,33.84618],[-118.06614,33.83331],[-118.08193,33.83127],[-118.12098,33.83243],[-118.14272,33.83277],[-118.16432,33.82801],[-118.15552,33.85588],[-118.15125,33.86897],[-118.1711,33.88199],[-118.18085,33.89142],[-118.18756,33.89871],[-118.18767,33.90716],[-118.19964,33.91092],[-118.21896,33.92207],[-118.22667,33.93627],[-118.23024,33.97424],[-118.23122,33.98922],[-118.21262,33.9842],[-118.19542,33.99585],[-118.17012,33.98011],[-118.20615,33.97613],[-118.19901,33.96692],[-118.17396,33.95641],[-118.1612,33.95266],[-118.15873,33.95193]]]}},{"type":"Feature","properties":{"dist_no":"63","code":"AD-63","id":null,"beachhead":false,"name":" "},"geometry":{"type":"Polygon","coordinates":[[[-117.60728,33.79736],[-117.61772,33.92512],[-117.55384,33.95718],[-117.52382,33.9519],[-117.54156,33.89715],[-117.57248,33.90088],[-117.62711,33.88316],[-117.60335,33.85998],[-117.54442,33.86469],[-117.5366,33.8263],[-117.4863,33.85577],[-117.47236,33.88546],[-117.38348,33.90694],[-117.36315,33.94522],[-117.34851,33.97681],[-117.30895,33.97886],[-117.30169,33.94833],[-117.26207,33.8661],[-117.31381,33.82749],[-117.30172,33.75895],[-117.25818,33.73253],[-117.20546,33.74305],[-117.14186,33.75774],[-117.09355,33.71456],[-117.13676,33.65775],[-117.17109,33.62704],[-117.22346,33.65244],[-117.29099,33.64011],[-117.38542,33.63952],[-117.42004,33.66426],[-117.59819,33.7878],[-117.60728,33.79736]]]}},{"type":"Feature","properties":{"dist_no":"64","code":"AD-64","id":null,"beachhead":false,"name":" "},"geometry":{"type":"Polygon","coordinates":[[[-118.03051,33.9511],[-117.98186,33.92832],[-117.97653,33.9363],[-117.97651,33.94592],[-117.93749,33.94609],[-117.92001,33.93486],[-117.92457,33.92462],[-117.94734,33.90902],[-117.99011,33.89551],[-118.00278,33.88125],[-118.02523,33.87335],[-118.09108,33.87886],[-118.10835,33.90638],[-118.14291,33.90852],[-118.1535,33.91575],[-118.1621,33.92903],[-118.15869,33.95192],[-118.16761,33.95384],[-118.18896,33.95857],[-118.20326,33.97336],[-118.18751,33.9818],[-118.17738,33.99579],[-118.16675,33.9878],[-118.13869,33.97298],[-118.12281,33.97201],[-118.09441,33.95079],[-118.08108,33.9646],[-118.07062,33.96478],[-118.07419,33.97125],[-118.05816,33.96891],[-118.0451,33.95525],[-118.03051,33.9511]]]}},{"type":"Feature","properties":{"dist_no":"65","code":"AD-65","id":null,"beachhead":false,"name":" "},"geometry":{"type":"Polygon","coordinates":[[[-118.2249,33.82496],[-118.24024,33.76783],[-118.31567,33.72166],[-118.29216,33.7467],[-118.28029,33.7705],[-118.30722,33.77943],[-118.3088,33.8018],[-118.30907,33.83442],[-118.30257,33.8657],[-118.29106,33.876],[-118.28987,33.92889],[-118.25382,33.92799],[-118.24191,33.95328],[-118.22594,33.93176],[-118.21863,33.9217],[-118.19979,33.91096],[-118.18856,33.90724],[-118.18703,33.90158],[-118.18231,33.89493],[-118.18211,33.88546],[-118.15132,33.88111],[-118.14664,33.86539],[-118.16772,33.85426],[-118.20298,33.85783],[-118.20592,33.8487],[-118.24371,33.84675],[-118.27275,33.84625],[-118.28718,33.81616],[-118.26656,33.79906],[-118.23746,33.80045],[-118.22809,33.82571],[-118.2249,33.82496]]]}},{"type":"Feature","properties":{"dist_no":"66","code":"AD-66","id":null,"beachhead":false,"name":" "},"geometry":{"type":"Polygon","coordinates":[[[-118.4823,33.74869],[-118.49888,33.91616],[-118.42878,33.93082],[-118.37879,33.93091],[-118.37838,33.92099],[-118.37869,33.9126],[-118.37874,33.897],[-118.3667,33.89464],[-118.36134,33.88738],[-118.35266,33.87423],[-118.34382,33.88599],[-118.33518,33.89482],[-118.32943,33.89924],[-118.32062,33.90193],[-118.3015,33.90192],[-118.29159,33.88885],[-118.29091,33.87268],[-118.2945,33.86681],[-118.30699,33.8657],[-118.30915,33.84952],[-118.30896,33.83012],[-118.30874,33.81066],[-118.30877,33.79864],[-118.30871,33.78584],[-118.30546,33.77967],[-118.29231,33.77914],[-118.28304,33.76479],[-118.29084,33.75594],[-118.29227,33.74646],[-118.30562,33.72703],[-118.31589,33.72158],[-118.4823,33.74869]]]}},{"type":"Feature","properties":{"dist_no":"67","code":"AD-67","id":null,"beachhead":false,"name":" "},"geometry":{"type":"Polygon","coordinates":[[[-117.98114,33.90279],[-117.95363,33.89623],[-117.95104,33.88128],[-117.93639,33.87388],[-117.91922,33.88454],[-117.90236,33.88143],[-117.88376,33.88907],[-117.88142,33.86567],[-117.90684,33.86093],[-117.9418,33.85435],[-117.95231,33.84171],[-117.92698,33.82775],[-117.90199,33.80346],[-117.90629,33.79182],[-117.92779,33.79875],[-117.94135,33.79845],[-117.97158,33.80308],[-117.97993,33.81029],[-118.00983,33.81092],[-118.01461,33.79202],[-118.04809,33.80315],[-118.06328,33.82142],[-118.08273,33.82989],[-118.06787,33.83244],[-118.05903,33.84138],[-118.09949,33.84638],[-118.10849,33.86887],[-118.09108,33.87885],[-118.01892,33.87339],[-118.00271,33.88817],[-117.98537,33.89906],[-117.98114,33.90279]]]}},{"type":"Feature","properties":{"dist_no":"68","code":"AD-68","id":null,"beachhead":false,"name":" "},"geometry":{"type":"Polygon","coordinates":[[[-117.97229,33.85576],[-117.91988,33.85979],[-117.90688,33.86302],[-117.90015,33.8556],[-117.88444,33.85517],[-117.87609,33.84974],[-117.86717,33.84507],[-117.85798,33.84172],[-117.83176,33.84227],[-117.83223,33.82504],[-117.83124,33.78387],[-117.83216,33.75987],[-117.83252,33.74716],[-117.84154,33.742],[-117.83365,33.73079],[-117.84466,33.71555],[-117.84874,33.70008],[-117.86777,33.69199],[-117.8898,33.69413],[-117.90762,33.69631],[-117.92633,33.70204],[-117.91516,33.72893],[-117.88979,33.77412],[-117.89748,33.78026],[-117.90278,33.79251],[-117.89494,33.79613],[-117.90974,33.81022],[-117.92443,33.82483],[-117.93466,33.83389],[-117.95401,33.84264],[-117.97451,33.85438],[-117.97229,33.85576]]]}},{"type":"Feature","properties":{"dist_no":"69","code":"AD-69","id":null,"beachhead":false,"name":" "},"geometry":{"type":"MultiPolygon","coordinates":[[[[-118.25092,33.35165],[-118.24595,33.29107],[-118.26919,33.26568],[-118.30873,33.25003],[-118.34148,33.25003],[-118.3815,33.2623],[-118.41206,33.26628],[-118.47147,33.2729],[-118.51805,33.29665],[-118.54962,33.35065],[-118.54794,33.3768],[-118.59109,33.39088],[-118.63075,33.42321],[-118.66593,33.46734],[-118.66216,33.50172],[-118.64787,33.51821],[-118.61895,33.53066],[-118.58973,33.53198],[-118.5672,33.52949],[-118.54661,33.53085],[-118.51766,33.52869],[-118.49673,33.51838],[-118.46897,33.513],[-118.43685,33.48945],[-118.41188,33.48078],[-118.37799,33.47157],[-118.35093,33.45782],[-118.31096,33.42514],[-118.30411,33.40364],[-118.27964,33.38319],[-118.26276,33.37044],[-118.25092,33.35165]]],[[[-118.47996,33.00004],[-118.46584,32.98244],[-118.44592,32.96027],[-118.41396,32.93862],[-118.38645,32.91509],[-118.35641,32.8945],[-118.32973,32.87504],[-118.29726,32.8451],[-118.29283,32.80381],[-118.32383,32.77352],[-118.37101,32.76821],[-118.38297,32.76586],[-118.40416,32.75331],[-118.43886,32.75039],[-118.46839,32.7626],[-118.48881,32.78138],[-118.51025,32.79782],[-118.5351,32.81059],[-118.55547,32.83318],[-118.57139,32.85931],[-118.58951,32.88144],[-118.60386,32.90479],[-118.60669,32.92098],[-118.62213,32.94144],[-118.63553,32.9656],[-118.64187,32.98704],[-118.67103,33.00586],[-118.67079,33.05797],[-118.61963,33.08672],[-118.56142,33.08107],[-118.50929,33.04157],[-118.48951,33.01063],[-118.47996,33.00004]]],[[[-118.22813,33.82542],[-118.22458,33.80434],[-118.25669,33.80477],[-118.26464,33.79918],[-118.28662,33.7977],[-118.28725,33.82306],[-118.28424,33.84623],[-118.26291,33.84302],[-118.23944,33.84675],[-118.21449,33.84656],[-118.20532,33.85219],[-118.20327,33.85739],[-118.20113,33.856],[-118.16765,33.85039],[-118.16464,33.82781],[-118.16033,33.82714],[-118.14271,33.83468],[-118.13075,33.84708],[-118.0976,33.83235],[-118.08473,33.83132],[-118.08272,33.8297],[-118.06765,33.82219],[-118.06334,33.8196],[-118.07224,33.81516],[-118.08249,33.80519],[-118.097,33.77791],[-118.09873,33.75453],[-118.11566,33.74294],[-118.24218,33.75981],[-118.22738,33.7906],[-118.22508,33.82544],[-118.22813,33.82542]]]]}},{"type":"Feature","properties":{"dist_no":"70","code":"AD-70","id":null,"beachhead":false,"name":" "},"geometry":{"type":"Polygon","coordinates":[[[-117.96273,33.68688],[-117.98344,33.68674],[-117.98933,33.70571],[-117.99813,33.73008],[-118.00698,33.74241],[-118.01574,33.74497],[-118.01911,33.75395],[-118.04194,33.7501],[-118.04289,33.77407],[-118.08614,33.77462],[-118.08767,33.79462],[-118.07519,33.81251],[-118.06402,33.81926],[-118.05455,33.80826],[-118.04081,33.80307],[-118.02628,33.79206],[-118.01108,33.80286],[-118.00857,33.81173],[-117.97812,33.81576],[-117.97643,33.81148],[-117.96759,33.80665],[-117.95351,33.80313],[-117.94134,33.79755],[-117.93258,33.79442],[-117.92056,33.79607],[-117.90695,33.79064],[-117.89748,33.78172],[-117.89098,33.7744],[-117.91305,33.73749],[-117.92944,33.70201],[-117.95527,33.68687],[-117.96273,33.68688]]]}},{"type":"Feature","properties":{"dist_no":"71","code":"AD-71","id":null,"beachhead":false,"name":" "},"geometry":{"type":"Polygon","coordinates":[[[-117.67393,33.55889],[-117.68946,33.61899],[-117.62204,33.67947],[-117.64853,33.72404],[-117.67931,33.76288],[-117.6205,33.79773],[-117.53586,33.75023],[-117.40947,33.65007],[-117.31071,33.61487],[-117.29193,33.65406],[-117.22347,33.62808],[-117.1433,33.63414],[-117.1318,33.56889],[-117.09413,33.57201],[-117.03154,33.5684],[-117.02602,33.54021],[-117.00262,33.54541],[-116.9791,33.57364],[-116.94597,33.54573],[-116.91894,33.51368],[-116.89828,33.50154],[-116.91237,33.48269],[-116.89725,33.45008],[-116.88326,33.44142],[-116.88609,33.42696],[-117.14016,33.43256],[-117.24152,33.4453],[-117.49277,33.50502],[-117.61647,33.4926],[-117.62785,33.51808],[-117.67325,33.5508],[-117.67393,33.55889]]]}},{"type":"Feature","properties":{"dist_no":"72","code":"AD-72","id":null,"beachhead":false,"name":" "},"geometry":{"type":"Polygon","coordinates":[[[-117.90564,33.53538],[-118.10158,33.75298],[-118.08308,33.7743],[-118.04302,33.75212],[-118.01581,33.75084],[-118.00697,33.74028],[-117.98921,33.71025],[-117.97085,33.68684],[-117.94027,33.68687],[-117.94276,33.63743],[-117.91692,33.62584],[-117.9002,33.63699],[-117.89508,33.65201],[-117.89101,33.65759],[-117.86865,33.66892],[-117.86118,33.65358],[-117.84803,33.63299],[-117.806,33.60936],[-117.74841,33.61927],[-117.71781,33.63769],[-117.6549,33.70668],[-117.62359,33.68589],[-117.64205,33.66153],[-117.68744,33.62072],[-117.67872,33.59906],[-117.68513,33.5576],[-117.7109,33.56965],[-117.72492,33.54132],[-117.73462,33.50989],[-117.73227,33.49543],[-117.81637,33.49088],[-117.90564,33.53538]]]}},{"type":"Feature","properties":{"dist_no":"73","code":"AD-73","id":null,"beachhead":false,"name":" "},"geometry":{"type":"Polygon","coordinates":[[[-117.79584,33.60571],[-117.83124,33.62575],[-117.8594,33.64348],[-117.86071,33.6706],[-117.87999,33.66391],[-117.89013,33.65565],[-117.89817,33.64472],[-117.90302,33.63416],[-117.91817,33.62558],[-117.94212,33.63648],[-117.94227,33.68103],[-117.89632,33.69635],[-117.86788,33.69215],[-117.83765,33.71126],[-117.83355,33.73331],[-117.83414,33.74631],[-117.83436,33.76046],[-117.82085,33.7671],[-117.81849,33.74894],[-117.80841,33.75303],[-117.80547,33.7427],[-117.79261,33.74225],[-117.76877,33.76686],[-117.70503,33.73919],[-117.70267,33.75606],[-117.67339,33.74824],[-117.64944,33.73512],[-117.64685,33.71549],[-117.71474,33.63867],[-117.73269,33.62976],[-117.79129,33.60395],[-117.79584,33.60571]]]}},{"type":"Feature","properties":{"dist_no":"74","code":"AD-74","id":"ad-74","beachhead":true,"name":" "},"geometry":{"type":"Polygon","coordinates":[[[-117.71856,33.55563],[-117.7152,33.56686],[-117.70859,33.56928],[-117.70083,33.56939],[-117.68633,33.55752],[-117.67639,33.56586],[-117.67328,33.55294],[-117.66983,33.54049],[-117.65906,33.53387],[-117.65025,33.52845],[-117.62938,33.51731],[-117.6272,33.51842],[-117.62614,33.51863],[-117.61982,33.51919],[-117.62015,33.50385],[-117.60571,33.4835],[-117.57861,33.48545],[-117.57146,33.45598],[-117.52693,33.46178],[-117.48521,33.50502],[-117.33322,33.47851],[-117.28624,33.46327],[-117.26476,33.45625],[-117.24409,33.44968],[-117.2361,33.43196],[-117.22576,33.43096],[-117.22737,33.42784],[-117.23026,33.42372],[-117.2346,33.41893],[-117.23785,33.41381],[-117.24187,33.41361],[-117.24922,33.40394],[-117.25519,33.40237],[-117.2549,33.35815],[-117.24926,33.33045],[-117.25839,33.32185],[-117.24921,33.31529],[-117.24516,33.30623],[-117.24219,33.2996],[-117.24304,33.29439],[-117.24151,33.29274],[-117.24404,33.28682],[-117.24713,33.28235],[-117.24709,33.28031],[-117.24593,33.27838],[-117.23866,33.26791],[-117.24263,33.26568],[-117.24287,33.25784],[-117.25792,33.24372],[-117.25078,33.2351],[-117.24401,33.2342],[-117.23701,33.23001],[-117.2359,33.22927],[-117.22891,33.22955],[-117.22933,33.23294],[-117.22221,33.23586],[-117.21836,33.23572],[-117.22125,33.23326],[-117.21735,33.22906],[-117.21539,33.2303],[-117.21394,33.22926],[-117.21542,33.2252],[-117.2081,33.22697],[-117.20662,33.22077],[-117.20577,33.21987],[-117.20801,33.21198],[-117.20519,33.20639],[-117.19959,33.21003],[-117.19675,33.20612],[-117.20606,33.2018],[-117.21678,33.20124],[-117.21346,33.19568],[-117.21019,33.19251],[-117.21381,33.18781],[-117.21671,33.19093],[-117.21899,33.19066],[-117.21975,33.18535],[-117.21909,33.18081],[-117.22408,33.18125],[-117.22448,33.17426],[-117.21926,33.17351],[-117.21518,33.17403],[-117.21145,33.17069],[-117.21006,33.16794],[-117.21325,33.16675],[-117.21584,33.16531],[-117.21578,33.16193],[-117.21853,33.16013],[-117.21534,33.15391],[-117.214,33.14891],[-117.21932,33.13955],[-117.2303,33.13365],[-117.25426,33.15231],[-117.27893,33.17578],[-117.28304,33.17298],[-117.29934,33.18152],[-117.31462,33.18009],[-117.32361,33.18202],[-117.32891,33.18065],[-117.34428,33.1764],[-117.35411,33.16886],[-117.35903,33.16438],[-117.62293,33.34049],[-117.7509,33.42327],[-117.73232,33.49319],[-117.7342,33.50281],[-117.73883,33.50757],[-117.73465,33.50987],[-117.73941,33.51079],[-117.73701,33.53956],[-117.71856,33.55563]]]}},{"type":"Feature","properties":{"dist_no":"75","code":"AD-75","id":null,"beachhead":false,"name":" "},"geometry":{"type":"Polygon","coordinates":[[[-116.10326,33.07467],[-116.10578,32.6445],[-116.76273,32.56506],[-116.93661,32.66091],[-116.97732,32.70819],[-117.00144,32.75797],[-116.98361,32.77299],[-116.99494,32.77805],[-116.96692,32.77375],[-116.94334,32.77984],[-116.91708,32.78757],[-116.90132,32.80335],[-116.91249,32.81597],[-116.94469,32.81665],[-116.96829,32.82957],[-117.0105,32.81828],[-117.11057,32.89409],[-117.03838,33.04621],[-116.99987,33.06712],[-116.97486,33.07506],[-117.01573,33.16267],[-117.03639,33.19602],[-117.08592,33.17808],[-117.1562,33.25294],[-117.21866,33.26204],[-117.24511,33.28562],[-117.24941,33.3396],[-117.22747,33.42753],[-116.99469,33.42746],[-116.41963,33.42727],[-116.08439,33.07482],[-116.10326,33.07467]]]}},{"type":"Feature","properties":{"dist_no":"76","code":"AD-76","id":null,"beachhead":false,"name":" "},"geometry":{"type":"Polygon","coordinates":[[[-117.20232,33.25301],[-117.14358,33.22368],[-117.09487,33.17566],[-117.05843,33.16336],[-117.0291,33.18527],[-117.01684,33.16795],[-116.96159,33.09459],[-116.97667,33.07243],[-116.98291,33.06585],[-117.02266,33.06303],[-117.03846,33.04514],[-117.1088,32.94438],[-117.16777,32.93145],[-117.23072,32.91489],[-117.21246,32.95607],[-117.20901,32.98847],[-117.22879,33.0125],[-117.21558,33.03648],[-117.19722,33.05491],[-117.22525,33.10525],[-117.2138,33.14931],[-117.21265,33.16663],[-117.22584,33.17506],[-117.21538,33.19031],[-117.19983,33.20242],[-117.20426,33.22061],[-117.21633,33.2304],[-117.22931,33.23084],[-117.26106,33.23648],[-117.23061,33.26727],[-117.20333,33.25322],[-117.20232,33.25301]]]}},{"type":"Feature","properties":{"dist_no":"77","code":"AD-77","id":null,"beachhead":false,"name":" "},"geometry":{"type":"Polygon","coordinates":[[[-117.22252,32.61955],[-117.35346,33.00181],[-117.35283,33.17466],[-117.32379,33.18201],[-117.29362,33.17566],[-117.25556,33.15281],[-117.22754,33.11118],[-117.2188,33.09517],[-117.19992,33.07305],[-117.19596,33.05106],[-117.20656,33.04451],[-117.21877,33.03248],[-117.22809,33.02212],[-117.22764,33.01065],[-117.21329,33.00595],[-117.21135,32.98564],[-117.1948,32.96156],[-117.21371,32.95513],[-117.22084,32.94068],[-117.22785,32.91089],[-117.20142,32.88083],[-117.191,32.84588],[-117.23464,32.83844],[-117.20691,32.79006],[-117.1992,32.75322],[-117.16478,32.72419],[-117.14756,32.71559],[-117.15716,32.70547],[-117.11744,32.59142],[-117.13305,32.57883],[-117.12483,32.53434],[-117.22252,32.61955]]]}},{"type":"Feature","properties":{"dist_no":"78","code":"AD-78","id":null,"beachhead":false,"name":" "},"geometry":{"type":"Polygon","coordinates":[[[-117.04703,32.77085],[-117.06219,32.77005],[-117.08554,32.76738],[-117.09296,32.75892],[-117.11372,32.75715],[-117.12036,32.74583],[-117.12634,32.71453],[-117.15538,32.7242],[-117.19838,32.75257],[-117.21953,32.81157],[-117.20307,32.8471],[-117.20247,32.88438],[-117.20642,32.91176],[-117.16695,32.93236],[-117.12561,32.94031],[-117.11506,32.89318],[-117.0441,32.85212],[-117.03782,32.8318],[-116.99667,32.82523],[-116.98715,32.8308],[-116.96234,32.82462],[-116.95346,32.81089],[-116.94863,32.81513],[-116.93616,32.81686],[-116.91269,32.81629],[-116.91369,32.81099],[-116.94698,32.80294],[-116.98514,32.79116],[-117.006,32.79409],[-117.04126,32.77929],[-117.04703,32.77085]]]}},{"type":"Feature","properties":{"dist_no":"79","code":"AD-79","id":null,"beachhead":false,"name":" "},"geometry":{"type":"Polygon","coordinates":[[[-117.04491,32.77087],[-117.04006,32.77944],[-117.0042,32.79441],[-116.98027,32.79497],[-116.92693,32.80283],[-116.90118,32.80636],[-116.90797,32.79547],[-116.91708,32.78757],[-116.92871,32.77786],[-116.94526,32.78306],[-116.95795,32.76794],[-116.96231,32.7744],[-116.97929,32.77986],[-116.99167,32.77724],[-116.99955,32.77213],[-116.99257,32.76969],[-116.99002,32.76841],[-116.99616,32.7621],[-116.98506,32.74499],[-116.94206,32.73231],[-117.01303,32.68555],[-117.03428,32.6787],[-117.0727,32.68116],[-117.09105,32.69208],[-117.10881,32.68296],[-117.11783,32.71777],[-117.12519,32.75568],[-117.10125,32.75825],[-117.08327,32.76295],[-117.0694,32.77072],[-117.03965,32.77036],[-117.04491,32.77087]]]}},{"type":"Feature","properties":{"dist_no":"80","code":"AD-80","id":null,"beachhead":false,"name":" "},"geometry":{"type":"Polygon","coordinates":[[[-117.12896,32.55458],[-117.13304,32.57871],[-117.13009,32.58621],[-117.11469,32.59308],[-117.15478,32.68826],[-117.15456,32.70521],[-117.14754,32.71154],[-117.12969,32.71356],[-117.11971,32.70987],[-117.12122,32.69481],[-117.10918,32.68285],[-117.10154,32.68499],[-117.09605,32.68897],[-117.08728,32.69172],[-117.07862,32.69313],[-117.06412,32.68823],[-117.0692,32.67214],[-117.05701,32.6642],[-117.03715,32.67636],[-117.02436,32.67512],[-117.01333,32.67583],[-117.00362,32.67793],[-116.97568,32.67141],[-116.93688,32.65837],[-116.92661,32.6265],[-116.96606,32.58771],[-116.93988,32.56751],[-116.93727,32.5503],[-117.02895,32.54249],[-117.07113,32.53889],[-117.12699,32.55076],[-117.12896,32.55458]]]}}]}