{"type":"FeatureCollection","district_id":"ad-27","district_code":"AD-27","source":{"places":"U.S. Census Bureau cartographic places (cb_2020_06_place_500k)","election":"UC Berkeley Statewide Database 2022 General (g22) SOV by SR precinct","city_join":"https://statewidedatabase.org/pub/data/G22/state/state_g22_srprec_to_city.csv","assembly_boundary":"ca-assembly-crc-2020.geojson","built_at":"2026-10-07","score_formula":"Illustrative focus (0\u2013100) = 70% competitiveness from 2022 Assembly two-party margin + 30% turnout (TOTVOTE/TOTREG) in overlapping SR precincts, aggregated to place via SWDB SRPREC\u2192city weights. Not a field targeting model."},"features":[{"type":"Feature","properties":{"name":"Merced","geoid":"0646898","kind":"city","focus_score":0,"dem_pct_2022_asm":null,"turnout_pct_2022":0.0,"has_election_data":false},"geometry":{"type":"Polygon","coordinates":[[[-120.5425,37.23405],[-120.53863,37.24813],[-120.52871,37.27309],[-120.52332,37.29549],[-120.51399,37.3074],[-120.51011,37.30951],[-120.52276,37.31462],[-120.51188,37.32001],[-120.50487,37.32062],[-120.50445,37.33459],[-120.4969,37.34341],[-120.48618,37.35551],[-120.47751,37.36493],[-120.49022,37.36107],[-120.46859,37.36111],[-120.45048,37.34668],[-120.45092,37.33185],[-120.43679,37.32507],[-120.4444,37.31846],[-120.44444,37.31166],[-120.45131,37.31264],[-120.4575,37.31574],[-120.46033,37.31219],[-120.46156,37.30803],[-120.45256,37.30946],[-120.44502,37.30301],[-120.45306,37.29877],[-120.45033,37.29516],[-120.4335,37.29509],[-120.40628,37.29524],[-120.4064,37.2734],[-120.43822,37.27554],[-120.45801,37.28832],[-120.46752,37.28885],[-120.4811,37.28632],[-120.47414,37.28069],[-120.48782,37.27372],[-120.48334,37.28637],[-120.48754,37.28684],[-120.48768,37.28019],[-120.49671,37.28453],[-120.50016,37.28444],[-120.50591,37.28081],[-120.49926,37.27399],[-120.51288,37.28072],[-120.5239,37.25548],[-120.521,37.23567],[-120.52403,37.2242],[-120.5425,37.23405]],[[-120.4444,37.28781],[-120.43355,37.2878],[-120.4335,37.29488],[-120.44277,37.29489],[-120.44485,37.29486],[-120.44486,37.29013],[-120.4471,37.29013],[-120.4478,37.28782],[-120.4444,37.28781]],[[-120.44437,37.32021],[-120.44193,37.32021],[-120.44186,37.32279],[-120.44343,37.32453],[-120.44472,37.32359],[-120.44588,37.32424],[-120.44837,37.32413],[-120.44846,37.32003],[-120.44437,37.32021]],[[-120.45045,37.32246],[-120.44983,37.32401],[-120.45105,37.32455],[-120.4511,37.32246],[-120.45045,37.32246]],[[-120.48924,37.31427],[-120.48935,37.31734],[-120.48989,37.31734],[-120.49048,37.31631],[-120.49323,37.31587],[-120.48924,37.31427]]]}},{"type":"Feature","properties":{"name":"Madera","geoid":"0645022","kind":"city","focus_score":81,"dem_pct_2022_asm":51.0,"turnout_pct_2022":40.1,"has_election_data":true},"geometry":{"type":"MultiPolygon","coordinates":[[[[-120.04152,36.98458],[-120.04665,36.98174],[-120.04052,36.98002],[-120.04281,36.97682],[-120.04197,36.97415],[-120.03276,36.9707],[-120.03764,36.9707],[-120.03766,36.95982],[-120.03304,36.95262],[-120.03752,36.94538],[-120.03517,36.94167],[-120.03257,36.93811],[-120.0158,36.93807],[-120.03242,36.93542],[-120.0334,36.9348],[-120.03991,36.92775],[-120.04724,36.92889],[-120.04817,36.93823],[-120.05604,36.93103],[-120.06947,36.93463],[-120.06726,36.93462],[-120.07404,36.93833],[-120.08313,36.94177],[-120.08762,36.93838],[-120.09219,36.93474],[-120.09213,36.94188],[-120.10112,36.94299],[-120.09662,36.9456],[-120.1012,36.9528],[-120.10469,36.95493],[-120.10585,36.95281],[-120.10809,36.96011],[-120.11027,36.96538],[-120.11031,36.98192],[-120.12865,37.00611],[-120.11943,36.99644],[-120.10831,37.0001],[-120.10629,37.00043],[-120.10255,37.00152],[-120.09248,37.00068],[-120.09596,36.99241],[-120.09182,36.98897],[-120.07431,36.98284],[-120.06846,36.98283],[-120.06496,36.98545],[-120.06319,36.98283],[-120.05617,36.98413],[-120.05618,36.98848],[-120.05539,36.98684],[-120.04279,36.98677],[-120.04152,36.98458]],[[-120.06505,36.94556],[-120.06506,36.94722],[-120.06674,36.94722],[-120.06924,36.94722],[-120.06925,36.94555],[-120.06505,36.94556]]],[[[-120.17465,36.9418],[-120.1747,36.94541],[-120.15606,36.94558],[-120.15605,36.94381],[-120.15827,36.94381],[-120.1583,36.94144],[-120.15605,36.94144],[-120.15605,36.93823],[-120.18359,36.93814],[-120.18366,36.94176],[-120.17465,36.9418]]]]}},{"type":"Feature","properties":{"name":"Fresno","geoid":"0627000","kind":"city","focus_score":78,"dem_pct_2022_asm":53.4,"turnout_pct_2022":41.1,"has_election_data":true},"geometry":{"type":"MultiPolygon","coordinates":[[[[-119.90223,36.84178],[-119.88848,36.82203],[-119.86466,36.82993],[-119.84722,36.82272],[-119.8432,36.81548],[-119.8444,36.81548],[-119.84441,36.81094],[-119.8429,36.81095],[-119.84433,36.79983],[-119.83595,36.77375],[-119.84873,36.77633],[-119.84888,36.77731],[-119.85334,36.77732],[-119.85334,36.77727],[-119.85691,36.77799],[-119.88476,36.77638],[-119.88482,36.77705],[-119.88483,36.77904],[-119.8803,36.77907],[-119.8803,36.77725],[-119.87526,36.77724],[-119.87525,36.77835],[-119.87381,36.77758],[-119.8713,36.77822],[-119.87127,36.77743],[-119.86883,36.77744],[-119.86883,36.7791],[-119.86756,36.7791],[-119.86903,36.78007],[-119.86943,36.78278],[-119.87131,36.78363],[-119.86682,36.78454],[-119.86683,36.78638],[-119.86233,36.78638],[-119.86231,36.78818],[-119.87132,36.78815],[-119.87128,36.78635],[-119.88038,36.78632],[-119.88036,36.7836],[-119.88371,36.78265],[-119.88369,36.78004],[-119.8865,36.78003],[-119.88707,36.7812],[-119.88705,36.77903],[-119.88931,36.77903],[-119.88928,36.78174],[-119.89382,36.78172],[-119.89383,36.78261],[-119.89832,36.78259],[-119.89836,36.7862],[-119.89609,36.78621],[-119.89163,36.78627],[-119.89165,36.79535],[-119.89389,36.79533],[-119.89387,36.79353],[-119.89838,36.79352],[-119.89838,36.79532],[-119.90063,36.79531],[-119.90164,36.79349],[-119.91637,36.79343],[-119.91629,36.7789],[-119.92192,36.77886],[-119.92191,36.78248],[-119.92531,36.78251],[-119.9255,36.80074],[-119.91642,36.80072],[-119.90744,36.80068],[-119.90741,36.80352],[-119.91194,36.80317],[-119.912,36.80794],[-119.921,36.80788],[-119.92101,36.81149],[-119.9256,36.81231],[-119.92556,36.81507],[-119.92564,36.81507],[-119.92558,36.81777],[-119.92329,36.81787],[-119.9233,36.82051],[-119.9211,36.82055],[-119.9211,36.82236],[-119.91782,36.8224],[-119.9178,36.82049],[-119.91655,36.82052],[-119.91655,36.82242],[-119.91655,36.82585],[-119.91159,36.82588],[-119.90932,36.82535],[-119.91406,36.82932],[-119.91765,36.83221],[-119.9289,36.84098],[-119.93255,36.84299],[-119.93249,36.84304],[-119.90223,36.84178]]],[[[-119.90072,36.66898],[-119.90063,36.66295],[-119.9006,36.66219],[-119.9073,36.66216],[-119.90733,36.66277],[-119.90742,36.67314],[-119.90072,36.66898]]],[[[-119.914,36.67723],[-119.91676,36.67721],[-119.91673,36.67892],[-119.914,36.67723]]],[[[-119.93399,36.69165],[-119.93435,36.69164],[-119.93439,36.70625],[-119.93087,36.70625],[-119.93399,36.69165]]]]}},{"type":"Feature","properties":{"name":"Los Banos","geoid":"0644028","kind":"city","focus_score":0,"dem_pct_2022_asm":null,"turnout_pct_2022":0.0,"has_election_data":false},"geometry":{"type":"Polygon","coordinates":[[[-120.89025,37.05667],[-120.89035,37.05689],[-120.87838,37.05683],[-120.87772,37.06199],[-120.87427,37.06196],[-120.87531,37.06491],[-120.87424,37.06972],[-120.87142,37.06968],[-120.87049,37.06683],[-120.86564,37.06682],[-120.86549,37.07044],[-120.86699,37.07137],[-120.8645,37.07157],[-120.86448,37.07369],[-120.86086,37.07369],[-120.8609,37.07155],[-120.85583,37.07153],[-120.85586,37.07371],[-120.85585,37.07663],[-120.85356,37.07668],[-120.85327,37.08433],[-120.85051,37.08432],[-120.84384,37.08432],[-120.83976,37.08432],[-120.83613,37.08531],[-120.83491,37.08483],[-120.83488,37.08994],[-120.82335,37.09009],[-120.82415,37.08614],[-120.82409,37.08504],[-120.81621,37.0852],[-120.79665,37.08498],[-120.79654,37.0725],[-120.80342,37.07249],[-120.81523,37.08462],[-120.81565,37.08462],[-120.82403,37.08469],[-120.82329,37.08331],[-120.81083,37.06801],[-120.80486,37.06062],[-120.80085,37.06056],[-120.79698,37.05991],[-120.79169,37.06009],[-120.78802,37.05606],[-120.78797,37.05557],[-120.80433,37.05585],[-120.8114,37.04621],[-120.81784,37.04939],[-120.82634,37.05309],[-120.82612,37.04209],[-120.83573,37.04223],[-120.83573,37.04238],[-120.8354,37.05489],[-120.83967,37.05515],[-120.83949,37.04554],[-120.83784,37.04549],[-120.83787,37.04237],[-120.84074,37.04236],[-120.84865,37.04235],[-120.84866,37.04371],[-120.85379,37.04371],[-120.85379,37.04952],[-120.85415,37.05141],[-120.85415,37.0519],[-120.85713,37.05225],[-120.85716,37.05042],[-120.859,37.04948],[-120.86521,37.04941],[-120.86523,37.04606],[-120.87208,37.04598],[-120.87216,37.04219],[-120.89032,37.04227],[-120.89069,37.04707],[-120.8925,37.0512],[-120.89025,37.05667]]]}},{"type":"Feature","properties":{"name":"Chowchilla","geoid":"0613294","kind":"city","focus_score":62,"dem_pct_2022_asm":34.0,"turnout_pct_2022":48.0,"has_election_data":true},"geometry":{"type":"Polygon","coordinates":[[[-120.28481,37.12236],[-120.28481,37.12236],[-120.28329,37.12213],[-120.27916,37.12263],[-120.27881,37.12276],[-120.27882,37.12381],[-120.27484,37.12531],[-120.27244,37.12622],[-120.27244,37.12631],[-120.26978,37.12716],[-120.2671,37.12715],[-120.26607,37.12635],[-120.26597,37.12626],[-120.26536,37.12715],[-120.26295,37.12713],[-120.25958,37.12711],[-120.25655,37.1271],[-120.25659,37.12801],[-120.2559,37.12836],[-120.25549,37.12896],[-120.25611,37.12939],[-120.25599,37.12956],[-120.25517,37.13073],[-120.25117,37.13308],[-120.22821,37.11111],[-120.22983,37.10975],[-120.22898,37.10911],[-120.22037,37.10248],[-120.21699,37.09949],[-120.21424,37.09472],[-120.22001,37.09474],[-120.21569,37.09128],[-120.22039,37.09104],[-120.2204,37.08396],[-120.23859,37.08396],[-120.2477,37.08393],[-120.24767,37.09104],[-120.2522,37.09102],[-120.25219,37.09457],[-120.24763,37.09457],[-120.2476,37.09826],[-120.25673,37.09826],[-120.25674,37.09989],[-120.25674,37.10079],[-120.2589,37.10016],[-120.2589,37.09878],[-120.26117,37.09878],[-120.26117,37.09821],[-120.26583,37.09927],[-120.26578,37.10391],[-120.27022,37.10392],[-120.27022,37.10298],[-120.2737,37.10297],[-120.27176,37.10555],[-120.27384,37.10405],[-120.2779,37.10627],[-120.27857,37.10551],[-120.28156,37.10551],[-120.29283,37.10548],[-120.29286,37.11275],[-120.2927,37.12428],[-120.29011,37.12419],[-120.28567,37.12249],[-120.28481,37.12236]]]}},{"type":"Feature","properties":{"name":"Fairmead","geoid":"0623210","kind":"place","focus_score":0,"dem_pct_2022_asm":null,"turnout_pct_2022":0.0,"has_election_data":false},"geometry":{"type":"Polygon","coordinates":[[[-120.2022,37.09736],[-120.2022,37.09091],[-120.19299,37.09094],[-120.18344,37.09092],[-120.16214,37.08361],[-120.16214,37.0836],[-120.16592,37.08356],[-120.16595,37.06916],[-120.16595,37.05463],[-120.17198,37.05465],[-120.17229,37.05463],[-120.17327,37.05494],[-120.1841,37.05457],[-120.20241,37.05457],[-120.20243,37.06913],[-120.22041,37.06924],[-120.22047,37.08012],[-120.22199,37.08023],[-120.23846,37.0802],[-120.23859,37.08396],[-120.2204,37.08396],[-120.22039,37.09104],[-120.21569,37.09128],[-120.22001,37.09474],[-120.21424,37.09472],[-120.21699,37.09949],[-120.22037,37.10248],[-120.22034,37.10359],[-120.2022,37.09736]]]}},{"type":"Feature","properties":{"name":"Coalinga","geoid":"0614274","kind":"city","focus_score":73,"dem_pct_2022_asm":42.5,"turnout_pct_2022":44.7,"has_election_data":true},"geometry":{"type":"MultiPolygon","coordinates":[[[[-120.23576,36.13727],[-120.23568,36.12298],[-120.2466,36.12296],[-120.2541,36.12275],[-120.25415,36.13708],[-120.23576,36.13727]]],[[[-120.27178,36.13698],[-120.27176,36.11536],[-120.28137,36.11544],[-120.28201,36.12251],[-120.28201,36.13691],[-120.27178,36.13698]]],[[[-120.29485,36.17013],[-120.29469,36.16561],[-120.28579,36.15838],[-120.28984,36.15517],[-120.29156,36.15656],[-120.29158,36.15162],[-120.29541,36.15161],[-120.29541,36.15936],[-120.29666,36.16015],[-120.298,36.15502],[-120.30074,36.15561],[-120.2987,36.164],[-120.30294,36.1674],[-120.29972,36.17001],[-120.29485,36.17013]]],[[[-120.37236,36.13999],[-120.37239,36.14373],[-120.37238,36.15088],[-120.37052,36.15108],[-120.37063,36.15452],[-120.3634,36.1545],[-120.36346,36.16094],[-120.3676,36.16543],[-120.36658,36.16558],[-120.35986,36.15883],[-120.35722,36.16652],[-120.36115,36.16646],[-120.36126,36.1728],[-120.36375,36.17269],[-120.36376,36.17992],[-120.35468,36.18017],[-120.35386,36.17985],[-120.35464,36.17686],[-120.35455,36.16537],[-120.35449,36.15834],[-120.34554,36.15837],[-120.34557,36.15353],[-120.33951,36.15354],[-120.33955,36.15145],[-120.33957,36.15092],[-120.33967,36.14766],[-120.33859,36.14571],[-120.33666,36.14543],[-120.33665,36.14393],[-120.33441,36.14391],[-120.33203,36.14383],[-120.32959,36.14389],[-120.32928,36.14346],[-120.33014,36.14247],[-120.33243,36.14165],[-120.33324,36.14216],[-120.33424,36.14222],[-120.33663,36.14232],[-120.33664,36.14322],[-120.33987,36.1436],[-120.34004,36.14229],[-120.34558,36.13665],[-120.3438,36.13659],[-120.32586,36.13668],[-120.32586,36.12968],[-120.33435,36.12968],[-120.34369,36.12929],[-120.35574,36.12939],[-120.36167,36.12902],[-120.366,36.12928],[-120.36909,36.12589],[-120.36995,36.12643],[-120.37245,36.12255],[-120.37251,36.12223],[-120.37437,36.12214],[-120.3735,36.12384],[-120.37022,36.12925],[-120.37226,36.12924],[-120.37235,36.13647],[-120.37562,36.13647],[-120.37563,36.13992],[-120.37236,36.13999]]]]}},{"type":"Feature","properties":{"name":"Atwater","geoid":"0603162","kind":"city","focus_score":0,"dem_pct_2022_asm":null,"turnout_pct_2022":0.0,"has_election_data":false},"geometry":{"type":"Polygon","coordinates":[[[-120.62704,37.35469],[-120.62007,37.35519],[-120.62164,37.35908],[-120.61872,37.36041],[-120.62204,37.36043],[-120.6225,37.36406],[-120.62621,37.36404],[-120.62617,37.36762],[-120.62614,37.36986],[-120.61962,37.37],[-120.61458,37.37006],[-120.61384,37.36771],[-120.61334,37.36668],[-120.61098,37.36546],[-120.61202,37.36404],[-120.60918,37.36406],[-120.60921,37.36585],[-120.60761,37.36867],[-120.60348,37.36861],[-120.60222,37.37004],[-120.60035,37.37022],[-120.60042,37.37215],[-120.60207,37.37396],[-120.6013,37.37494],[-120.59785,37.37491],[-120.59723,37.37459],[-120.59554,37.37398],[-120.59062,37.37125],[-120.57656,37.3713],[-120.57666,37.3629],[-120.57282,37.36052],[-120.57326,37.36049],[-120.57345,37.36047],[-120.5686,37.35691],[-120.56859,37.35552],[-120.56857,37.35408],[-120.56949,37.35531],[-120.57073,37.35569],[-120.57667,37.35367],[-120.57673,37.34967],[-120.57506,37.34967],[-120.56681,37.34958],[-120.56681,37.34591],[-120.57009,37.34583],[-120.57023,37.33859],[-120.55878,37.3387],[-120.55909,37.32833],[-120.56189,37.32928],[-120.56693,37.33397],[-120.56903,37.33317],[-120.576,37.33398],[-120.57708,37.33509],[-120.57835,37.33498],[-120.58434,37.33739],[-120.58815,37.33986],[-120.59412,37.34208],[-120.59415,37.34075],[-120.59599,37.34121],[-120.596,37.34099],[-120.59627,37.3406],[-120.59838,37.33959],[-120.59984,37.33705],[-120.59805,37.33584],[-120.60034,37.33185],[-120.60407,37.33331],[-120.60507,37.33179],[-120.6074,37.33264],[-120.60775,37.33911],[-120.61441,37.34148],[-120.61687,37.34236],[-120.61682,37.33853],[-120.61908,37.33864],[-120.62367,37.34563],[-120.62594,37.34567],[-120.62688,37.34945],[-120.62674,37.35212],[-120.62992,37.35337],[-120.62789,37.35431],[-120.62704,37.35469]],[[-120.58118,37.33928],[-120.58018,37.3391],[-120.57932,37.3423],[-120.57945,37.34764],[-120.58513,37.34809],[-120.58524,37.34112],[-120.58118,37.33928]],[[-120.59903,37.34616],[-120.59801,37.34818],[-120.59976,37.34916],[-120.60101,37.34725],[-120.60027,37.34655],[-120.59903,37.34616]]]}},{"type":"Feature","properties":{"name":"McSwain","geoid":"0645006","kind":"place","focus_score":0,"dem_pct_2022_asm":null,"turnout_pct_2022":0.0,"has_election_data":false},"geometry":{"type":"Polygon","coordinates":[[[-120.61446,37.31623],[-120.61391,37.31656],[-120.60311,37.31655],[-120.60312,37.32304],[-120.60317,37.33128],[-120.60068,37.3313],[-120.60034,37.33185],[-120.59805,37.33584],[-120.59984,37.33705],[-120.59838,37.33959],[-120.59627,37.3406],[-120.59445,37.33993],[-120.57756,37.33374],[-120.57723,37.3333],[-120.57698,37.33227],[-120.57726,37.33163],[-120.57745,37.3241],[-120.57745,37.32402],[-120.5706,37.32405],[-120.56848,37.32249],[-120.56852,37.32056],[-120.55927,37.32062],[-120.55936,37.31566],[-120.55894,37.3135],[-120.5594,37.31179],[-120.55943,37.30244],[-120.56844,37.30239],[-120.56857,37.29877],[-120.57764,37.29861],[-120.57784,37.29493],[-120.59249,37.29496],[-120.59695,37.29386],[-120.59692,37.30206],[-120.61485,37.3021],[-120.61469,37.30935],[-120.61446,37.31623]]]}},{"type":"Feature","properties":{"name":"Madera Acres","geoid":"0645050","kind":"place","focus_score":0,"dem_pct_2022_asm":null,"turnout_pct_2022":0.0,"has_election_data":false},"geometry":{"type":"Polygon","coordinates":[[[-120.10565,37.02341],[-120.10526,37.02346],[-120.105,37.02381],[-120.10463,37.02404],[-120.07741,37.02417],[-120.07651,37.0232],[-120.07582,37.02122],[-120.07434,37.02123],[-120.07436,37.02418],[-120.05623,37.00994],[-120.05622,37.00993],[-120.05621,37.00697],[-120.05618,36.99628],[-120.06313,36.99629],[-120.07281,36.99632],[-120.07428,36.99632],[-120.07424,36.98689],[-120.08394,36.98693],[-120.08391,36.9829],[-120.09182,36.98897],[-120.09618,36.99224],[-120.09596,36.99241],[-120.09249,36.99268],[-120.09248,37.00068],[-120.0976,36.99984],[-120.10255,37.00152],[-120.10605,37.00061],[-120.10629,37.00043],[-120.11019,37.00375],[-120.10998,37.00393],[-120.10952,37.00427],[-120.11053,37.00518],[-120.11052,37.00848],[-120.11059,37.01989],[-120.10841,37.02122],[-120.10818,37.02183],[-120.10565,37.02341]]]}},{"type":"Feature","properties":{"name":"Santa Nella","geoid":"0670028","kind":"place","focus_score":0,"dem_pct_2022_asm":null,"turnout_pct_2022":0.0,"has_election_data":false},"geometry":{"type":"Polygon","coordinates":[[[-121.03687,37.10221],[-121.0382,37.10782],[-121.03469,37.11009],[-121.03425,37.11094],[-121.03409,37.11527],[-121.0156,37.11523],[-121.01526,37.12249],[-121.0121,37.12246],[-121.00929,37.1199],[-121.0095,37.11751],[-121.01076,37.11516],[-121.00291,37.11497],[-121.00292,37.11222],[-121.00087,37.11287],[-120.99816,37.11186],[-120.99632,37.11334],[-120.99267,37.11355],[-120.98841,37.11259],[-120.98866,37.10049],[-121.00647,37.1006],[-121.01138,37.10063],[-121.00372,37.0915],[-120.99809,37.08565],[-120.99811,37.08123],[-121.01066,37.08227],[-121.01604,37.08409],[-121.02085,37.08671],[-121.02652,37.08687],[-121.03955,37.09173],[-121.03998,37.09216],[-121.04003,37.09723],[-121.03687,37.10221]]]}},{"type":"Feature","properties":{"name":"Volta","geoid":"0683108","kind":"place","focus_score":0,"dem_pct_2022_asm":null,"turnout_pct_2022":0.0,"has_election_data":false},"geometry":{"type":"Polygon","coordinates":[[[-120.94255,37.09985],[-120.93842,37.10223],[-120.9358,37.1047],[-120.9321,37.10743],[-120.92502,37.10739],[-120.92515,37.1001],[-120.90753,37.1],[-120.90765,37.09317],[-120.90591,37.09234],[-120.90407,37.08976],[-120.9008,37.08832],[-120.90028,37.07487],[-120.90169,37.07469],[-120.90662,37.07257],[-120.90837,37.0723],[-120.92535,37.07135],[-120.92576,37.07578],[-120.92705,37.07544],[-120.94418,37.07537],[-120.94353,37.09828],[-120.94255,37.09985]]]}},{"type":"Feature","properties":{"name":"Cantua Creek","geoid":"0610816","kind":"place","focus_score":0,"dem_pct_2022_asm":null,"turnout_pct_2022":0.0,"has_election_data":false},"geometry":{"type":"Polygon","coordinates":[[[-120.31624,36.50862],[-120.31623,36.51586],[-120.29821,36.51585],[-120.29801,36.5013],[-120.29847,36.48641],[-120.32836,36.48646],[-120.33406,36.48943],[-120.33451,36.49085],[-120.33421,36.50134],[-120.34309,36.50136],[-120.34317,36.5086],[-120.31624,36.50862]]]}},{"type":"Feature","properties":{"name":"Livingston","geoid":"0642006","kind":"city","focus_score":0,"dem_pct_2022_asm":null,"turnout_pct_2022":0.0,"has_election_data":false},"geometry":{"type":"MultiPolygon","coordinates":[[[[-120.74138,37.3898],[-120.73978,37.39086],[-120.74047,37.3915],[-120.74026,37.39173],[-120.74071,37.39216],[-120.74133,37.39238],[-120.74133,37.39262],[-120.74011,37.3941],[-120.73979,37.39446],[-120.7373,37.39161],[-120.73522,37.3926],[-120.73697,37.39398],[-120.73937,37.39623],[-120.74083,37.39798],[-120.74092,37.39983],[-120.73802,37.40078],[-120.73685,37.40244],[-120.73453,37.40349],[-120.73352,37.40518],[-120.73144,37.4057],[-120.7304,37.40639],[-120.72973,37.40782],[-120.72647,37.40743],[-120.7239,37.40543],[-120.72297,37.40381],[-120.72305,37.39676],[-120.71444,37.39681],[-120.70933,37.39681],[-120.70927,37.38955],[-120.70492,37.38956],[-120.70488,37.39299],[-120.7004,37.39297],[-120.70047,37.38405],[-120.70507,37.38407],[-120.7051,37.38125],[-120.70519,37.38073],[-120.70968,37.38231],[-120.71416,37.38214],[-120.71424,37.37852],[-120.7052,37.37823],[-120.70527,37.37501],[-120.71432,37.37503],[-120.7144,37.37137],[-120.72358,37.37132],[-120.72996,37.37134],[-120.72901,37.37493],[-120.73944,37.37502],[-120.73942,37.3785],[-120.74159,37.37848],[-120.74152,37.38227],[-120.74138,37.3898]]],[[[-120.75868,37.39312],[-120.75776,37.39308],[-120.75682,37.39349],[-120.7563,37.39408],[-120.75534,37.39475],[-120.75372,37.395],[-120.75271,37.39547],[-120.7527,37.39332],[-120.75468,37.39273],[-120.75476,37.38574],[-120.7552,37.38928],[-120.75958,37.38927],[-120.75933,37.39355],[-120.75868,37.39312]]]]}},{"type":"Feature","properties":{"name":"Firebaugh","geoid":"0624134","kind":"city","focus_score":67,"dem_pct_2022_asm":59.9,"turnout_pct_2022":35.5,"has_election_data":true},"geometry":{"type":"Polygon","coordinates":[[[-120.47643,36.87628],[-120.47516,36.87705],[-120.47385,36.87811],[-120.47545,36.8804],[-120.46819,36.88038],[-120.46617,36.87774],[-120.46337,36.87705],[-120.46126,36.87522],[-120.4598,36.87507],[-120.45958,36.87629],[-120.45907,36.87655],[-120.45931,36.87491],[-120.45738,36.87303],[-120.45194,36.87188],[-120.4503,36.87122],[-120.45019,36.86853],[-120.45097,36.8675],[-120.45432,36.86532],[-120.45625,36.86286],[-120.45408,36.86021],[-120.45265,36.85997],[-120.44898,36.86033],[-120.44898,36.85834],[-120.44737,36.85657],[-120.44612,36.85615],[-120.44178,36.85642],[-120.43949,36.85571],[-120.43853,36.85449],[-120.43911,36.85259],[-120.4405,36.8502],[-120.43748,36.85007],[-120.43587,36.851],[-120.43389,36.85058],[-120.43359,36.84949],[-120.43154,36.84654],[-120.42884,36.84353],[-120.433,36.84053],[-120.43549,36.83732],[-120.44106,36.83851],[-120.4456,36.84025],[-120.44707,36.83749],[-120.44778,36.8377],[-120.44769,36.83742],[-120.44543,36.83258],[-120.43964,36.82513],[-120.43919,36.8246],[-120.43933,36.82164],[-120.44852,36.82159],[-120.45408,36.82533],[-120.44813,36.82753],[-120.45083,36.83244],[-120.45774,36.83246],[-120.45761,36.83716],[-120.45333,36.83709],[-120.45451,36.84086],[-120.45576,36.84182],[-120.45029,36.84333],[-120.45147,36.8465],[-120.45155,36.84648],[-120.4521,36.84638],[-120.45326,36.84766],[-120.45314,36.8482],[-120.455,36.85048],[-120.45478,36.85098],[-120.4545,36.85165],[-120.45558,36.85312],[-120.45843,36.85581],[-120.45897,36.85545],[-120.46213,36.85333],[-120.46484,36.85199],[-120.46746,36.8513],[-120.46976,36.85352],[-120.46358,36.85808],[-120.46885,36.863],[-120.46778,36.86404],[-120.47343,36.86927],[-120.47197,36.87035],[-120.47173,36.87054],[-120.48935,36.88169],[-120.4771,36.87649],[-120.47643,36.87628]]]}},{"type":"Feature","properties":{"name":"Mendota","geoid":"0646828","kind":"city","focus_score":46,"dem_pct_2022_asm":73.6,"turnout_pct_2022":31.5,"has_election_data":true},"geometry":{"type":"MultiPolygon","coordinates":[[[[-120.39493,36.764],[-120.38733,36.764],[-120.39228,36.76951],[-120.39233,36.76968],[-120.38425,36.77256],[-120.37865,36.76513],[-120.3754,36.76374],[-120.37675,36.76701],[-120.3733,36.76811],[-120.37097,36.76211],[-120.36881,36.76105],[-120.36868,36.75829],[-120.36841,36.76457],[-120.37434,36.77414],[-120.3725,36.77694],[-120.36946,36.77856],[-120.3691,36.77838],[-120.36449,36.77834],[-120.36383,36.77575],[-120.3641,36.76749],[-120.35955,36.76379],[-120.35765,36.76274],[-120.35773,36.75737],[-120.36355,36.75725],[-120.36408,36.74572],[-120.36607,36.74591],[-120.36866,36.74802],[-120.36859,36.74528],[-120.37396,36.7493],[-120.37507,36.74927],[-120.37511,36.7457],[-120.38436,36.74575],[-120.3845,36.73476],[-120.37946,36.73477],[-120.37949,36.73369],[-120.37803,36.73365],[-120.37795,36.72422],[-120.38,36.72308],[-120.38715,36.723],[-120.38732,36.72754],[-120.38706,36.74185],[-120.38698,36.74611],[-120.3885,36.74614],[-120.38845,36.74928],[-120.39154,36.74925],[-120.39132,36.75656],[-120.39591,36.75647],[-120.39574,36.76389],[-120.39493,36.764]]],[[[-120.37247,36.78023],[-120.37213,36.77865],[-120.3725,36.7777],[-120.37332,36.7781],[-120.37353,36.77833],[-120.37448,36.77937],[-120.37514,36.77976],[-120.37247,36.78023]]],[[[-120.37387,36.77614],[-120.37345,36.77625],[-120.3759,36.77275],[-120.37708,36.77495],[-120.37387,36.77614]]]]}},{"type":"Feature","properties":{"name":"El Nido","geoid":"0622286","kind":"place","focus_score":0,"dem_pct_2022_asm":null,"turnout_pct_2022":0.0,"has_election_data":false},"geometry":{"type":"Polygon","coordinates":[[[-120.492,37.14217],[-120.47348,37.14195],[-120.47347,37.12745],[-120.49218,37.1276],[-120.49216,37.12032],[-120.51937,37.12038],[-120.51922,37.14224],[-120.492,37.14217]]]}},{"type":"Feature","properties":{"name":"Kerman","geoid":"0638226","kind":"city","focus_score":80,"dem_pct_2022_asm":48.2,"turnout_pct_2022":40.6,"has_election_data":true},"geometry":{"type":"Polygon","coordinates":[[[-120.07826,36.73475],[-120.0692,36.73484],[-120.06682,36.73487],[-120.06691,36.73869],[-120.06008,36.73868],[-120.06012,36.73669],[-120.05334,36.73672],[-120.05338,36.73494],[-120.0514,36.73493],[-120.05142,36.73676],[-120.04675,36.73683],[-120.04668,36.7351],[-120.04221,36.73496],[-120.04225,36.7277],[-120.04205,36.7277],[-120.04243,36.71881],[-120.0485,36.71983],[-120.05079,36.71963],[-120.05152,36.71892],[-120.05153,36.71756],[-120.05205,36.71305],[-120.0604,36.71305],[-120.06436,36.71306],[-120.06441,36.70574],[-120.07356,36.70567],[-120.07353,36.71295],[-120.06947,36.71299],[-120.0694,36.71981],[-120.08294,36.71981],[-120.083,36.72744],[-120.08304,36.73474],[-120.07826,36.73475]]]}},{"type":"Feature","properties":{"name":"Delhi","geoid":"0618464","kind":"place","focus_score":0,"dem_pct_2022_asm":null,"turnout_pct_2022":0.0,"has_election_data":false},"geometry":{"type":"Polygon","coordinates":[[[-120.79069,37.44133],[-120.78932,37.44132],[-120.78999,37.44333],[-120.78985,37.4442],[-120.78985,37.44421],[-120.77654,37.4416],[-120.77656,37.44125],[-120.77469,37.44124],[-120.76752,37.43983],[-120.76773,37.43395],[-120.75862,37.43389],[-120.75871,37.42948],[-120.75536,37.42663],[-120.74656,37.42654],[-120.74652,37.42435],[-120.74495,37.42251],[-120.74485,37.42094],[-120.74553,37.41932],[-120.76022,37.41937],[-120.76169,37.41937],[-120.76291,37.4194],[-120.76417,37.41941],[-120.76817,37.41943],[-120.77326,37.41946],[-120.77732,37.4195],[-120.79543,37.41963],[-120.7953,37.42507],[-120.79069,37.44133]]]}},{"type":"Feature","properties":{"name":"Winton","geoid":"0686076","kind":"place","focus_score":0,"dem_pct_2022_asm":null,"turnout_pct_2022":0.0,"has_election_data":false},"geometry":{"type":"Polygon","coordinates":[[[-120.63161,37.39659],[-120.63155,37.39643],[-120.63136,37.39663],[-120.63086,37.39659],[-120.61508,37.39664],[-120.61332,37.39665],[-120.6042,37.39668],[-120.60257,37.39669],[-120.6025,37.39478],[-120.60429,37.39335],[-120.60434,37.38944],[-120.59927,37.38946],[-120.5991,37.38838],[-120.60153,37.38827],[-120.60277,37.38642],[-120.6025,37.38502],[-120.60061,37.38552],[-120.59907,37.38512],[-120.59537,37.38254],[-120.59553,37.37432],[-120.59554,37.37398],[-120.59723,37.37459],[-120.59785,37.37491],[-120.6013,37.37494],[-120.60681,37.37494],[-120.60748,37.37494],[-120.60908,37.37493],[-120.61365,37.37489],[-120.61373,37.37129],[-120.61384,37.36771],[-120.61458,37.37006],[-120.61962,37.37],[-120.62176,37.37323],[-120.62361,37.37488],[-120.62396,37.37555],[-120.62732,37.37799],[-120.63029,37.3792],[-120.6316,37.38058],[-120.63177,37.38209],[-120.63246,37.3821],[-120.63324,37.3834],[-120.63962,37.38936],[-120.63993,37.39298],[-120.64025,37.39662],[-120.63161,37.39659]]]}},{"type":"Feature","properties":{"name":"Westside","geoid":"0684863","kind":"place","focus_score":0,"dem_pct_2022_asm":null,"turnout_pct_2022":0.0,"has_election_data":false},"geometry":{"type":"Polygon","coordinates":[[[-120.14667,36.40056],[-120.14804,36.41486],[-120.12636,36.41491],[-120.12113,36.41503],[-120.1209,36.39339],[-120.14814,36.39318],[-120.14671,36.39434],[-120.14667,36.40056]]]}},{"type":"Feature","properties":{"name":"Franklin","geoid":"0625488","kind":"place","focus_score":0,"dem_pct_2022_asm":null,"turnout_pct_2022":0.0,"has_election_data":false},"geometry":{"type":"Polygon","coordinates":[[[-120.54968,37.34388],[-120.54976,37.3458],[-120.5405,37.34003],[-120.52775,37.33205],[-120.5276,37.3323],[-120.5229,37.32937],[-120.52286,37.33153],[-120.51684,37.3319],[-120.51693,37.32534],[-120.50975,37.32083],[-120.51153,37.32038],[-120.51188,37.32001],[-120.5132,37.31911],[-120.52028,37.31812],[-120.52303,37.31616],[-120.52304,37.31472],[-120.52304,37.3143],[-120.54098,37.32081],[-120.54294,37.3215],[-120.54206,37.32306],[-120.54545,37.3231],[-120.5456,37.32406],[-120.54533,37.33882],[-120.54981,37.3388],[-120.54991,37.34246],[-120.5517,37.34246],[-120.54968,37.34388]]]}},{"type":"Feature","properties":{"name":"Caruthers","geoid":"0611614","kind":"place","focus_score":62,"dem_pct_2022_asm":35.2,"turnout_pct_2022":43.9,"has_election_data":true},"geometry":{"type":"Polygon","coordinates":[[[-119.82681,36.54675],[-119.83518,36.53269],[-119.84525,36.53265],[-119.86326,36.53258],[-119.86313,36.5471],[-119.83774,36.54718],[-119.83577,36.5472],[-119.8269,36.5472],[-119.82681,36.54675]]]}},{"type":"Feature","properties":{"name":"Tuttle","geoid":"0680882","kind":"place","focus_score":0,"dem_pct_2022_asm":null,"turnout_pct_2022":0.0,"has_election_data":false},"geometry":{"type":"Polygon","coordinates":[[[-120.37897,37.30324],[-120.36098,37.303],[-120.36117,37.29563],[-120.36123,37.29219],[-120.36524,37.29204],[-120.36787,37.28884],[-120.37044,37.28995],[-120.37448,37.29011],[-120.37684,37.28871],[-120.37898,37.28874],[-120.39269,37.28836],[-120.39271,37.29541],[-120.39271,37.29563],[-120.39719,37.2955],[-120.39711,37.30298],[-120.37897,37.30324]]]}},{"type":"Feature","properties":{"name":"Planada","geoid":"0657582","kind":"place","focus_score":0,"dem_pct_2022_asm":null,"turnout_pct_2022":0.0,"has_election_data":false},"geometry":{"type":"Polygon","coordinates":[[[-120.33384,37.29546],[-120.33368,37.30263],[-120.32476,37.30251],[-120.32476,37.29918],[-120.32082,37.29847],[-120.32084,37.29691],[-120.31829,37.29648],[-120.31547,37.29528],[-120.30878,37.29511],[-120.30862,37.29332],[-120.30377,37.29061],[-120.30664,37.28839],[-120.30942,37.28792],[-120.30671,37.28791],[-120.30668,37.2805],[-120.30663,37.27992],[-120.30661,37.27755],[-120.31039,37.28058],[-120.31537,37.28463],[-120.31615,37.28326],[-120.31899,37.28354],[-120.32484,37.28202],[-120.32483,37.28074],[-120.33113,37.28076],[-120.33399,37.2808],[-120.33401,37.28809],[-120.33384,37.29546]]]}},{"type":"Feature","properties":{"name":"Parksdale","geoid":"0655751","kind":"place","focus_score":0,"dem_pct_2022_asm":null,"turnout_pct_2022":0.0,"has_election_data":false},"geometry":{"type":"Polygon","coordinates":[[[-120.01209,36.95721],[-120.0119,36.95564],[-120.01252,36.95304],[-120.01195,36.95135],[-120.0099,36.94925],[-120.00988,36.9492],[-120.00933,36.9453],[-120.00545,36.94194],[-120.00489,36.9407],[-120.0158,36.93807],[-120.01938,36.93807],[-120.03257,36.93811],[-120.03294,36.94167],[-120.03517,36.94167],[-120.03517,36.94538],[-120.03752,36.94538],[-120.03758,36.95264],[-120.03304,36.95262],[-120.02854,36.95261],[-120.0218,36.95261],[-120.01948,36.9526],[-120.01953,36.95986],[-120.01605,36.95979],[-120.01209,36.95721]]]}},{"type":"Feature","properties":{"name":"Huron","geoid":"0636084","kind":"city","focus_score":39,"dem_pct_2022_asm":79.9,"turnout_pct_2022":37.6,"has_election_data":true},"geometry":{"type":"MultiPolygon","coordinates":[[[[-120.06837,36.21536],[-120.06825,36.21095],[-120.07391,36.21043],[-120.0827,36.21027],[-120.06837,36.21536]]],[[[-120.11255,36.20307],[-120.10788,36.20309],[-120.10796,36.21023],[-120.10355,36.21039],[-120.1036,36.21453],[-120.10182,36.21456],[-120.10181,36.21283],[-120.09459,36.21284],[-120.09459,36.21039],[-120.08566,36.21037],[-120.08563,36.20982],[-120.08555,36.19584],[-120.10338,36.19585],[-120.11258,36.19579],[-120.11258,36.19959],[-120.11255,36.20307]]]]}},{"type":"Feature","properties":{"name":"South Dos Palos","geoid":"0672954","kind":"place","focus_score":0,"dem_pct_2022_asm":null,"turnout_pct_2022":0.0,"has_election_data":false},"geometry":{"type":"Polygon","coordinates":[[[-120.65831,36.96754],[-120.65461,36.9676],[-120.65545,36.97163],[-120.65377,36.97162],[-120.65377,36.97466],[-120.65376,36.98182],[-120.64495,36.98177],[-120.64471,36.98178],[-120.63558,36.98175],[-120.63559,36.97781],[-120.63561,36.97459],[-120.63561,36.96746],[-120.63773,36.96741],[-120.64645,36.96045],[-120.65376,36.95462],[-120.65375,36.96003],[-120.65837,36.96008],[-120.65833,36.96693],[-120.65831,36.96754]]]}},{"type":"Feature","properties":{"name":"Dos Palos Y","geoid":"0619654","kind":"place","focus_score":0,"dem_pct_2022_asm":null,"turnout_pct_2022":0.0,"has_election_data":false},"geometry":{"type":"Polygon","coordinates":[[[-120.62575,37.05432],[-120.62849,37.05282],[-120.62729,37.04944],[-120.62489,37.0487],[-120.62646,37.04776],[-120.62653,37.03807],[-120.62868,37.03981],[-120.63375,37.03934],[-120.6307,37.03783],[-120.63058,37.03292],[-120.63257,37.03355],[-120.63556,37.03612],[-120.63556,37.03216],[-120.6375,37.03645],[-120.64056,37.03842],[-120.64053,37.03986],[-120.64523,37.0431],[-120.64862,37.04352],[-120.65027,37.04519],[-120.65622,37.04921],[-120.65717,37.05175],[-120.65932,37.05403],[-120.62575,37.05432]]]}},{"type":"Feature","properties":{"name":"Cressey","geoid":"0617078","kind":"place","focus_score":0,"dem_pct_2022_asm":null,"turnout_pct_2022":0.0,"has_election_data":false},"geometry":{"type":"Polygon","coordinates":[[[-120.66962,37.42603],[-120.66713,37.42484],[-120.66479,37.42456],[-120.65972,37.42576],[-120.63848,37.42519],[-120.63867,37.41838],[-120.64204,37.41837],[-120.64251,37.41787],[-120.64448,37.41807],[-120.64721,37.4169],[-120.65017,37.41731],[-120.65247,37.41668],[-120.65164,37.41465],[-120.65579,37.41213],[-120.65592,37.41199],[-120.65788,37.41195],[-120.66047,37.41342],[-120.66532,37.4113],[-120.66773,37.41119],[-120.67908,37.41125],[-120.67906,37.41311],[-120.67329,37.41282],[-120.67329,37.41361],[-120.67116,37.41441],[-120.66993,37.41578],[-120.67077,37.4187],[-120.66904,37.41917],[-120.67166,37.42184],[-120.67232,37.42324],[-120.67244,37.42345],[-120.67346,37.42613],[-120.66962,37.42603]]]}},{"type":"Feature","properties":{"name":"Dos Palos","geoid":"0619612","kind":"city","focus_score":55,"dem_pct_2022_asm":25.7,"turnout_pct_2022":63.3,"has_election_data":true},"geometry":{"type":"Polygon","coordinates":[[[-120.65416,36.98685],[-120.65375,36.98399],[-120.64889,36.98395],[-120.6489,36.98202],[-120.64471,36.98188],[-120.6447,36.98337],[-120.6447,36.98612],[-120.64469,36.98913],[-120.64085,36.98911],[-120.64088,36.99072],[-120.63111,36.99085],[-120.63113,36.99632],[-120.62731,36.99629],[-120.62728,36.99194],[-120.62659,36.99196],[-120.62279,36.99198],[-120.62223,36.98991],[-120.61759,36.98993],[-120.61759,36.98734],[-120.6216,36.98736],[-120.62132,36.98695],[-120.61759,36.98693],[-120.61754,36.98356],[-120.61992,36.98172],[-120.62226,36.97984],[-120.6265,36.97982],[-120.62661,36.97826],[-120.62661,36.97818],[-120.63093,36.97818],[-120.63095,36.97463],[-120.63467,36.97462],[-120.63467,36.97575],[-120.63545,36.97573],[-120.63544,36.9778],[-120.63317,36.97821],[-120.63297,36.98032],[-120.63558,36.98175],[-120.64471,36.98178],[-120.64495,36.98177],[-120.65376,36.98182],[-120.65759,36.98185],[-120.66264,36.98619],[-120.65416,36.98685]]]}},{"type":"Feature","properties":{"name":"San Joaquin","geoid":"0667126","kind":"city","focus_score":34,"dem_pct_2022_asm":81.2,"turnout_pct_2022":26.8,"has_election_data":true},"geometry":{"type":"MultiPolygon","coordinates":[[[[-120.19745,36.60311],[-120.19746,36.61345],[-120.19744,36.61432],[-120.17897,36.61452],[-120.17869,36.61421],[-120.17865,36.60349],[-120.17865,36.60316],[-120.18272,36.60316],[-120.18082,36.60152],[-120.17337,36.59629],[-120.18327,36.59604],[-120.1833,36.59902],[-120.18804,36.59898],[-120.18805,36.6013],[-120.19075,36.6013],[-120.19074,36.60324],[-120.1972,36.60311],[-120.19724,36.59942],[-120.20012,36.59931],[-120.20014,36.60298],[-120.19745,36.60311]]],[[[-120.21442,36.59528],[-120.21171,36.58897],[-120.21539,36.59208],[-120.21919,36.6025],[-120.21689,36.6025],[-120.21442,36.59528]]]]}},{"type":"Feature","properties":{"name":"Le Grand","geoid":"0641040","kind":"place","focus_score":0,"dem_pct_2022_asm":null,"turnout_pct_2022":0.0,"has_election_data":false},"geometry":{"type":"Polygon","coordinates":[[[-120.25515,37.23589],[-120.25282,37.23405],[-120.25272,37.23595],[-120.24364,37.23588],[-120.24373,37.22111],[-120.24831,37.22104],[-120.25101,37.22109],[-120.25279,37.22103],[-120.25401,37.22109],[-120.26186,37.22096],[-120.26185,37.22841],[-120.26633,37.2284],[-120.26618,37.23576],[-120.25515,37.23589]]]}},{"type":"Feature","properties":{"name":"Raisin City","geoid":"0659290","kind":"place","focus_score":0,"dem_pct_2022_asm":null,"turnout_pct_2022":0.0,"has_election_data":false},"geometry":{"type":"Polygon","coordinates":[[[-119.91691,36.61414],[-119.90788,36.60653],[-119.9079,36.60832],[-119.90337,36.60835],[-119.90347,36.6047],[-119.8989,36.60473],[-119.89895,36.59747],[-119.91695,36.59733],[-119.91691,36.60458],[-119.91691,36.61414]]]}},{"type":"Feature","properties":{"name":"Three Rocks","geoid":"0678652","kind":"place","focus_score":0,"dem_pct_2022_asm":null,"turnout_pct_2022":0.0,"has_election_data":false},"geometry":{"type":"Polygon","coordinates":[[[-120.38904,36.5161],[-120.38908,36.49422],[-120.39819,36.49429],[-120.39798,36.5161],[-120.38904,36.5161]]]}},{"type":"Feature","properties":{"name":"University of California-Merced","geoid":"0681312","kind":"place","focus_score":0,"dem_pct_2022_asm":null,"turnout_pct_2022":0.0,"has_election_data":false},"geometry":{"type":"Polygon","coordinates":[[[-120.42862,37.36483],[-120.42689,37.36642],[-120.42619,37.36665],[-120.42379,37.36839],[-120.41474,37.37499],[-120.40984,37.37344],[-120.40986,37.3725],[-120.40866,37.37068],[-120.40927,37.36959],[-120.41451,37.36743],[-120.41586,37.36603],[-120.4147,37.36435],[-120.41084,37.36358],[-120.41064,37.36125],[-120.41485,37.36123],[-120.42088,37.36123],[-120.43226,37.36128],[-120.43219,37.36407],[-120.42862,37.36483]]]}},{"type":"Feature","properties":{"name":"Biola","geoid":"0606728","kind":"place","focus_score":31,"dem_pct_2022_asm":86.1,"turnout_pct_2022":39.0,"has_election_data":true},"geometry":{"type":"Polygon","coordinates":[[[-120.02829,36.79933],[-120.02666,36.80027],[-120.0246,36.80054],[-120.02461,36.80106],[-120.02467,36.80771],[-120.02135,36.80771],[-120.01658,36.80771],[-120.01457,36.80773],[-120.01455,36.80589],[-120.01457,36.80065],[-120.01557,36.79975],[-120.01552,36.79323],[-120.02455,36.79323],[-120.02879,36.79323],[-120.0291,36.79324],[-120.02913,36.79771],[-120.02829,36.79933]]]}},{"type":"Feature","properties":{"name":"Tranquillity","geoid":"0680266","kind":"place","focus_score":79,"dem_pct_2022_asm":47.7,"turnout_pct_2022":40.7,"has_election_data":true},"geometry":{"type":"Polygon","coordinates":[[[-120.24951,36.65405],[-120.24897,36.65386],[-120.25047,36.6525],[-120.24686,36.64999],[-120.24329,36.64556],[-120.24014,36.64335],[-120.24126,36.64279],[-120.25885,36.64287],[-120.25686,36.6465],[-120.26106,36.64653],[-120.26102,36.65402],[-120.24951,36.65405]]]}},{"type":"Feature","properties":{"name":"Parkwood","geoid":"0655842","kind":"place","focus_score":0,"dem_pct_2022_asm":null,"turnout_pct_2022":0.0,"has_election_data":false},"geometry":{"type":"Polygon","coordinates":[[[-120.04484,36.92378],[-120.05604,36.92385],[-120.05605,36.92808],[-120.05604,36.93103],[-120.05601,36.93835],[-120.04817,36.93823],[-120.04732,36.92895],[-120.04724,36.92889],[-120.04492,36.92926],[-120.03991,36.92775],[-120.04484,36.92378]]]}},{"type":"Feature","properties":{"name":"Gustine","geoid":"0631568","kind":"city","focus_score":0,"dem_pct_2022_asm":null,"turnout_pct_2022":0.0,"has_election_data":false},"geometry":{"type":"MultiPolygon","coordinates":[[[[-120.96377,37.26044],[-120.96188,37.26306],[-120.96192,37.2605],[-120.96376,37.26043],[-120.96373,37.25846],[-120.9608,37.25823],[-120.96084,37.24911],[-120.96304,37.24906],[-120.96314,37.25136],[-120.96738,37.25124],[-120.96722,37.25914],[-120.96377,37.26044]]],[[[-120.9736,37.25416],[-120.97357,37.25286],[-120.97832,37.25287],[-120.97835,37.2542],[-120.9736,37.25416]]],[[[-120.98517,37.25237],[-120.9851,37.24916],[-120.98986,37.24918],[-120.99358,37.2492],[-120.98517,37.25237]]],[[[-121.00052,37.24658],[-121.00034,37.24578],[-121.00266,37.24578],[-121.00052,37.24658]]]]}},{"type":"Feature","properties":{"name":"Stevinson","geoid":"0674144","kind":"place","focus_score":0,"dem_pct_2022_asm":null,"turnout_pct_2022":0.0,"has_election_data":false},"geometry":{"type":"Polygon","coordinates":[[[-120.84203,37.32591],[-120.84218,37.31309],[-120.84639,37.31312],[-120.84203,37.32591]]]}},{"type":"Feature","properties":{"name":"La Vina","geoid":"0640872","kind":"place","focus_score":0,"dem_pct_2022_asm":null,"turnout_pct_2022":0.0,"has_election_data":false},"geometry":{"type":"Polygon","coordinates":[[[-120.10951,36.8809],[-120.11038,36.88026],[-120.11037,36.87843],[-120.11943,36.8785],[-120.11917,36.88126],[-120.10951,36.8809]]]}},{"type":"Feature","properties":{"name":"Bear Creek","geoid":"0604632","kind":"place","focus_score":0,"dem_pct_2022_asm":null,"turnout_pct_2022":0.0,"has_election_data":false},"geometry":{"type":"Polygon","coordinates":[[[-120.4176,37.297],[-120.41755,37.29888],[-120.41526,37.29888],[-120.41532,37.29515],[-120.42104,37.29509],[-120.42098,37.297],[-120.4176,37.297]]]}}],"outline":{"type":"Polygon","coordinates":[[[-121.22062,37.12463],[-121.18018,37.17242],[-121.08483,37.24895],[-121.01262,37.24202],[-120.96377,37.26044],[-120.93708,37.29736],[-120.92549,37.29025],[-120.91332,37.2894],[-120.89916,37.29542],[-120.87542,37.29137],[-120.85134,37.29859],[-120.82308,37.38156],[-120.80474,37.39177],[-120.78987,37.44421],[-120.70148,37.42689],[-120.63632,37.42513],[-120.61281,37.40392],[-120.48392,37.41614],[-120.45272,37.4113],[-120.39744,37.41735],[-120.35371,37.43138],[-120.31989,37.45013],[-120.2845,37.46281],[-120.27839,37.41961],[-120.22602,37.35021],[-120.18393,37.27172],[-120.0563,37.18662],[-120.10305,37.16796],[-120.17534,37.16532],[-120.25225,37.15709],[-120.27138,37.15306],[-120.28988,37.15262],[-120.29824,37.14757],[-120.30338,37.14222],[-120.28481,37.12236],[-120.25118,37.13309],[-120.22035,37.10359],[-120.16214,37.08361],[-120.15486,37.03945],[-120.12184,37.01331],[-120.10463,37.02404],[-120.07437,37.02419],[-120.05623,37.00994],[-120.03934,36.98082],[-120.03276,36.9707],[-120.01206,36.95719],[-120.0097,36.94853],[-120.00465,36.94076],[-120.03192,36.93418],[-120.04659,36.92237],[-120.05598,36.87413],[-120.02568,36.81535],[-119.99124,36.83217],[-119.93251,36.84304],[-119.90223,36.84178],[-119.88848,36.82203],[-119.86466,36.82993],[-119.84722,36.82272],[-119.84248,36.81418],[-119.84433,36.79983],[-119.83595,36.77375],[-119.85691,36.77799],[-119.91629,36.77456],[-119.93437,36.68987],[-119.84457,36.63412],[-119.82681,36.54675],[-119.86114,36.48907],[-120.00326,36.48627],[-120.02395,36.46212],[-120.01326,36.42994],[-119.95965,36.40098],[-119.95894,36.30633],[-119.96794,36.17494],[-120.08839,36.08222],[-120.12818,36.05172],[-120.19596,35.99997],[-120.328,35.9133],[-120.35569,35.94806],[-120.40634,35.97397],[-120.44909,35.98617],[-120.48046,36.00593],[-120.50036,36.02202],[-120.51954,36.02505],[-120.52882,36.03465],[-120.54882,36.0474],[-120.58157,36.06317],[-120.59034,36.08927],[-120.6268,36.09824],[-120.65545,36.1307],[-120.67202,36.16291],[-120.65116,36.17501],[-120.635,36.19808],[-120.65117,36.22872],[-120.67297,36.25768],[-120.68274,36.29445],[-120.6384,36.31876],[-120.61289,36.32334],[-120.5971,36.45251],[-120.75141,36.60647],[-120.93114,36.74999],[-121.14261,36.83907],[-121.15312,36.86454],[-121.17455,36.88622],[-121.20651,36.91169],[-121.23291,36.93267],[-121.22935,36.96765],[-121.23746,37.00887],[-121.24419,37.03197],[-121.21163,37.05596],[-121.23018,37.08237],[-121.23015,37.10238],[-121.22062,37.12463]]]}}