{"type":"FeatureCollection","district_id":"ad-36","district_code":"AD-36","source":{"places":"U.S. Census Bureau cartographic places (cb_2020_06_place_500k)","election":"UC Berkeley Statewide Database 2022 General (g22) SOV by SR precinct","city_join":"https://statewidedatabase.org/pub/data/G22/state/state_g22_srprec_to_city.csv","assembly_boundary":"ca-assembly-crc-2020.geojson","built_at":"2026-10-07","score_formula":"Illustrative focus (0\u2013100) = 70% competitiveness from 2022 Assembly two-party margin + 30% turnout (TOTVOTE/TOTREG) in overlapping SR precincts, aggregated to place via SWDB SRPREC\u2192city weights. Not a field targeting model."},"features":[{"type":"Feature","properties":{"name":"Sage","geoid":"0664056","kind":"place","focus_score":0,"dem_pct_2022_asm":null,"turnout_pct_2022":0.0,"has_election_data":false},"geometry":{"type":"Polygon","coordinates":[[[-116.93765,33.51408],[-116.94983,33.55803],[-116.94812,33.5654],[-116.96088,33.57216],[-116.9655,33.57255],[-116.96736,33.5731],[-116.96861,33.58389],[-116.98054,33.58486],[-116.98328,33.59765],[-116.97466,33.60587],[-116.97315,33.61237],[-116.97132,33.62123],[-116.97873,33.62365],[-116.98428,33.62396],[-116.98449,33.63183],[-116.98603,33.63441],[-116.98735,33.63667],[-116.98337,33.63986],[-116.98002,33.64213],[-116.97447,33.6458],[-116.97423,33.65286],[-116.97971,33.66394],[-116.98452,33.67117],[-116.97696,33.68311],[-116.97124,33.68581],[-116.95387,33.69273],[-116.95405,33.70239],[-116.9418,33.70417],[-116.93183,33.70151],[-116.92914,33.67239],[-116.92692,33.67022],[-116.91798,33.66676],[-116.90959,33.66352],[-116.90536,33.66143],[-116.90317,33.65796],[-116.90095,33.64907],[-116.89458,33.64327],[-116.89849,33.63645],[-116.89607,33.6315],[-116.88722,33.63247],[-116.88155,33.63233],[-116.87159,33.63389],[-116.86836,33.62883],[-116.85842,33.62178],[-116.82714,33.59825],[-116.82605,33.58799],[-116.82449,33.58311],[-116.82555,33.57684],[-116.83586,33.56179],[-116.84468,33.55848],[-116.85432,33.55715],[-116.8553,33.55133],[-116.85739,33.54266],[-116.85866,33.5403],[-116.86271,33.53633],[-116.87075,33.52322],[-116.8763,33.52403],[-116.88232,33.52443],[-116.88602,33.5192],[-116.88845,33.513],[-116.90999,33.51318],[-116.91732,33.51377],[-116.93386,33.51375],[-116.93765,33.51408]]]}},{"type":"Feature","properties":{"name":"Indio","geoid":"0636448","kind":"city","focus_score":74,"dem_pct_2022_asm":57.0,"turnout_pct_2022":46.2,"has_election_data":true},"geometry":{"type":"Polygon","coordinates":[[[-116.26536,33.71151],[-116.26539,33.71202],[-116.26577,33.7147],[-116.26501,33.74378],[-116.27163,33.74837],[-116.2864,33.76092],[-116.28631,33.77292],[-116.28327,33.77728],[-116.28331,33.79543],[-116.28558,33.79837],[-116.30114,33.79833],[-116.30125,33.81203],[-116.29218,33.81654],[-116.28377,33.81289],[-116.26578,33.80203],[-116.26591,33.77784],[-116.26044,33.77758],[-116.25231,33.77458],[-116.24877,33.77039],[-116.23488,33.76183],[-116.2298,33.76176],[-116.21157,33.75846],[-116.20353,33.75487],[-116.19936,33.75117],[-116.19447,33.74607],[-116.18628,33.74707],[-116.18154,33.74721],[-116.19628,33.7732],[-116.17744,33.78048],[-116.16418,33.74708],[-116.16418,33.73509],[-116.16418,33.72647],[-116.16974,33.72865],[-116.18165,33.72955],[-116.19472,33.72203],[-116.19467,33.71885],[-116.19472,33.71504],[-116.19473,33.70768],[-116.19406,33.70585],[-116.19023,33.70049],[-116.18613,33.7005],[-116.18598,33.70408],[-116.18151,33.70409],[-116.18614,33.70037],[-116.19022,33.70036],[-116.19467,33.70274],[-116.19905,33.70401],[-116.19925,33.7004],[-116.20776,33.70038],[-116.21647,33.69319],[-116.21217,33.68549],[-116.21653,33.68551],[-116.21644,33.67101],[-116.23389,33.67104],[-116.26536,33.71151]],[[-116.19675,33.70585],[-116.19902,33.70846],[-116.19905,33.70776],[-116.19905,33.70585],[-116.19675,33.70585]]]}},{"type":"Feature","properties":{"name":"Desert Center","geoid":"0618982","kind":"place","focus_score":40,"dem_pct_2022_asm":18.4,"turnout_pct_2022":48.7,"has_election_data":true},"geometry":{"type":"Polygon","coordinates":[[[-115.44342,33.7233],[-115.44339,33.72333],[-115.44318,33.7234],[-115.43775,33.72714],[-115.43388,33.72769],[-115.43259,33.72871],[-115.42081,33.72874],[-115.41661,33.75156],[-115.40528,33.7635],[-115.40186,33.76472],[-115.39662,33.76736],[-115.39664,33.7726],[-115.36148,33.77258],[-115.3272,33.77787],[-115.32489,33.77794],[-115.31888,33.77712],[-115.31664,33.77712],[-115.31646,33.77286],[-115.30914,33.77282],[-115.30918,33.71491],[-115.30739,33.71491],[-115.30868,33.71368],[-115.30839,33.70947],[-115.30603,33.70513],[-115.30758,33.7015],[-115.30902,33.70178],[-115.3769,33.71056],[-115.37944,33.71081],[-115.41451,33.71053],[-115.41707,33.71021],[-115.44867,33.70312],[-115.45197,33.70293],[-115.4517,33.70507],[-115.4514,33.71984],[-115.44342,33.7233]]]}},{"type":"Feature","properties":{"name":"Coachella","geoid":"0614260","kind":"city","focus_score":37,"dem_pct_2022_asm":79.8,"turnout_pct_2022":29.8,"has_election_data":true},"geometry":{"type":"MultiPolygon","coordinates":[[[[-116.20776,33.70038],[-116.19925,33.7004],[-116.19469,33.70036],[-116.18614,33.70024],[-116.18155,33.7004],[-116.18152,33.70788],[-116.18158,33.71496],[-116.18156,33.72201],[-116.17232,33.7294],[-116.16742,33.72733],[-116.16418,33.72679],[-116.1574,33.72081],[-116.15418,33.71493],[-116.12947,33.72981],[-116.08655,33.73006],[-116.07825,33.70074],[-116.09443,33.69869],[-116.0783,33.68572],[-116.10834,33.67144],[-116.12063,33.67117],[-116.14515,33.6713],[-116.14642,33.66775],[-116.13798,33.66765],[-116.13352,33.66402],[-116.12932,33.66026],[-116.11636,33.65669],[-116.11184,33.65314],[-116.12489,33.6494],[-116.12704,33.64572],[-116.13056,33.64211],[-116.1352,33.6421],[-116.13802,33.64208],[-116.14115,33.6457],[-116.14619,33.64885],[-116.15107,33.65373],[-116.15546,33.65669],[-116.15981,33.65304],[-116.16422,33.65673],[-116.18178,33.65656],[-116.19908,33.66375],[-116.20343,33.66555],[-116.20554,33.66728],[-116.20776,33.66916],[-116.20774,33.67279],[-116.20348,33.68159],[-116.21122,33.68359],[-116.21319,33.6855],[-116.21217,33.69309],[-116.21645,33.70035],[-116.20776,33.70038]]],[[[-116.19897,33.64932],[-116.19863,33.64206],[-116.20336,33.64209],[-116.2033,33.64936],[-116.19897,33.64932]]]]}},{"type":"Feature","properties":{"name":"Needles","geoid":"0650734","kind":"city","focus_score":0,"dem_pct_2022_asm":null,"turnout_pct_2022":0.0,"has_election_data":false},"geometry":{"type":"Polygon","coordinates":[[[-114.62764,34.86301],[-114.56203,34.77856],[-114.56436,34.77842],[-114.59162,34.77865],[-114.59143,34.74939],[-114.60038,34.74938],[-114.64404,34.74927],[-114.64432,34.77755],[-114.64461,34.85231],[-114.64554,34.85323],[-114.64997,34.85503],[-114.6623,34.86292],[-114.66223,34.87114],[-114.6621,34.89496],[-114.64503,34.89501],[-114.64448,34.89955],[-114.64456,34.92433],[-114.63325,34.92433],[-114.63325,34.9235],[-114.63325,34.92344],[-114.63324,34.92123],[-114.63055,34.91185],[-114.63063,34.91082],[-114.63088,34.90726],[-114.63542,34.89519],[-114.63672,34.88911],[-114.63677,34.88571],[-114.63656,34.88432],[-114.6362,34.88186],[-114.63518,34.875],[-114.63513,34.87487],[-114.63438,34.87289],[-114.63068,34.86635],[-114.63031,34.86599],[-114.6298,34.86549],[-114.62766,34.86339],[-114.62764,34.86301]]]}},{"type":"Feature","properties":{"name":"Anza","geoid":"0602294","kind":"place","focus_score":63,"dem_pct_2022_asm":33.3,"turnout_pct_2022":54.3,"has_election_data":true},"geometry":{"type":"Polygon","coordinates":[[[-116.76899,33.57177],[-116.76551,33.56798],[-116.76098,33.56937],[-116.75336,33.57464],[-116.75359,33.57851],[-116.75301,33.58712],[-116.75398,33.58819],[-116.75446,33.59273],[-116.75008,33.59232],[-116.74474,33.59452],[-116.74191,33.5953],[-116.74169,33.60131],[-116.73854,33.60421],[-116.73363,33.60195],[-116.72914,33.59862],[-116.72803,33.59853],[-116.72549,33.59856],[-116.72315,33.59924],[-116.71243,33.60732],[-116.71005,33.61049],[-116.70796,33.61225],[-116.70556,33.61194],[-116.69758,33.60642],[-116.69256,33.60282],[-116.68102,33.59888],[-116.67829,33.59546],[-116.67036,33.58995],[-116.66511,33.58598],[-116.66014,33.58463],[-116.65226,33.58153],[-116.64399,33.57835],[-116.6354,33.56984],[-116.62984,33.56991],[-116.62831,33.56738],[-116.62722,33.56338],[-116.62274,33.5613],[-116.62807,33.55616],[-116.62553,33.55355],[-116.62365,33.5525],[-116.62219,33.55394],[-116.61794,33.55466],[-116.61459,33.5517],[-116.61409,33.54465],[-116.61864,33.54138],[-116.6309,33.54039],[-116.63367,33.54046],[-116.63475,33.54047],[-116.6485,33.54052],[-116.73598,33.54334],[-116.7533,33.56253],[-116.76196,33.5408],[-116.7706,33.54818],[-116.76899,33.57177]]]}},{"type":"Feature","properties":{"name":"Blythe","geoid":"0607218","kind":"city","focus_score":69,"dem_pct_2022_asm":40.6,"turnout_pct_2022":41.2,"has_election_data":true},"geometry":{"type":"MultiPolygon","coordinates":[[[[-114.51828,33.65596],[-114.53058,33.65446],[-114.52955,33.64386],[-114.53427,33.64124],[-114.53931,33.64133],[-114.54689,33.6404],[-114.52431,33.6366],[-114.53031,33.62904],[-114.52908,33.62171],[-114.53955,33.59284],[-114.54042,33.58486],[-114.54383,33.57903],[-114.54522,33.58695],[-114.57033,33.58897],[-114.57915,33.59612],[-114.58793,33.60125],[-114.60326,33.6006],[-114.6075,33.59928],[-114.60979,33.60645],[-114.623,33.6063],[-114.65729,33.60552],[-114.66203,33.6064],[-114.68241,33.60648],[-114.69135,33.60682],[-114.69231,33.60987],[-114.67076,33.61729],[-114.65809,33.62086],[-114.64055,33.61718],[-114.63837,33.61546],[-114.62743,33.61354],[-114.62305,33.60998],[-114.61192,33.61738],[-114.60994,33.61924],[-114.62358,33.63176],[-114.62814,33.63884],[-114.65913,33.6607],[-114.65059,33.67514],[-114.64193,33.68232],[-114.63233,33.68607],[-114.61588,33.68259],[-114.6195,33.65367],[-114.60631,33.64657],[-114.59941,33.63214],[-114.57118,33.63261],[-114.55415,33.64741],[-114.55639,33.65691],[-114.53537,33.66237],[-114.52067,33.66268],[-114.51828,33.65596]]],[[[-114.54659,33.57395],[-114.54684,33.57405],[-114.54681,33.57569],[-114.54527,33.57625],[-114.54659,33.57395]]],[[[-114.8981,33.56946],[-114.8903,33.56949],[-114.89035,33.55499],[-114.89844,33.55495],[-114.9121,33.5544],[-114.91198,33.54768],[-114.91633,33.5477],[-114.91644,33.55495],[-114.93381,33.55492],[-114.93379,33.5658],[-114.93807,33.56581],[-114.93813,33.56939],[-114.8981,33.56946]]]]}},{"type":"Feature","properties":{"name":"Salton City","geoid":"0664294","kind":"place","focus_score":77,"dem_pct_2022_asm":48.9,"turnout_pct_2022":28.9,"has_election_data":true},"geometry":{"type":"Polygon","coordinates":[[[-115.99961,33.33994],[-115.99553,33.34404],[-115.9934,33.34693],[-115.98721,33.35067],[-115.98126,33.35315],[-115.98161,33.35442],[-115.97907,33.35741],[-115.97318,33.35439],[-115.96813,33.35141],[-115.9633,33.346],[-115.95821,33.33983],[-115.95373,33.33803],[-115.95083,33.33452],[-115.94403,33.32925],[-115.94328,33.32799],[-115.93964,33.32413],[-115.93611,33.32154],[-115.93845,33.32329],[-115.9418,33.32256],[-115.9383,33.32194],[-115.94019,33.32094],[-115.93675,33.32003],[-115.93653,33.31405],[-115.93425,33.31198],[-115.93019,33.3102],[-115.92416,33.30624],[-115.91967,33.30328],[-115.92199,33.29833],[-115.92189,33.30121],[-115.92135,33.30129],[-115.91891,33.29999],[-115.91927,33.30277],[-115.91873,33.29886],[-115.92528,33.29511],[-115.91877,33.29794],[-115.91686,33.29537],[-115.91005,33.29515],[-115.90487,33.29462],[-115.91189,33.28999],[-115.92754,33.28098],[-115.93193,33.2782],[-115.93628,33.27524],[-115.93507,33.26976],[-115.93976,33.26693],[-115.94255,33.26498],[-115.9515,33.26183],[-115.94304,33.25042],[-115.93986,33.24081],[-115.94414,33.23596],[-115.96745,33.23784],[-115.9629,33.24037],[-115.9599,33.24204],[-115.95988,33.25003],[-115.96395,33.254],[-115.97214,33.25938],[-115.97646,33.26341],[-115.97968,33.26499],[-115.98307,33.26615],[-115.98851,33.26333],[-115.99344,33.26358],[-115.98208,33.27332],[-115.98047,33.27515],[-115.97983,33.27618],[-115.97994,33.28008],[-115.97936,33.28264],[-115.98902,33.29481],[-115.9932,33.29533],[-115.98237,33.30262],[-115.98393,33.3054],[-115.99953,33.33803],[-115.99961,33.33994]]]}},{"type":"Feature","properties":{"name":"Indio Hills","geoid":"0636452","kind":"place","focus_score":75,"dem_pct_2022_asm":54.3,"turnout_pct_2022":37.6,"has_election_data":true},"geometry":{"type":"Polygon","coordinates":[[[-116.20641,33.84978],[-116.20761,33.84905],[-116.21021,33.84847],[-116.2137,33.84609],[-116.21384,33.82255],[-116.21382,33.80192],[-116.26578,33.80203],[-116.28334,33.80197],[-116.28377,33.81289],[-116.28543,33.86798],[-116.28123,33.86574],[-116.27796,33.86889],[-116.27667,33.87078],[-116.27434,33.87262],[-116.27379,33.87412],[-116.26883,33.87672],[-116.26811,33.87746],[-116.26718,33.87983],[-116.26665,33.88374],[-116.2643,33.88685],[-116.26323,33.88735],[-116.20641,33.84978]]]}},{"type":"Feature","properties":{"name":"Oasis","geoid":"0653224","kind":"place","focus_score":0,"dem_pct_2022_asm":null,"turnout_pct_2022":0.0,"has_election_data":false},"geometry":{"type":"Polygon","coordinates":[[[-116.18177,33.56907],[-116.18083,33.56908],[-116.16419,33.5692],[-116.15442,33.56922],[-116.14699,33.56926],[-116.12977,33.56923],[-116.11251,33.56934],[-116.1128,33.56202],[-116.11273,33.55472],[-116.10824,33.55473],[-116.09824,33.54904],[-116.09563,33.54763],[-116.09554,33.54003],[-116.09992,33.54002],[-116.09994,33.52532],[-116.09995,33.52082],[-116.09925,33.51631],[-116.09856,33.51459],[-116.09525,33.50947],[-116.09525,33.50882],[-116.0929,33.50499],[-116.09192,33.50199],[-116.09162,33.49891],[-116.09161,33.48454],[-116.09151,33.46992],[-116.09087,33.47001],[-116.07882,33.46988],[-116.07874,33.45527],[-116.08975,33.45541],[-116.10287,33.46815],[-116.10418,33.46962],[-116.11126,33.47873],[-116.11257,33.48169],[-116.1126,33.48438],[-116.11263,33.49002],[-116.11317,33.4919],[-116.11931,33.49889],[-116.13008,33.49882],[-116.13005,33.51065],[-116.14738,33.51069],[-116.14759,33.52533],[-116.16483,33.52535],[-116.16498,33.55481],[-116.1653,33.55454],[-116.18222,33.55444],[-116.18155,33.56728],[-116.18177,33.56907]]]}},{"type":"Feature","properties":{"name":"Sky Valley","geoid":"0672156","kind":"place","focus_score":0,"dem_pct_2022_asm":null,"turnout_pct_2022":0.0,"has_election_data":false},"geometry":{"type":"Polygon","coordinates":[[[-116.35294,33.84733],[-116.35332,33.85951],[-116.37165,33.85965],[-116.38514,33.86854],[-116.3844,33.87015],[-116.38432,33.87015],[-116.38414,33.87071],[-116.38009,33.87949],[-116.38002,33.87944],[-116.37421,33.87884],[-116.37352,33.87976],[-116.37472,33.88161],[-116.37633,33.88281],[-116.37624,33.88488],[-116.37728,33.8856],[-116.37727,33.88562],[-116.37851,33.88682],[-116.37785,33.88834],[-116.37956,33.89088],[-116.3808,33.8912],[-116.38302,33.89383],[-116.38463,33.89388],[-116.38675,33.89477],[-116.38835,33.89631],[-116.38835,33.89658],[-116.38864,33.89659],[-116.42304,33.92978],[-116.37557,33.9175],[-116.37752,33.91689],[-116.37753,33.91362],[-116.37536,33.91183],[-116.37417,33.91119],[-116.34895,33.90482],[-116.34455,33.90756],[-116.34017,33.90835],[-116.30372,33.89892],[-116.30375,33.8764],[-116.30376,33.8679],[-116.30679,33.85628],[-116.30859,33.85277],[-116.31074,33.84936],[-116.31034,33.84387],[-116.31209,33.84417],[-116.31217,33.84466],[-116.31311,33.84582],[-116.33426,33.84581],[-116.35058,33.84578],[-116.35294,33.84733]]]}},{"type":"Feature","properties":{"name":"Hemet","geoid":"0633182","kind":"city","focus_score":74,"dem_pct_2022_asm":43.4,"turnout_pct_2022":45.0,"has_election_data":true},"geometry":{"type":"Polygon","coordinates":[[[-117.03092,33.74389],[-116.96429,33.7476],[-116.95858,33.7395],[-116.95856,33.73673],[-116.95809,33.73673],[-116.95663,33.73674],[-116.95587,33.73566],[-116.95585,33.73563],[-116.95583,33.73492],[-116.95847,33.73488],[-116.95852,33.7313],[-116.96072,33.73125],[-116.96083,33.72946],[-116.96285,33.72947],[-116.96285,33.72763],[-116.96068,33.72765],[-116.96068,33.72576],[-116.96067,33.72356],[-116.96305,33.72389],[-116.96716,33.72281],[-116.96698,33.71656],[-116.96696,33.71481],[-116.96297,33.71469],[-116.96298,33.71316],[-116.95966,33.71315],[-116.95963,33.70951],[-116.96291,33.7095],[-116.96286,33.70326],[-116.96286,33.70299],[-116.96173,33.70298],[-116.96046,33.70297],[-116.9542,33.70307],[-116.95405,33.70239],[-116.95402,33.70098],[-116.95417,33.70098],[-116.95387,33.69273],[-116.95574,33.69121],[-116.96249,33.68581],[-116.97124,33.68581],[-116.97124,33.68576],[-116.97686,33.6857],[-116.97696,33.68311],[-116.97469,33.68169],[-116.98426,33.67843],[-116.98452,33.67117],[-116.98856,33.67115],[-116.98863,33.68541],[-116.99068,33.68541],[-116.99087,33.68848],[-116.99363,33.69456],[-116.9971,33.70016],[-116.99897,33.70144],[-117.00032,33.70053],[-117.00104,33.6981],[-117.00176,33.70284],[-117.00121,33.70396],[-117.00238,33.70443],[-117.00167,33.70539],[-117.00292,33.70631],[-117.00373,33.70607],[-117.00474,33.703],[-117.00599,33.70265],[-117.00704,33.70398],[-117.00859,33.70278],[-117.00912,33.70405],[-117.00971,33.70226],[-117.01108,33.70066],[-117.0134,33.70359],[-117.01993,33.70376],[-117.0198,33.70756],[-117.02047,33.70755],[-117.02091,33.70837],[-117.0226,33.70804],[-117.02783,33.70789],[-117.02927,33.70753],[-117.03289,33.70526],[-117.03863,33.70031],[-117.04058,33.69929],[-117.04279,33.69879],[-117.04617,33.6987],[-117.04998,33.69861],[-117.05001,33.7003],[-117.05002,33.70089],[-117.05005,33.70689],[-117.05005,33.70754],[-117.0501,33.71215],[-117.04859,33.71325],[-117.0501,33.71421],[-117.05009,33.71845],[-117.05007,33.72197],[-117.05013,33.72917],[-117.04797,33.72915],[-117.04796,33.73279],[-117.04326,33.73282],[-117.04038,33.74063],[-117.03092,33.74389]]]}},{"type":"Feature","properties":{"name":"Vista Santa Rosa","geoid":"0683085","kind":"place","focus_score":0,"dem_pct_2022_asm":null,"turnout_pct_2022":0.0,"has_election_data":false},"geometry":{"type":"Polygon","coordinates":[[[-116.23389,33.67104],[-116.22005,33.67102],[-116.21644,33.67101],[-116.21647,33.67404],[-116.21653,33.68551],[-116.21319,33.6855],[-116.21318,33.68359],[-116.21122,33.68359],[-116.21211,33.68174],[-116.20348,33.68159],[-116.20336,33.67279],[-116.20774,33.67279],[-116.20774,33.6709],[-116.20776,33.66916],[-116.20554,33.66915],[-116.20554,33.66728],[-116.20342,33.66727],[-116.20343,33.66555],[-116.19907,33.66554],[-116.19908,33.66375],[-116.19928,33.65655],[-116.19897,33.64932],[-116.2033,33.64936],[-116.20336,33.64209],[-116.19863,33.64206],[-116.18595,33.64205],[-116.18119,33.64205],[-116.18124,33.6129],[-116.1986,33.61289],[-116.19844,33.58385],[-116.19837,33.56932],[-116.21575,33.56928],[-116.21596,33.56928],[-116.23299,33.56923],[-116.23302,33.58381],[-116.23313,33.58393],[-116.23353,33.58394],[-116.23336,33.59824],[-116.23338,33.60555],[-116.22902,33.60558],[-116.22904,33.61287],[-116.22905,33.6165],[-116.22472,33.6165],[-116.22469,33.62015],[-116.22902,33.62019],[-116.22913,33.61915],[-116.23337,33.61915],[-116.23334,33.62746],[-116.23346,33.64216],[-116.234,33.65664],[-116.23396,33.66388],[-116.23389,33.67104]]]}},{"type":"Feature","properties":{"name":"Aguanga","geoid":"0600464","kind":"place","focus_score":62,"dem_pct_2022_asm":31.8,"turnout_pct_2022":59.6,"has_election_data":true},"geometry":{"type":"Polygon","coordinates":[[[-116.88757,33.43308],[-116.88764,33.43337],[-116.88735,33.43492],[-116.88425,33.43562],[-116.88332,33.43795],[-116.8786,33.43772],[-116.87865,33.44049],[-116.87937,33.44099],[-116.88252,33.44096],[-116.88404,33.44159],[-116.88729,33.44134],[-116.88978,33.44187],[-116.89678,33.45002],[-116.8966,33.45014],[-116.89646,33.45173],[-116.89809,33.45514],[-116.89284,33.45642],[-116.8933,33.47017],[-116.88335,33.47004],[-116.87931,33.46591],[-116.87741,33.46303],[-116.87615,33.46211],[-116.87429,33.45691],[-116.87239,33.46321],[-116.86725,33.46325],[-116.86664,33.46375],[-116.87032,33.46618],[-116.87421,33.46634],[-116.87393,33.46826],[-116.87523,33.4712],[-116.87534,33.47318],[-116.87373,33.47512],[-116.87489,33.47642],[-116.87195,33.47653],[-116.87145,33.47733],[-116.87001,33.47648],[-116.86806,33.47781],[-116.86609,33.47699],[-116.86237,33.48024],[-116.86068,33.48042],[-116.85888,33.47862],[-116.85883,33.47672],[-116.85746,33.47681],[-116.85652,33.47794],[-116.85426,33.47852],[-116.84868,33.47853],[-116.84721,33.47968],[-116.84339,33.48253],[-116.83527,33.4844],[-116.83514,33.48444],[-116.83438,33.48333],[-116.83475,33.47702],[-116.8321,33.4771],[-116.82951,33.47629],[-116.82846,33.47704],[-116.82695,33.47494],[-116.82545,33.47472],[-116.82345,33.47575],[-116.82239,33.47922],[-116.82018,33.48067],[-116.81842,33.47679],[-116.81693,33.47607],[-116.81594,33.47233],[-116.81951,33.47015],[-116.81878,33.46919],[-116.82033,33.4688],[-116.82088,33.4676],[-116.82235,33.46798],[-116.82292,33.4668],[-116.82528,33.4652],[-116.82684,33.46634],[-116.82851,33.46647],[-116.82931,33.46555],[-116.8289,33.46394],[-116.82654,33.46244],[-116.82524,33.46227],[-116.82523,33.45826],[-116.82332,33.45789],[-116.82325,33.44077],[-116.82508,33.43954],[-116.82306,33.43821],[-116.82125,33.43816],[-116.82199,33.43553],[-116.82156,33.43433],[-116.81794,33.43307],[-116.8185,33.42897],[-116.82055,33.42843],[-116.8216,33.42714],[-116.88757,33.43308]]]}},{"type":"Feature","properties":{"name":"El Centro","geoid":"0621782","kind":"city","focus_score":68,"dem_pct_2022_asm":59.3,"turnout_pct_2022":36.1,"has_election_data":true},"geometry":{"type":"Polygon","coordinates":[[[-115.59499,32.79286],[-115.5862,32.79283],[-115.58609,32.79283],[-115.58579,32.79283],[-115.58592,32.7958],[-115.58574,32.79657],[-115.5787,32.79656],[-115.57868,32.79991],[-115.57864,32.80365],[-115.57864,32.81101],[-115.58647,32.81061],[-115.59116,32.81093],[-115.59116,32.81829],[-115.57868,32.81832],[-115.57803,32.81848],[-115.56996,32.81847],[-115.56138,32.81829],[-115.56091,32.81831],[-115.5561,32.80582],[-115.55534,32.8038],[-115.55279,32.80379],[-115.55162,32.80385],[-115.55162,32.80593],[-115.55036,32.80593],[-115.55032,32.80385],[-115.54907,32.80384],[-115.54847,32.80515],[-115.54847,32.80749],[-115.53983,32.80749],[-115.53983,32.80382],[-115.5357,32.80381],[-115.53567,32.7965],[-115.52028,32.79642],[-115.51831,32.79617],[-115.51818,32.79552],[-115.51812,32.79282],[-115.52227,32.79282],[-115.5259,32.78941],[-115.5266,32.78614],[-115.52658,32.78127],[-115.52648,32.77421],[-115.52638,32.76693],[-115.52626,32.75969],[-115.53494,32.75967],[-115.53516,32.76693],[-115.53648,32.76693],[-115.53644,32.76396],[-115.53835,32.76397],[-115.53906,32.76416],[-115.54029,32.76694],[-115.54042,32.76695],[-115.54361,32.76694],[-115.54446,32.76694],[-115.54486,32.76347],[-115.54354,32.76347],[-115.54332,32.7564],[-115.54784,32.75648],[-115.5478,32.7598],[-115.55197,32.76053],[-115.55208,32.76518],[-115.55212,32.76697],[-115.55212,32.76699],[-115.55431,32.76697],[-115.55643,32.76704],[-115.55684,32.76788],[-115.55859,32.76789],[-115.55864,32.77001],[-115.56103,32.77001],[-115.56095,32.76712],[-115.56094,32.76698],[-115.56088,32.76515],[-115.56082,32.76296],[-115.56061,32.75619],[-115.56471,32.75617],[-115.56444,32.75245],[-115.56894,32.75247],[-115.56908,32.75247],[-115.56952,32.7701],[-115.57816,32.77012],[-115.57799,32.76333],[-115.58627,32.76334],[-115.58625,32.77381],[-115.58625,32.77407],[-115.59501,32.77402],[-115.595,32.78151],[-115.59499,32.79286]]]}},{"type":"Feature","properties":{"name":"North Shore","geoid":"0652302","kind":"place","focus_score":40,"dem_pct_2022_asm":75.8,"turnout_pct_2022":21.6,"has_election_data":true},"geometry":{"type":"Polygon","coordinates":[[[-115.94616,33.55487],[-115.94153,33.55443],[-115.93663,33.55319],[-115.93362,33.55318],[-115.93027,33.55058],[-115.92956,33.54862],[-115.92584,33.54685],[-115.92304,33.54441],[-115.92148,33.5421],[-115.9211,33.54232],[-115.91774,33.53572],[-115.91443,33.53417],[-115.91241,33.53211],[-115.91008,33.52771],[-115.91075,33.52785],[-115.90748,33.52469],[-115.90557,33.52369],[-115.89318,33.52052],[-115.88615,33.51775],[-115.88446,33.51676],[-115.88263,33.51461],[-115.87937,33.51405],[-115.87632,33.51071],[-115.87494,33.51014],[-115.87125,33.50982],[-115.8695,33.5108],[-115.86737,33.51509],[-115.86657,33.51521],[-115.85807,33.5136],[-115.85727,33.51044],[-115.85881,33.50942],[-115.86504,33.50635],[-115.87288,33.50297],[-115.86833,33.49455],[-115.86995,33.49166],[-115.86964,33.48749],[-115.86795,33.48502],[-115.87161,33.48383],[-115.87669,33.48105],[-115.88057,33.47835],[-115.88462,33.47464],[-115.88836,33.47847],[-115.89194,33.48294],[-115.89181,33.48161],[-115.90202,33.49443],[-115.90542,33.49804],[-115.90734,33.49366],[-115.91093,33.49612],[-115.9127,33.49836],[-115.91311,33.49983],[-115.91657,33.50234],[-115.91725,33.50516],[-115.919,33.50706],[-115.92271,33.50934],[-115.92464,33.51014],[-115.93114,33.51167],[-115.93343,33.51287],[-115.93592,33.51532],[-115.93737,33.51772],[-115.938,33.51984],[-115.93885,33.52033],[-115.94336,33.52131],[-115.94916,33.52291],[-115.94917,33.53161],[-115.94924,33.53753],[-115.95624,33.54126],[-115.94616,33.55487]]]}},{"type":"Feature","properties":{"name":"Big River","geoid":"0606635","kind":"place","focus_score":0,"dem_pct_2022_asm":null,"turnout_pct_2022":0.0,"has_election_data":false},"geometry":{"type":"Polygon","coordinates":[[[-114.3387,34.13413],[-114.34805,34.13446],[-114.35303,34.13312],[-114.35637,34.13043],[-114.3604,34.12358],[-114.36045,34.12354],[-114.37445,34.11672],[-114.37923,34.11599],[-114.39056,34.11008],[-114.40135,34.11165],[-114.40594,34.11154],[-114.408,34.111],[-114.41011,34.11044],[-114.41086,34.11155],[-114.41104,34.11258],[-114.41155,34.11329],[-114.41598,34.11524],[-114.41383,34.11739],[-114.4086,34.12112],[-114.40658,34.12404],[-114.40565,34.12633],[-114.40298,34.12949],[-114.38534,34.14682],[-114.38158,34.15067],[-114.37564,34.15623],[-114.37458,34.15769],[-114.37186,34.16027],[-114.36849,34.16412],[-114.35291,34.15739],[-114.35027,34.15671],[-114.33329,34.15782],[-114.32704,34.15966],[-114.31534,34.16151],[-114.31053,34.16319],[-114.30411,34.16376],[-114.30179,34.16472],[-114.30113,34.16346],[-114.30085,34.16164],[-114.30006,34.16048],[-114.29903,34.15968],[-114.30149,34.1569],[-114.3015,34.15689],[-114.30219,34.15611],[-114.30873,34.14871],[-114.3387,34.13413]]]}},{"type":"Feature","properties":{"name":"Thermal","geoid":"0678456","kind":"place","focus_score":44,"dem_pct_2022_asm":74.4,"turnout_pct_2022":26.7,"has_election_data":true},"geometry":{"type":"Polygon","coordinates":[[[-116.16386,33.63913],[-116.16384,33.6421],[-116.16414,33.65304],[-116.15981,33.65304],[-116.1598,33.65671],[-116.15546,33.65669],[-116.15366,33.65669],[-116.15107,33.65373],[-116.14689,33.64885],[-116.14619,33.64885],[-116.14218,33.64885],[-116.14115,33.6457],[-116.1403,33.64437],[-116.13802,33.64208],[-116.13711,33.64209],[-116.1352,33.6421],[-116.13271,33.6421],[-116.13056,33.64211],[-116.12699,33.64211],[-116.12704,33.64572],[-116.12487,33.64571],[-116.12489,33.6494],[-116.11177,33.64939],[-116.10745,33.6494],[-116.10737,33.64218],[-116.10748,33.63492],[-116.10294,33.63499],[-116.10348,33.62768],[-116.10322,33.6204],[-116.10344,33.61314],[-116.11373,33.61306],[-116.11502,33.61311],[-116.10242,33.59859],[-116.12092,33.59858],[-116.12954,33.59857],[-116.14661,33.59852],[-116.14659,33.61288],[-116.14658,33.6279],[-116.14934,33.62762],[-116.15484,33.62762],[-116.15486,33.63413],[-116.16564,33.63412],[-116.16538,33.639],[-116.16386,33.63913]]]}},{"type":"Feature","properties":{"name":"Ocotillo","geoid":"0653378","kind":"place","focus_score":58,"dem_pct_2022_asm":29.9,"turnout_pct_2022":54.5,"has_election_data":true},"geometry":{"type":"Polygon","coordinates":[[[-116.04896,32.74932],[-116.04013,32.75256],[-116.03599,32.75256],[-116.02866,32.75165],[-116.0251,32.75276],[-116.01229,32.75464],[-116.00962,32.7555],[-116.00632,32.75753],[-116.00275,32.7584],[-115.99753,32.75681],[-115.99348,32.75746],[-115.98823,32.75716],[-115.98548,32.75628],[-115.98131,32.75665],[-115.97701,32.7581],[-115.97362,32.75844],[-115.96864,32.75764],[-115.96646,32.75673],[-115.95906,32.75778],[-115.95508,32.75769],[-115.95207,32.75844],[-115.95193,32.75723],[-115.95267,32.75157],[-115.96663,32.74238],[-115.96697,32.741],[-115.96372,32.74156],[-115.96746,32.73924],[-115.96848,32.73777],[-115.98513,32.72658],[-115.98954,32.72492],[-115.99377,32.7254],[-116.00174,32.72858],[-116.00411,32.72913],[-116.00792,32.72896],[-116.01551,32.7274],[-116.02085,32.72823],[-116.01998,32.7295],[-116.0282,32.72793],[-116.03092,32.72844],[-116.03568,32.73049],[-116.03881,32.73421],[-116.0455,32.73863],[-116.05137,32.73877],[-116.04951,32.74358],[-116.04896,32.74932]]]}},{"type":"Feature","properties":{"name":"Calexico","geoid":"0609710","kind":"city","focus_score":38,"dem_pct_2022_asm":79.0,"turnout_pct_2022":28.5,"has_election_data":true},"geometry":{"type":"Polygon","coordinates":[[[-115.53322,32.66211],[-115.53002,32.66396],[-115.52735,32.67055],[-115.52759,32.67148],[-115.52648,32.67148],[-115.52465,32.6715],[-115.52461,32.67444],[-115.52317,32.67923],[-115.52161,32.68268],[-115.52089,32.68363],[-115.51908,32.68487],[-115.51627,32.68578],[-115.50781,32.68601],[-115.508,32.68639],[-115.50819,32.68677],[-115.51108,32.694],[-115.51076,32.69428],[-115.51688,32.70894],[-115.51719,32.70959],[-115.51476,32.70905],[-115.49948,32.70907],[-115.49925,32.70908],[-115.49852,32.70911],[-115.49116,32.70907],[-115.49117,32.70866],[-115.4825,32.7086],[-115.48251,32.7016],[-115.47822,32.70133],[-115.47419,32.70064],[-115.47143,32.69962],[-115.46635,32.69623],[-115.46512,32.69577],[-115.46501,32.69589],[-115.46519,32.69398],[-115.46428,32.69404],[-115.46355,32.69411],[-115.46316,32.69409],[-115.45667,32.69409],[-115.45663,32.69401],[-115.45659,32.69284],[-115.45957,32.69075],[-115.45623,32.68793],[-115.45624,32.68247],[-115.46535,32.68241],[-115.47042,32.68241],[-115.47356,32.6823],[-115.47355,32.6802],[-115.4736,32.66653],[-115.53322,32.66211]]]}},{"type":"Feature","properties":{"name":"French Valley","geoid":"0626067","kind":"place","focus_score":0,"dem_pct_2022_asm":null,"turnout_pct_2022":0.0,"has_election_data":false},"geometry":{"type":"Polygon","coordinates":[[[-117.12077,33.59548],[-117.12038,33.5958],[-117.11845,33.59804],[-117.11853,33.59809],[-117.12064,33.59929],[-117.12111,33.59879],[-117.11966,33.62707],[-117.11886,33.62708],[-117.1091,33.62715],[-117.10452,33.62757],[-117.1012,33.62721],[-117.09343,33.62724],[-117.09239,33.62724],[-117.08694,33.62729],[-117.0836,33.62732],[-117.07749,33.62747],[-117.07753,33.62686],[-117.07777,33.62658],[-117.07855,33.6214],[-117.07812,33.61911],[-117.07649,33.61819],[-117.07558,33.61794],[-117.07404,33.61671],[-117.0753,33.61504],[-117.07649,33.61462],[-117.07741,33.61366],[-117.07926,33.61331],[-117.08006,33.61207],[-117.08028,33.60923],[-117.07866,33.6037],[-117.0802,33.60188],[-117.08366,33.60193],[-117.08364,33.59824],[-117.08372,33.58364],[-117.08371,33.58352],[-117.08526,33.58288],[-117.08617,33.58256],[-117.08662,33.58099],[-117.08916,33.5765],[-117.09952,33.57362],[-117.09953,33.57364],[-117.09963,33.57359],[-117.10274,33.57273],[-117.10278,33.57273],[-117.10287,33.57269],[-117.11256,33.57],[-117.11288,33.57015],[-117.11551,33.57208],[-117.11725,33.57216],[-117.11835,33.57266],[-117.12077,33.59548]]]}},{"type":"Feature","properties":{"name":"Brawley","geoid":"0608058","kind":"city","focus_score":72,"dem_pct_2022_asm":56.8,"turnout_pct_2022":39.2,"has_election_data":true},"geometry":{"type":"MultiPolygon","coordinates":[[[[-115.56871,32.96149],[-115.56801,32.96176],[-115.56729,32.96024],[-115.56338,32.96112],[-115.56159,32.96365],[-115.55725,32.96371],[-115.55719,32.96855],[-115.55717,32.97075],[-115.55536,32.97075],[-115.55228,32.97073],[-115.55228,32.97183],[-115.55498,32.97274],[-115.55558,32.97438],[-115.55407,32.97593],[-115.55457,32.97835],[-115.55483,32.97863],[-115.55422,32.98395],[-115.55221,32.9831],[-115.55147,32.98504],[-115.5494,32.98652],[-115.54896,32.98801],[-115.55034,32.98666],[-115.55343,32.98686],[-115.55248,32.98929],[-115.55171,32.98988],[-115.54862,32.98991],[-115.54496,32.99286],[-115.54366,32.99328],[-115.54364,32.99038],[-115.54216,32.9903],[-115.54062,32.99241],[-115.53886,32.99655],[-115.53507,32.99713],[-115.53507,32.99338],[-115.53068,32.99336],[-115.52642,32.99335],[-115.52643,33.001],[-115.52648,33.0029],[-115.52186,33.00292],[-115.52247,33.00103],[-115.52229,33.00103],[-115.5093,33.00104],[-115.50056,33.00105],[-115.50092,32.98563],[-115.50064,32.97863],[-115.50107,32.97078],[-115.50276,32.97078],[-115.50691,32.96388],[-115.50603,32.96272],[-115.50929,32.95983],[-115.50936,32.96342],[-115.53472,32.96344],[-115.53511,32.96213],[-115.53522,32.95632],[-115.53539,32.95581],[-115.53548,32.95539],[-115.53551,32.95098],[-115.53887,32.95101],[-115.53771,32.95582],[-115.55184,32.95609],[-115.55245,32.95637],[-115.5534,32.95625],[-115.5658,32.95627],[-115.56718,32.95941],[-115.57096,32.95812],[-115.56946,32.95992],[-115.56871,32.96149]]],[[[-115.51814,33.01956],[-115.51619,33.02155],[-115.51331,33.02116],[-115.51371,33.01854],[-115.51814,33.01554],[-115.51818,33.01766],[-115.51814,33.01956]]]]}},{"type":"Feature","properties":{"name":"Lake Riverside","geoid":"0639715","kind":"place","focus_score":0,"dem_pct_2022_asm":null,"turnout_pct_2022":0.0,"has_election_data":false},"geometry":{"type":"Polygon","coordinates":[[[-116.83379,33.52485],[-116.83379,33.52592],[-116.83186,33.5264],[-116.83063,33.52884],[-116.82891,33.5305],[-116.82905,33.53162],[-116.82666,33.53364],[-116.82312,33.53357],[-116.82305,33.53469],[-116.82489,33.53583],[-116.82543,33.53727],[-116.823,33.53733],[-116.8231,33.53879],[-116.82154,33.53775],[-116.81909,33.53706],[-116.81835,33.53836],[-116.81626,33.53818],[-116.81372,33.53868],[-116.81252,33.53836],[-116.80998,33.53952],[-116.81,33.5401],[-116.80292,33.54046],[-116.80058,33.54129],[-116.79834,33.54028],[-116.78799,33.5405],[-116.78793,33.51543],[-116.78784,33.50098],[-116.79454,33.50115],[-116.79574,33.50046],[-116.79719,33.50085],[-116.79805,33.5014],[-116.80088,33.49985],[-116.80883,33.49918],[-116.81334,33.49665],[-116.8198,33.49466],[-116.82381,33.49163],[-116.8273,33.48969],[-116.82852,33.48869],[-116.83084,33.49068],[-116.83199,33.49309],[-116.83366,33.49797],[-116.83389,33.50437],[-116.83282,33.50804],[-116.83262,33.51423],[-116.83202,33.51786],[-116.83373,33.52107],[-116.83414,33.52322],[-116.83496,33.52437],[-116.83379,33.52485]]]}},{"type":"Feature","properties":{"name":"Mecca","geoid":"0646660","kind":"place","focus_score":25,"dem_pct_2022_asm":86.9,"turnout_pct_2022":23.2,"has_election_data":true},"geometry":{"type":"Polygon","coordinates":[[[-116.07945,33.5838],[-116.0789,33.58396],[-116.07814,33.59491],[-116.07787,33.5987],[-116.04546,33.59874],[-116.04546,33.5968],[-116.04339,33.59677],[-116.04403,33.56943],[-116.04426,33.55468],[-116.06327,33.5548],[-116.06351,33.5549],[-116.07907,33.55474],[-116.07897,33.5556],[-116.07896,33.5694],[-116.07919,33.56936],[-116.09235,33.56936],[-116.09265,33.57209],[-116.09517,33.57944],[-116.09516,33.58398],[-116.07945,33.5838]]]}},{"type":"Feature","properties":{"name":"Winchester","geoid":"0685894","kind":"place","focus_score":71,"dem_pct_2022_asm":39.9,"turnout_pct_2022":48.7,"has_election_data":true},"geometry":{"type":"Polygon","coordinates":[[[-117.09689,33.71449],[-117.09627,33.7145],[-117.09354,33.71456],[-117.09359,33.71649],[-117.09096,33.71809],[-117.08064,33.71807],[-117.08076,33.72183],[-117.0764,33.72196],[-117.07639,33.72185],[-117.07312,33.72187],[-117.07315,33.72888],[-117.07246,33.7293],[-117.07148,33.72932],[-117.07143,33.72992],[-117.04038,33.74063],[-117.04326,33.73282],[-117.04796,33.73279],[-117.04797,33.72915],[-117.05013,33.72917],[-117.05007,33.72197],[-117.05009,33.71845],[-117.0501,33.71421],[-117.04859,33.71325],[-117.0501,33.71215],[-117.05005,33.70754],[-117.05005,33.70689],[-117.05002,33.70089],[-117.05001,33.7003],[-117.07614,33.69991],[-117.09367,33.69982],[-117.09363,33.6961],[-117.09296,33.69419],[-117.09624,33.69282],[-117.09768,33.69257],[-117.11953,33.69259],[-117.11964,33.69964],[-117.11965,33.7007],[-117.09689,33.71449]]]}},{"type":"Feature","properties":{"name":"Imperial","geoid":"0636280","kind":"city","focus_score":78,"dem_pct_2022_asm":47.7,"turnout_pct_2022":37.6,"has_election_data":true},"geometry":{"type":"Polygon","coordinates":[[[-115.58839,32.84718],[-115.58837,32.84558],[-115.58718,32.84558],[-115.58717,32.84738],[-115.58547,32.84738],[-115.58547,32.84671],[-115.58618,32.8467],[-115.5862,32.84024],[-115.57878,32.84018],[-115.57876,32.84067],[-115.58026,32.84343],[-115.57851,32.84351],[-115.57864,32.84403],[-115.5825,32.84398],[-115.5828,32.84442],[-115.58284,32.84573],[-115.57998,32.84573],[-115.58041,32.8474],[-115.57865,32.8475],[-115.57865,32.85475],[-115.57682,32.85475],[-115.5768,32.85623],[-115.57138,32.85626],[-115.57138,32.86191],[-115.57842,32.86188],[-115.57846,32.86479],[-115.58627,32.86477],[-115.5863,32.87639],[-115.57865,32.87645],[-115.57865,32.86893],[-115.5703,32.86894],[-115.5703,32.86916],[-115.56446,32.86922],[-115.56395,32.86922],[-115.56395,32.86189],[-115.56131,32.86182],[-115.56144,32.85826],[-115.55937,32.85827],[-115.55941,32.85469],[-115.56136,32.85467],[-115.56135,32.8526],[-115.56136,32.84748],[-115.55279,32.84738],[-115.55288,32.84003],[-115.56147,32.84009],[-115.56354,32.83992],[-115.56375,32.83202],[-115.56435,32.83203],[-115.56455,32.83203],[-115.56454,32.82852],[-115.56445,32.82727],[-115.56422,32.82727],[-115.56149,32.82727],[-115.56148,32.83293],[-115.5528,32.83281],[-115.55281,32.82544],[-115.54448,32.82546],[-115.5357,32.82546],[-115.5357,32.81836],[-115.54438,32.81826],[-115.55282,32.8183],[-115.55282,32.81852],[-115.5584,32.81857],[-115.55843,32.82482],[-115.56156,32.82485],[-115.56159,32.82343],[-115.56167,32.82485],[-115.56664,32.82521],[-115.56653,32.82161],[-115.56262,32.82158],[-115.56153,32.81897],[-115.56138,32.81829],[-115.56996,32.81847],[-115.57803,32.81848],[-115.57868,32.81832],[-115.59116,32.81829],[-115.59443,32.8183],[-115.59473,32.81838],[-115.59473,32.82553],[-115.59484,32.84711],[-115.58839,32.84718]]]}},{"type":"Feature","properties":{"name":"La Quinta","geoid":"0640354","kind":"city","focus_score":0,"dem_pct_2022_asm":null,"turnout_pct_2022":0.0,"has_election_data":false},"geometry":{"type":"MultiPolygon","coordinates":[[[[-116.26765,33.584],[-116.23393,33.66747],[-116.23647,33.67103],[-116.23389,33.67104],[-116.23396,33.66388],[-116.234,33.65664],[-116.23346,33.64216],[-116.23334,33.62746],[-116.23337,33.61915],[-116.22913,33.61915],[-116.22902,33.62019],[-116.22469,33.62015],[-116.22472,33.6165],[-116.22905,33.6165],[-116.22904,33.61287],[-116.22902,33.60558],[-116.23338,33.60555],[-116.23336,33.59824],[-116.24643,33.59821],[-116.25031,33.59825],[-116.25032,33.58368],[-116.25507,33.58396],[-116.26764,33.584],[-116.28494,33.58403],[-116.285,33.59417],[-116.26765,33.584]]],[[[-116.2657,33.71199],[-116.26577,33.7147],[-116.2644,33.7147],[-116.26539,33.71202],[-116.26514,33.7122],[-116.26536,33.71151],[-116.2657,33.71199]]],[[[-116.31651,33.61265],[-116.32146,33.61265],[-116.32146,33.61554],[-116.31651,33.61265]]]]}},{"type":"Feature","properties":{"name":"Mesa Verde","geoid":"0647066","kind":"place","focus_score":0,"dem_pct_2022_asm":null,"turnout_pct_2022":0.0,"has_election_data":false},"geometry":{"type":"Polygon","coordinates":[[[-114.74897,33.59217],[-114.74963,33.60313],[-114.74966,33.60929],[-114.72689,33.60956],[-114.72504,33.60952],[-114.71995,33.60872],[-114.71528,33.60741],[-114.71064,33.60687],[-114.69663,33.60683],[-114.69662,33.60107],[-114.70184,33.59566],[-114.72651,33.59565],[-114.72727,33.59558],[-114.72711,33.58849],[-114.72785,33.58849],[-114.73575,33.58844],[-114.73574,33.57393],[-114.753,33.57402],[-114.75312,33.59213],[-114.74897,33.59217]]]}},{"type":"Feature","properties":{"name":"El Centro Naval Air Facility","geoid":"0621788","kind":"place","focus_score":0,"dem_pct_2022_asm":null,"turnout_pct_2022":0.0,"has_election_data":false},"geometry":{"type":"Polygon","coordinates":[[[-115.69621,32.83074],[-115.69495,32.83257],[-115.68514,32.83284],[-115.68514,32.83651],[-115.68408,32.83648],[-115.68408,32.83824],[-115.68573,32.83821],[-115.68579,32.83983],[-115.68358,32.83977],[-115.65512,32.83982],[-115.65505,32.83287],[-115.64645,32.83287],[-115.64643,32.82554],[-115.65476,32.8256],[-115.65506,32.81834],[-115.65472,32.81834],[-115.64643,32.81813],[-115.64652,32.80693],[-115.65494,32.80688],[-115.65506,32.81108],[-115.6723,32.8112],[-115.68059,32.8112],[-115.68062,32.81471],[-115.68061,32.81828],[-115.6806,32.82538],[-115.69122,32.8254],[-115.69458,32.8255],[-115.69681,32.82561],[-115.69681,32.82754],[-115.69892,32.82844],[-115.69853,32.83036],[-115.69621,32.83074]]]}},{"type":"Feature","properties":{"name":"Calipatria","geoid":"0609878","kind":"city","focus_score":66,"dem_pct_2022_asm":61.1,"turnout_pct_2022":38.3,"has_election_data":true},"geometry":{"type":"MultiPolygon","coordinates":[[[[-115.50806,33.17634],[-115.47594,33.17655],[-115.47622,33.16199],[-115.50852,33.16205],[-115.50841,33.17218],[-115.50806,33.17634]]],[[[-115.51424,33.13299],[-115.508,33.13298],[-115.50191,33.13298],[-115.50192,33.11846],[-115.50616,33.11853],[-115.50616,33.11714],[-115.50814,33.11717],[-115.50822,33.11817],[-115.50823,33.11848],[-115.51026,33.11845],[-115.51064,33.11836],[-115.5106,33.11789],[-115.51061,33.11434],[-115.51478,33.11432],[-115.51476,33.11801],[-115.51468,33.1185],[-115.52668,33.1185],[-115.52771,33.11841],[-115.52771,33.12576],[-115.52771,33.13301],[-115.51424,33.13299]]],[[[-115.54494,33.15457],[-115.54496,33.1475],[-115.5536,33.14753],[-115.55377,33.15461],[-115.54494,33.15457]]]]}},{"type":"Feature","properties":{"name":"Desert Palms","geoid":"0619022","kind":"place","focus_score":0,"dem_pct_2022_asm":null,"turnout_pct_2022":0.0,"has_election_data":false},"geometry":{"type":"Polygon","coordinates":[[[-116.30182,33.77422],[-116.30183,33.77424],[-116.3014,33.77485],[-116.30108,33.77614],[-116.30102,33.78105],[-116.30109,33.79589],[-116.30114,33.79833],[-116.28953,33.79836],[-116.28558,33.79837],[-116.28545,33.79644],[-116.28331,33.79543],[-116.2832,33.78726],[-116.28327,33.77728],[-116.28334,33.77294],[-116.28631,33.77292],[-116.28636,33.76565],[-116.2864,33.76092],[-116.30182,33.77422]]]}},{"type":"Feature","properties":{"name":"East Hemet","geoid":"0620697","kind":"place","focus_score":0,"dem_pct_2022_asm":null,"turnout_pct_2022":0.0,"has_election_data":false},"geometry":{"type":"MultiPolygon","coordinates":[[[[-116.91965,33.73048],[-116.9198,33.73025],[-116.92034,33.73049],[-116.91965,33.73048]]],[[[-116.92242,33.73053],[-116.92224,33.73053],[-116.9226,33.73031],[-116.92242,33.73053]]],[[[-116.92377,33.72891],[-116.92376,33.72598],[-116.92402,33.71565],[-116.92506,33.71542],[-116.92597,33.7124],[-116.9271,33.71211],[-116.92732,33.7117],[-116.92797,33.71172],[-116.93497,33.7116],[-116.93693,33.71307],[-116.92377,33.72891]]],[[[-116.93714,33.71323],[-116.93771,33.71365],[-116.94114,33.71507],[-116.96297,33.71469],[-116.96696,33.71481],[-116.96698,33.71656],[-116.96716,33.72281],[-116.96305,33.72389],[-116.96067,33.72356],[-116.96068,33.72576],[-116.96068,33.72765],[-116.96285,33.72763],[-116.96285,33.72947],[-116.96083,33.72946],[-116.96072,33.73125],[-116.95852,33.7313],[-116.95847,33.73488],[-116.95583,33.73492],[-116.95585,33.73563],[-116.93714,33.71323]]],[[[-116.95663,33.73674],[-116.95809,33.73673],[-116.95856,33.73673],[-116.95858,33.7395],[-116.95663,33.73674]]]]}},{"type":"Feature","properties":{"name":"Ripley","geoid":"0661012","kind":"place","focus_score":0,"dem_pct_2022_asm":null,"turnout_pct_2022":0.0,"has_election_data":false},"geometry":{"type":"Polygon","coordinates":[[[-114.66508,33.51834],[-114.66505,33.53336],[-114.66073,33.53352],[-114.66065,33.53671],[-114.65641,33.5369],[-114.65634,33.52997],[-114.63884,33.52998],[-114.63866,33.51579],[-114.66734,33.51598],[-114.66929,33.51581],[-114.66924,33.51784],[-114.66508,33.51834]]]}},{"type":"Feature","properties":{"name":"Thousand Palms","geoid":"0678596","kind":"place","focus_score":0,"dem_pct_2022_asm":null,"turnout_pct_2022":0.0,"has_election_data":false},"geometry":{"type":"MultiPolygon","coordinates":[[[[-116.31408,33.81003],[-116.30123,33.80385],[-116.30114,33.79833],[-116.30109,33.79589],[-116.30102,33.78105],[-116.30108,33.77614],[-116.3014,33.77485],[-116.30183,33.77424],[-116.31408,33.81003]]],[[[-116.35058,33.84578],[-116.33426,33.84581],[-116.33392,33.8348],[-116.35058,33.84578]]],[[[-116.37165,33.85965],[-116.35332,33.85951],[-116.35294,33.84733],[-116.37165,33.85965]]]]}},{"type":"Feature","properties":{"name":"Seeley","geoid":"0670798","kind":"place","focus_score":63,"dem_pct_2022_asm":61.7,"turnout_pct_2022":31.3,"has_election_data":true},"geometry":{"type":"Polygon","coordinates":[[[-115.69891,32.79099],[-115.69895,32.79342],[-115.69886,32.79614],[-115.69888,32.79658],[-115.69712,32.79655],[-115.69045,32.79652],[-115.69042,32.79658],[-115.67446,32.79655],[-115.67226,32.79657],[-115.67226,32.782],[-115.68093,32.78204],[-115.68034,32.78077],[-115.68077,32.7793],[-115.69034,32.77928],[-115.69051,32.78992],[-115.69427,32.78878],[-115.69562,32.78855],[-115.69992,32.78856],[-115.70142,32.79085],[-115.69891,32.79099]]]}},{"type":"Feature","properties":{"name":"Heber","geoid":"0633084","kind":"place","focus_score":42,"dem_pct_2022_asm":75.1,"turnout_pct_2022":25.3,"has_election_data":true},"geometry":{"type":"Polygon","coordinates":[[[-115.53463,32.74158],[-115.53028,32.7416],[-115.5287,32.73789],[-115.5252,32.73791],[-115.51737,32.73788],[-115.51729,32.73074],[-115.51721,32.72337],[-115.52005,32.72338],[-115.52275,32.72338],[-115.53432,32.72336],[-115.53445,32.73065],[-115.5426,32.73065],[-115.54267,32.73738],[-115.54292,32.73772],[-115.54295,32.74159],[-115.53463,32.74158]]]}},{"type":"Feature","properties":{"name":"Holtville","geoid":"0634246","kind":"city","focus_score":78,"dem_pct_2022_asm":46.0,"turnout_pct_2022":45.3,"has_election_data":true},"geometry":{"type":"Polygon","coordinates":[[[-115.38893,32.81283],[-115.389,32.81472],[-115.38901,32.81833],[-115.38019,32.81835],[-115.3802,32.82015],[-115.37894,32.82015],[-115.37897,32.81835],[-115.37772,32.81836],[-115.3777,32.82015],[-115.37267,32.82017],[-115.37272,32.81838],[-115.37056,32.81837],[-115.37059,32.82017],[-115.36941,32.82018],[-115.36938,32.81836],[-115.36524,32.81834],[-115.36534,32.8202],[-115.36505,32.8202],[-115.36286,32.81997],[-115.36284,32.81477],[-115.37017,32.81459],[-115.37025,32.81112],[-115.36755,32.81112],[-115.36898,32.80921],[-115.37163,32.80982],[-115.37166,32.80914],[-115.37166,32.80391],[-115.3739,32.80258],[-115.37516,32.80318],[-115.37533,32.80559],[-115.38049,32.80551],[-115.38148,32.80558],[-115.38137,32.80684],[-115.38193,32.80725],[-115.38361,32.8075],[-115.38376,32.80769],[-115.38393,32.80889],[-115.38512,32.80889],[-115.38511,32.80816],[-115.38506,32.80727],[-115.38507,32.80718],[-115.38698,32.80721],[-115.38808,32.80778],[-115.38921,32.80732],[-115.3893,32.80778],[-115.38941,32.8098],[-115.38945,32.81132],[-115.39355,32.81015],[-115.39358,32.81278],[-115.38893,32.81283]]]}},{"type":"Feature","properties":{"name":"Desert Shores","geoid":"0619024","kind":"place","focus_score":75,"dem_pct_2022_asm":47.0,"turnout_pct_2022":30.6,"has_election_data":true},"geometry":{"type":"Polygon","coordinates":[[[-116.03655,33.41166],[-116.03268,33.41158],[-116.03281,33.39701],[-116.03381,33.39661],[-116.03867,33.39626],[-116.04322,33.39433],[-116.0435,33.39424],[-116.04762,33.41144],[-116.03655,33.41166]]]}},{"type":"Feature","properties":{"name":"Bluewater","geoid":"0607172","kind":"place","focus_score":0,"dem_pct_2022_asm":null,"turnout_pct_2022":0.0,"has_election_data":false},"geometry":{"type":"Polygon","coordinates":[[[-114.26112,34.17204],[-114.26827,34.17021],[-114.27527,34.17215],[-114.27901,34.17165],[-114.28729,34.17053],[-114.28937,34.16909],[-114.29094,34.16802],[-114.29281,34.16672],[-114.29867,34.16009],[-114.29868,34.16007],[-114.29902,34.15969],[-114.29903,34.15968],[-114.30006,34.16048],[-114.30085,34.16164],[-114.30113,34.16346],[-114.30179,34.16472],[-114.29702,34.16661],[-114.29327,34.17044],[-114.289,34.17284],[-114.28363,34.17334],[-114.28165,34.17409],[-114.27313,34.1754],[-114.27202,34.17585],[-114.26955,34.17819],[-114.26799,34.17882],[-114.26551,34.17936],[-114.26084,34.17813],[-114.25861,34.17845],[-114.25717,34.17891],[-114.26112,34.17204]]]}},{"type":"Feature","properties":{"name":"Bombay Beach","geoid":"0607372","kind":"place","focus_score":69,"dem_pct_2022_asm":42.9,"turnout_pct_2022":28.6,"has_election_data":true},"geometry":{"type":"Polygon","coordinates":[[[-115.73077,33.35925],[-115.72193,33.36523],[-115.72058,33.36373],[-115.72062,33.36067],[-115.71887,33.3542],[-115.72223,33.35303],[-115.72513,33.35125],[-115.72539,33.34826],[-115.7279,33.3486],[-115.72924,33.34723],[-115.73261,33.34807],[-115.7339,33.34784],[-115.73395,33.35764],[-115.73077,33.35925]]]}},{"type":"Feature","properties":{"name":"Westmorland","geoid":"0684606","kind":"city","focus_score":60,"dem_pct_2022_asm":65.5,"turnout_pct_2022":40.2,"has_election_data":true},"geometry":{"type":"MultiPolygon","coordinates":[[[[-115.62999,33.04281],[-115.62592,33.04281],[-115.62592,33.04097],[-115.6216,33.04098],[-115.62159,33.04264],[-115.61944,33.04264],[-115.61941,33.04469],[-115.61278,33.0447],[-115.61279,33.04081],[-115.61728,33.04086],[-115.61729,33.03746],[-115.6129,33.03732],[-115.61293,33.03648],[-115.61499,33.03701],[-115.6173,33.03564],[-115.61731,33.03371],[-115.62068,33.03372],[-115.62161,33.03317],[-115.62156,33.03007],[-115.62485,33.03007],[-115.62488,33.03375],[-115.62588,33.03374],[-115.62588,33.0359],[-115.63015,33.03591],[-115.63009,33.04099],[-115.62999,33.04281]]],[[[-115.62742,33.04822],[-115.62743,33.04467],[-115.63001,33.04468],[-115.63,33.04821],[-115.62742,33.04822]]]]}},{"type":"Feature","properties":{"name":"Palo Verde","geoid":"0655422","kind":"place","focus_score":66,"dem_pct_2022_asm":35.6,"turnout_pct_2022":53.2,"has_election_data":true},"geometry":{"type":"Polygon","coordinates":[[[-114.71774,33.4336],[-114.71901,33.43021],[-114.72581,33.42441],[-114.72593,33.41878],[-114.73177,33.41877],[-114.73226,33.42935],[-114.73349,33.42933],[-114.73376,33.4337],[-114.71774,33.4336]]]}},{"type":"Feature","properties":{"name":"Valle Vista","geoid":"0681708","kind":"place","focus_score":0,"dem_pct_2022_asm":null,"turnout_pct_2022":0.0,"has_election_data":false},"geometry":{"type":"MultiPolygon","coordinates":[[[[-116.87235,33.72958],[-116.84686,33.73677],[-116.84686,33.73677],[-116.84685,33.73676],[-116.84495,33.73224],[-116.84188,33.72925],[-116.84149,33.72877],[-116.86711,33.72915],[-116.86953,33.72958],[-116.87578,33.72955],[-116.87605,33.72965],[-116.87235,33.72958]]],[[[-116.89326,33.72998],[-116.89326,33.72975],[-116.8995,33.72971],[-116.91075,33.72967],[-116.91508,33.72964],[-116.91836,33.72968],[-116.91944,33.73007],[-116.9198,33.73025],[-116.91965,33.73048],[-116.89326,33.72998]]]]}},{"type":"Feature","properties":{"name":"Niland","geoid":"0651392","kind":"place","focus_score":79,"dem_pct_2022_asm":51.4,"turnout_pct_2022":36.7,"has_election_data":true},"geometry":{"type":"Polygon","coordinates":[[[-115.51916,33.2456],[-115.51386,33.24323],[-115.50852,33.24048],[-115.50809,33.2346],[-115.51592,33.23461],[-115.51784,33.23244],[-115.51906,33.23],[-115.51907,33.23461],[-115.51903,33.24209],[-115.51944,33.24354],[-115.52044,33.24503],[-115.51916,33.2456]]]}},{"type":"Feature","properties":{"name":"Salton Sea Beach","geoid":"0664308","kind":"place","focus_score":70,"dem_pct_2022_asm":42.9,"turnout_pct_2022":33.2,"has_election_data":true},"geometry":{"type":"Polygon","coordinates":[[[-116.01506,33.38266],[-116.01303,33.38074],[-116.00875,33.37921],[-116.0099,33.37678],[-116.00797,33.3785],[-116.00694,33.37626],[-116.00664,33.37605],[-116.006,33.37584],[-116.00553,33.37579],[-116.00527,33.37566],[-116.00535,33.37558],[-116.00566,33.37562],[-116.00643,33.37583],[-116.00679,33.37571],[-116.00685,33.3753],[-116.00545,33.37531],[-116.00469,33.37152],[-116.01132,33.3719],[-116.0156,33.37189],[-116.01576,33.38265],[-116.01506,33.38266]]]}},{"type":"Feature","properties":{"name":"Winterhaven","geoid":"0686020","kind":"place","focus_score":58,"dem_pct_2022_asm":64.6,"turnout_pct_2022":29.7,"has_election_data":true},"geometry":{"type":"Polygon","coordinates":[[[-114.63621,32.73384],[-114.64076,32.73461],[-114.64587,32.73597],[-114.64585,32.73625],[-114.64576,32.73783],[-114.63754,32.73781],[-114.63754,32.73901],[-114.63757,32.74184],[-114.63721,32.74191],[-114.63325,32.74189],[-114.63323,32.73804],[-114.63316,32.73407],[-114.63311,32.73392],[-114.63621,32.73384]]]}},{"type":"Feature","properties":{"name":"Green Acres","geoid":"0630944","kind":"place","focus_score":0,"dem_pct_2022_asm":null,"turnout_pct_2022":0.0,"has_election_data":false},"geometry":{"type":"MultiPolygon","coordinates":[[[[-117.07143,33.72992],[-117.07143,33.72992],[-117.07148,33.72932],[-117.07246,33.7293],[-117.07143,33.72992]]],[[[-117.07315,33.72888],[-117.07312,33.72187],[-117.07639,33.72185],[-117.0764,33.72196],[-117.08076,33.72183],[-117.08076,33.72427],[-117.07315,33.72888]]]]}}],"outline":{"type":"Polygon","coordinates":[[[-117.11835,33.57266],[-117.12111,33.5987],[-117.11907,33.63853],[-117.12137,33.69966],[-117.07143,33.72992],[-117.03092,33.74389],[-116.96429,33.7476],[-116.95587,33.73566],[-116.93697,33.71302],[-116.92242,33.73053],[-116.87235,33.72958],[-116.84686,33.73677],[-116.81357,33.73443],[-116.78614,33.71503],[-116.76418,33.70958],[-116.76825,33.70274],[-116.75865,33.69719],[-116.74353,33.70132],[-116.72627,33.70475],[-116.70654,33.68968],[-116.67697,33.67137],[-116.63478,33.64969],[-116.49034,33.62695],[-116.42691,33.63521],[-116.40885,33.62273],[-116.37329,33.64593],[-116.26765,33.584],[-116.23393,33.66747],[-116.2657,33.71199],[-116.26652,33.74377],[-116.30182,33.77422],[-116.31926,33.82515],[-116.38514,33.86854],[-116.37727,33.88562],[-116.42304,33.92978],[-116.26598,33.88916],[-116.04018,33.73988],[-115.89557,33.66877],[-115.71559,33.6612],[-115.53189,33.68497],[-115.44342,33.7233],[-115.39665,33.7726],[-115.25665,33.83703],[-115.23358,34.03391],[-115.12069,34.09315],[-115.11594,34.1937],[-115.12659,34.27825],[-115.087,34.41781],[-115.05627,34.49045],[-115.06749,34.50559],[-115.12985,34.54379],[-115.1175,34.59346],[-115.14214,34.61299],[-115.15963,34.62474],[-115.10503,34.68234],[-114.96734,34.84245],[-115.05687,34.85062],[-115.06284,34.91776],[-114.9821,34.96165],[-114.96084,35.04897],[-114.95416,35.11213],[-114.95169,35.17143],[-114.94936,35.22695],[-114.80458,35.14066],[-114.63438,35.00257],[-114.62764,34.86301],[-114.55481,34.76927],[-114.46266,34.6865],[-114.40472,34.56859],[-114.329,34.4423],[-114.16696,34.33577],[-114.26125,34.17182],[-114.3745,34.1167],[-114.45804,33.99716],[-114.52582,33.95147],[-114.51322,33.8599],[-114.49814,33.72064],[-114.54057,33.58439],[-114.62668,33.43504],[-114.70736,33.37663],[-114.687,33.07097],[-114.50466,33.01451],[-114.46539,32.8817],[-114.61502,32.73434],[-114.65353,32.73344],[-114.7084,32.73664],[-114.95767,32.70276],[-115.45059,32.66823],[-115.65786,32.65288],[-116.10618,32.64021],[-116.10354,32.75757],[-116.10301,32.97295],[-116.083,33.27002],[-116.17489,33.42796],[-116.51819,33.42689],[-116.81877,33.42689],[-116.88757,33.43308],[-116.88976,33.44185],[-116.89688,33.45014],[-116.91305,33.47681],[-116.9051,33.49484],[-116.89707,33.50932],[-116.93765,33.51408],[-116.94597,33.54414],[-116.96736,33.5731],[-116.98731,33.55967],[-117.00853,33.54009],[-117.03153,33.54374],[-117.03107,33.56189],[-117.08361,33.57804],[-117.11256,33.57],[-117.11835,33.57266]]]}}