{"type":"FeatureCollection","district_id":"ad-47","district_code":"AD-47","source":{"places":"U.S. Census Bureau cartographic places (cb_2020_06_place_500k)","election":"UC Berkeley Statewide Database 2022 General (g22) SOV by SR precinct","city_join":"https://statewidedatabase.org/pub/data/G22/state/state_g22_srprec_to_city.csv","assembly_boundary":"ca-assembly-crc-2020.geojson","built_at":"2026-10-07","score_formula":"Illustrative focus (0\u2013100) = 70% competitiveness from 2022 Assembly two-party margin + 30% turnout (TOTVOTE/TOTREG) in overlapping SR precincts, aggregated to place via SWDB SRPREC\u2192city weights. Not a field targeting model."},"features":[{"type":"Feature","properties":{"name":"Palm Springs","geoid":"0655254","kind":"city","focus_score":53,"dem_pct_2022_asm":77.2,"turnout_pct_2022":69.5,"has_election_data":true},"geometry":{"type":"Polygon","coordinates":[[[-116.51224,33.66599],[-116.53035,33.68492],[-116.52993,33.71411],[-116.51305,33.72872],[-116.51295,33.77228],[-116.52993,33.76144],[-116.52993,33.77202],[-116.54755,33.77232],[-116.56315,33.78682],[-116.56289,33.81127],[-116.5629,33.82287],[-116.58025,33.83062],[-116.61525,33.83072],[-116.63204,33.85916],[-116.66679,33.85909],[-116.68485,33.88802],[-116.66721,33.91399],[-116.67153,33.91593],[-116.67353,33.9178],[-116.67817,33.92268],[-116.65344,33.92225],[-116.63592,33.92305],[-116.63245,33.89928],[-116.62595,33.888],[-116.61494,33.87453],[-116.5846,33.8748],[-116.58978,33.87967],[-116.61555,33.90223],[-116.59881,33.9004],[-116.58026,33.92087],[-116.5803,33.92484],[-116.57058,33.92483],[-116.54531,33.91751],[-116.5433,33.90352],[-116.5228,33.89497],[-116.50445,33.87864],[-116.49348,33.86751],[-116.49322,33.84493],[-116.49321,33.83034],[-116.493,33.81946],[-116.47867,33.81591],[-116.47548,33.80135],[-116.47133,33.79592],[-116.46694,33.78869],[-116.4694,33.78692],[-116.47544,33.787],[-116.47719,33.78712],[-116.47989,33.78708],[-116.48312,33.79246],[-116.48424,33.79062],[-116.48642,33.78689],[-116.47987,33.78412],[-116.47554,33.77262],[-116.4773,33.77132],[-116.48159,33.76085],[-116.47792,33.75749],[-116.47563,33.7428],[-116.46005,33.71362],[-116.45071,33.65622],[-116.44505,33.64182],[-116.51224,33.66599]]]}},{"type":"Feature","properties":{"name":"Yucca Valley","geoid":"0687056","kind":"place","focus_score":0,"dem_pct_2022_asm":null,"turnout_pct_2022":0.0,"has_election_data":false},"geometry":{"type":"Polygon","coordinates":[[[-116.42256,34.17639],[-116.4225,34.17637],[-116.42249,34.17157],[-116.42029,34.17157],[-116.42029,34.16616],[-116.40454,34.16609],[-116.4011,34.16591],[-116.38705,34.16582],[-116.38705,34.16438],[-116.38116,34.1649],[-116.37834,34.16441],[-116.37832,34.1658],[-116.36954,34.16582],[-116.36084,34.1658],[-116.35205,34.16586],[-116.35206,34.16402],[-116.35205,34.16034],[-116.35207,34.16016],[-116.35218,34.14949],[-116.36346,34.14954],[-116.36958,34.14956],[-116.36958,34.14951],[-116.36965,34.14227],[-116.36968,34.13955],[-116.36971,34.13491],[-116.36992,34.12055],[-116.37042,34.12055],[-116.37038,34.11516],[-116.37037,34.11244],[-116.37039,34.0942],[-116.37042,34.07605],[-116.38551,34.07613],[-116.38801,34.07607],[-116.42247,34.07623],[-116.44933,34.07627],[-116.45777,34.07596],[-116.4603,34.07594],[-116.47517,34.07586],[-116.47529,34.10913],[-116.4779,34.10895],[-116.48114,34.10741],[-116.48114,34.10912],[-116.48114,34.11169],[-116.49279,34.11166],[-116.49264,34.13531],[-116.45889,34.13534],[-116.45764,34.13534],[-116.45767,34.16427],[-116.44017,34.1643],[-116.43965,34.1831],[-116.42256,34.17639]]]}},{"type":"Feature","properties":{"name":"Joshua Tree","geoid":"0637554","kind":"place","focus_score":0,"dem_pct_2022_asm":null,"turnout_pct_2022":0.0,"has_election_data":false},"geometry":{"type":"Polygon","coordinates":[[[-116.32234,34.16943],[-116.32153,34.16941],[-116.32153,34.16957],[-116.31228,34.17115],[-116.30943,34.17105],[-116.30838,34.17077],[-116.30837,34.17132],[-116.30261,34.17136],[-116.29098,34.17139],[-116.28658,34.17123],[-116.28185,34.17147],[-116.27068,34.17157],[-116.26446,34.15071],[-116.26446,34.13877],[-116.2609,34.13876],[-116.26089,34.13873],[-116.25588,34.13029],[-116.25581,34.12058],[-116.26566,34.12044],[-116.2653,34.11057],[-116.26562,34.10209],[-116.26559,34.09372],[-116.26555,34.07783],[-116.3006,34.07731],[-116.30064,34.07612],[-116.33558,34.07594],[-116.33575,34.09078],[-116.353,34.09074],[-116.353,34.07658],[-116.3547,34.07743],[-116.35618,34.07903],[-116.35737,34.08172],[-116.36154,34.08538],[-116.36356,34.08923],[-116.36608,34.09078],[-116.37039,34.0942],[-116.37037,34.11244],[-116.37038,34.11516],[-116.37042,34.12055],[-116.36992,34.12055],[-116.36971,34.13491],[-116.36968,34.13955],[-116.36965,34.14227],[-116.36958,34.14951],[-116.36958,34.14956],[-116.36346,34.14954],[-116.35218,34.14949],[-116.35207,34.16016],[-116.35205,34.16034],[-116.35206,34.16402],[-116.34349,34.16399],[-116.33501,34.16375],[-116.33495,34.16736],[-116.32496,34.16762],[-116.32492,34.16898],[-116.32234,34.16943]]]}},{"type":"Feature","properties":{"name":"Desert Hot Springs","geoid":"0618996","kind":"city","focus_score":69,"dem_pct_2022_asm":59.1,"turnout_pct_2022":39.7,"has_election_data":true},"geometry":{"type":"Polygon","coordinates":[[[-116.61537,33.98998],[-116.58901,33.99233],[-116.58683,33.99425],[-116.58243,33.99268],[-116.58077,33.99112],[-116.57256,33.99118],[-116.55115,33.99098],[-116.53718,33.99087],[-116.53798,33.98721],[-116.54278,33.98317],[-116.53986,33.97776],[-116.54293,33.97802],[-116.53978,33.97613],[-116.52749,33.97608],[-116.52769,33.98841],[-116.52333,33.99085],[-116.51887,33.98325],[-116.50663,33.98166],[-116.50348,33.98041],[-116.50217,33.98323],[-116.49761,33.9832],[-116.49277,33.97868],[-116.47472,33.97596],[-116.47095,33.96138],[-116.45752,33.96131],[-116.45753,33.9468],[-116.47512,33.94654],[-116.47992,33.93949],[-116.48407,33.93958],[-116.49707,33.93948],[-116.50175,33.93223],[-116.4932,33.925],[-116.49332,33.91768],[-116.50161,33.90328],[-116.50194,33.88278],[-116.50369,33.87975],[-116.50666,33.88123],[-116.5228,33.89497],[-116.5412,33.90325],[-116.54539,33.90319],[-116.54531,33.91751],[-116.53656,33.9249],[-116.52743,33.94057],[-116.53048,33.94676],[-116.52769,33.9615],[-116.5363,33.9541],[-116.54513,33.95413],[-116.586,33.96141],[-116.59045,33.96135],[-116.59756,33.94644],[-116.61556,33.94718],[-116.63302,33.99042],[-116.61537,33.98998]],[[-116.51016,33.96874],[-116.51018,33.96934],[-116.51019,33.97237],[-116.5125,33.97424],[-116.51248,33.97608],[-116.51455,33.97608],[-116.51451,33.96874],[-116.51016,33.96874]]]}},{"type":"Feature","properties":{"name":"Yucaipa","geoid":"0687042","kind":"city","focus_score":58,"dem_pct_2022_asm":27.5,"turnout_pct_2022":65.9,"has_election_data":true},"geometry":{"type":"Polygon","coordinates":[[[-117.12475,34.02792],[-117.12323,34.03389],[-117.11277,34.04109],[-117.1041,34.04109],[-117.09326,34.04826],[-117.06059,34.04847],[-117.05195,34.0557],[-117.0521,34.06394],[-117.05222,34.06978],[-117.05648,34.07323],[-117.05646,34.07701],[-117.04635,34.07715],[-117.03428,34.0775],[-117.00828,34.0774],[-116.99953,34.06277],[-116.98635,34.06049],[-116.99076,34.05601],[-116.9995,34.04894],[-116.9998,34.03351],[-116.99553,34.03347],[-116.99034,34.02966],[-116.98053,34.03285],[-116.98044,34.02584],[-116.99041,34.02242],[-116.98636,34.01868],[-116.98037,34.01188],[-116.97401,34.01011],[-116.96745,34.01192],[-116.96286,34.01916],[-116.96307,34.00481],[-116.97168,34.00479],[-116.98723,34.00471],[-117.00136,34.00431],[-117.02128,34.00459],[-117.03446,34.00488],[-117.04757,34.00432],[-117.05626,34.00408],[-117.06516,34.00394],[-117.10474,34.00402],[-117.10759,34.00764],[-117.10488,34.01038],[-117.10605,34.01152],[-117.10719,34.01448],[-117.10639,34.01757],[-117.10382,34.01936],[-117.10666,34.02244],[-117.11287,34.02379],[-117.11431,34.02411],[-117.12623,34.02815],[-117.12475,34.02792]]]}},{"type":"Feature","properties":{"name":"Palm Desert","geoid":"0655184","kind":"city","focus_score":88,"dem_pct_2022_asm":50.7,"turnout_pct_2022":63.6,"has_election_data":true},"geometry":{"type":"Polygon","coordinates":[[[-116.40812,33.71419],[-116.4065,33.73345],[-116.40538,33.7322],[-116.3956,33.73251],[-116.39146,33.73425],[-116.39119,33.73605],[-116.3912,33.74694],[-116.39116,33.7579],[-116.39079,33.77257],[-116.38816,33.78724],[-116.39686,33.80182],[-116.38818,33.8053],[-116.35513,33.78533],[-116.33418,33.77274],[-116.32084,33.76521],[-116.30199,33.75913],[-116.3034,33.75611],[-116.30381,33.75089],[-116.30385,33.7436],[-116.30387,33.73536],[-116.3126,33.72898],[-116.32966,33.72897],[-116.33005,33.74357],[-116.34754,33.7435],[-116.34753,33.72889],[-116.36068,33.72888],[-116.36066,33.72139],[-116.35635,33.71609],[-116.35636,33.71442],[-116.36098,33.71299],[-116.365,33.71309],[-116.37034,33.7119],[-116.37365,33.71061],[-116.37344,33.70132],[-116.37328,33.69788],[-116.37327,33.69411],[-116.3737,33.68348],[-116.37295,33.67072],[-116.37724,33.67775],[-116.39091,33.68422],[-116.38792,33.68241],[-116.38895,33.67921],[-116.38981,33.6745],[-116.39091,33.6779],[-116.40602,33.67773],[-116.40785,33.67605],[-116.40795,33.67086],[-116.41295,33.6707],[-116.42543,33.68504],[-116.41008,33.68505],[-116.40803,33.68501],[-116.4103,33.69041],[-116.40787,33.69133],[-116.42544,33.69956],[-116.40812,33.71419]]]}},{"type":"Feature","properties":{"name":"La Quinta","geoid":"0640354","kind":"city","focus_score":83,"dem_pct_2022_asm":45.6,"turnout_pct_2022":63.6,"has_election_data":true},"geometry":{"type":"Polygon","coordinates":[[[-116.27156,33.72196],[-116.27156,33.72195],[-116.27752,33.72191],[-116.27748,33.71465],[-116.27108,33.7147],[-116.27056,33.70681],[-116.27055,33.7068],[-116.27065,33.70371],[-116.27156,33.70275],[-116.26874,33.70271],[-116.26873,33.69983],[-116.26873,33.69251],[-116.26871,33.68537],[-116.25133,33.68536],[-116.2513,33.67102],[-116.23647,33.67103],[-116.23393,33.66837],[-116.23392,33.66758],[-116.23396,33.66388],[-116.234,33.65664],[-116.23379,33.6509],[-116.23337,33.60078],[-116.32147,33.64963],[-116.32147,33.67068],[-116.32148,33.67693],[-116.32148,33.68484],[-116.32103,33.68484],[-116.32107,33.69938],[-116.31243,33.69942],[-116.3022,33.70545],[-116.29885,33.70707],[-116.29914,33.71614],[-116.30011,33.71612],[-116.29922,33.7175],[-116.29493,33.71721],[-116.29495,33.71783],[-116.29585,33.71997],[-116.29773,33.72176],[-116.3031,33.7265],[-116.30389,33.72901],[-116.30387,33.73536],[-116.30386,33.73812],[-116.30224,33.73705],[-116.29837,33.73632],[-116.29837,33.73284],[-116.28628,33.73203],[-116.28628,33.72912],[-116.27665,33.7292],[-116.2754,33.72914],[-116.27538,33.73032],[-116.27534,33.73647],[-116.26826,33.73649],[-116.27156,33.72196]]]}},{"type":"Feature","properties":{"name":"Rancho Mirage","geoid":"0659500","kind":"city","focus_score":81,"dem_pct_2022_asm":58.3,"turnout_pct_2022":75.6,"has_election_data":true},"geometry":{"type":"Polygon","coordinates":[[[-116.47659,33.75837],[-116.47552,33.76001],[-116.47517,33.75804],[-116.47607,33.75609],[-116.47431,33.75788],[-116.47316,33.76004],[-116.47203,33.7607],[-116.4728,33.76303],[-116.4686,33.76551],[-116.46513,33.7695],[-116.46323,33.76747],[-116.46369,33.76949],[-116.46243,33.77051],[-116.46175,33.77251],[-116.46025,33.77252],[-116.4583,33.77252],[-116.45384,33.77257],[-116.45393,33.77636],[-116.44757,33.77629],[-116.44735,33.77628],[-116.44515,33.77495],[-116.44309,33.77351],[-116.44307,33.77972],[-116.44083,33.77972],[-116.44083,33.7801],[-116.44077,33.787],[-116.44943,33.78697],[-116.4494,33.79423],[-116.44936,33.79787],[-116.44934,33.80147],[-116.44061,33.8015],[-116.44065,33.81599],[-116.44072,33.82327],[-116.44078,33.82595],[-116.44082,33.82686],[-116.43645,33.82693],[-116.43643,33.82602],[-116.4364,33.82328],[-116.43209,33.82332],[-116.43193,33.81611],[-116.42299,33.81622],[-116.42325,33.82597],[-116.40679,33.81634],[-116.40575,33.81634],[-116.40576,33.81573],[-116.39671,33.81036],[-116.39686,33.80182],[-116.38817,33.80189],[-116.38816,33.78724],[-116.38819,33.77258],[-116.39079,33.77257],[-116.3909,33.76717],[-116.39116,33.7579],[-116.39121,33.75245],[-116.3912,33.74694],[-116.3912,33.74124],[-116.39119,33.73605],[-116.39122,33.73452],[-116.39146,33.73425],[-116.39555,33.73425],[-116.3956,33.73251],[-116.39963,33.73227],[-116.40538,33.7322],[-116.40637,33.73352],[-116.4065,33.73345],[-116.40815,33.73299],[-116.40812,33.71419],[-116.42551,33.71414],[-116.44287,33.71396],[-116.46005,33.71362],[-116.46014,33.71979],[-116.46066,33.74273],[-116.47563,33.7428],[-116.4778,33.74269],[-116.47764,33.74674],[-116.47792,33.75749],[-116.4778,33.75814],[-116.47659,33.75837]],[[-116.42299,33.81622],[-116.42301,33.81259],[-116.41679,33.81258],[-116.41052,33.80771],[-116.41028,33.80172],[-116.40596,33.80175],[-116.40595,33.80575],[-116.4066,33.8083],[-116.41042,33.81448],[-116.41051,33.81633],[-116.42299,33.81622]]]}},{"type":"Feature","properties":{"name":"Morongo Valley","geoid":"0649348","kind":"place","focus_score":0,"dem_pct_2022_asm":null,"turnout_pct_2022":0.0,"has_election_data":false},"geometry":{"type":"Polygon","coordinates":[[[-116.62003,34.07099],[-116.6145,34.07213],[-116.61389,34.09049],[-116.60785,34.09047],[-116.56344,34.09034],[-116.56327,34.11829],[-116.54169,34.11812],[-116.53969,34.11492],[-116.53693,34.11422],[-116.53631,34.11338],[-116.53663,34.11003],[-116.53493,34.10943],[-116.53003,34.10385],[-116.52842,34.10139],[-116.51099,34.10137],[-116.5111,34.09728],[-116.50943,34.09896],[-116.50657,34.09997],[-116.5046,34.10147],[-116.50239,34.10225],[-116.50047,34.09964],[-116.49709,34.10133],[-116.49586,34.09953],[-116.49239,34.09774],[-116.49274,34.09018],[-116.4997,34.09026],[-116.50016,34.07574],[-116.51143,34.07566],[-116.51114,34.06031],[-116.51275,34.06145],[-116.54619,34.06137],[-116.5461,34.04688],[-116.54828,34.04684],[-116.55016,34.04563],[-116.55067,34.04411],[-116.54966,34.04291],[-116.55041,34.04087],[-116.55007,34.03932],[-116.55278,34.03693],[-116.55219,34.03462],[-116.55374,34.03276],[-116.59148,34.03262],[-116.60334,34.03258],[-116.60571,34.0364],[-116.61205,34.04025],[-116.61415,34.04283],[-116.61643,34.04427],[-116.62019,34.04568],[-116.62007,34.04831],[-116.6222,34.04983],[-116.62274,34.05176],[-116.6216,34.05224],[-116.61904,34.05485],[-116.61938,34.05773],[-116.6181,34.05944],[-116.61879,34.06194],[-116.62309,34.0693],[-116.6223,34.07026],[-116.62003,34.07099]]]}},{"type":"Feature","properties":{"name":"Beaumont","geoid":"0604758","kind":"city","focus_score":76,"dem_pct_2022_asm":44.2,"turnout_pct_2022":48.3,"has_election_data":true},"geometry":{"type":"Polygon","coordinates":[[[-116.96337,33.83623],[-116.96289,33.84544],[-116.96249,33.88959],[-116.95797,33.90372],[-116.96226,33.9035],[-116.96404,33.90948],[-116.96837,33.91144],[-116.96872,33.91318],[-116.97281,33.91865],[-116.98146,33.91876],[-116.98592,33.91817],[-116.99019,33.91836],[-116.9947,33.92241],[-116.99886,33.92297],[-117.00396,33.92616],[-117.00682,33.92623],[-117.00819,33.93315],[-117.0096,33.93321],[-117.01673,33.93336],[-117.01675,33.93028],[-117.02111,33.93344],[-117.02321,33.93292],[-117.03416,33.9401],[-117.03417,33.94301],[-117.03417,33.94347],[-117.03866,33.94306],[-117.06453,33.96538],[-117.05499,33.9646],[-117.03636,33.96138],[-117.03425,33.95416],[-117.0196,33.95401],[-117.01797,33.95375],[-117.01575,33.9546],[-117.01522,33.9551],[-117.02511,33.9617],[-117.014,33.96865],[-117.0165,33.96317],[-117.00793,33.96146],[-117.00536,33.95865],[-116.99893,33.95991],[-116.99695,33.96148],[-116.98595,33.96146],[-116.9815,33.96507],[-116.98123,33.96874],[-116.97727,33.96274],[-116.96874,33.96151],[-116.96643,33.95789],[-116.9654,33.95428],[-116.96421,33.96156],[-116.95409,33.95974],[-116.95118,33.95794],[-116.947,33.94726],[-116.94693,33.94008],[-116.94683,33.927],[-116.94673,33.92182],[-116.94654,33.9098],[-116.94645,33.90527],[-116.94063,33.90365],[-116.92923,33.89269],[-116.91164,33.88607],[-116.91168,33.88149],[-116.91499,33.87974],[-116.92468,33.879],[-116.92468,33.86402],[-116.92028,33.85669],[-116.92444,33.85374],[-116.92896,33.85402],[-116.9407,33.8534],[-116.94579,33.84546],[-116.95584,33.83107],[-116.96337,33.83623]]]}},{"type":"Feature","properties":{"name":"Thousand Palms","geoid":"0678596","kind":"place","focus_score":83,"dem_pct_2022_asm":51.0,"turnout_pct_2022":47.6,"has_election_data":true},"geometry":{"type":"Polygon","coordinates":[[[-116.30123,33.80334],[-116.30105,33.78644],[-116.30102,33.78105],[-116.30108,33.77614],[-116.3014,33.77485],[-116.3036,33.77169],[-116.30346,33.76868],[-116.30302,33.76776],[-116.30113,33.76519],[-116.30087,33.76456],[-116.30066,33.76344],[-116.30066,33.76287],[-116.3008,33.76202],[-116.30098,33.76142],[-116.30183,33.75949],[-116.30199,33.75913],[-116.31355,33.76259],[-116.32084,33.76521],[-116.32553,33.76774],[-116.33418,33.77274],[-116.3402,33.77618],[-116.35513,33.78533],[-116.37088,33.79506],[-116.38818,33.8053],[-116.39671,33.81036],[-116.40576,33.81573],[-116.40575,33.81634],[-116.40124,33.81639],[-116.40523,33.8214],[-116.40637,33.82278],[-116.40595,33.82319],[-116.40585,33.82501],[-116.40583,33.8273],[-116.40583,33.83094],[-116.40583,33.8449],[-116.40569,33.84537],[-116.40583,33.84539],[-116.40624,33.85941],[-116.38662,33.85977],[-116.35332,33.85951],[-116.35289,33.84577],[-116.33426,33.84581],[-116.33346,33.81978],[-116.32675,33.81682],[-116.32675,33.81664],[-116.32688,33.81618],[-116.30242,33.80443],[-116.30123,33.80334]]]}},{"type":"Feature","properties":{"name":"Banning","geoid":"0603820","kind":"city","focus_score":77,"dem_pct_2022_asm":44.7,"turnout_pct_2022":49.6,"has_election_data":true},"geometry":{"type":"Polygon","coordinates":[[[-116.94681,33.95788],[-116.94236,33.96171],[-116.92934,33.96899],[-116.925,33.95425],[-116.92189,33.94736],[-116.91181,33.93982],[-116.91065,33.94741],[-116.91012,33.95561],[-116.90523,33.95878],[-116.90506,33.96293],[-116.89765,33.9591],[-116.89988,33.96474],[-116.90046,33.96939],[-116.91014,33.98043],[-116.91378,33.97995],[-116.92509,33.97612],[-116.92952,33.97994],[-116.9316,33.9906],[-116.93364,34.00491],[-116.92813,34.00159],[-116.91596,34.0052],[-116.91486,34.00051],[-116.91426,33.99745],[-116.91615,33.98934],[-116.91186,33.98822],[-116.91075,33.99457],[-116.91053,34.00549],[-116.90748,34.01243],[-116.90295,34.01965],[-116.89456,34.02291],[-116.87686,34.02011],[-116.89442,34.0196],[-116.89877,34.01238],[-116.90094,33.99793],[-116.90315,33.98346],[-116.89448,33.96891],[-116.87975,33.95487],[-116.87676,33.9472],[-116.85962,33.94633],[-116.85773,33.93252],[-116.84204,33.93956],[-116.82447,33.93976],[-116.82447,33.93238],[-116.82454,33.93154],[-116.82783,33.93062],[-116.8423,33.92772],[-116.84196,33.90683],[-116.85283,33.91085],[-116.87668,33.91088],[-116.89412,33.90345],[-116.91161,33.91795],[-116.92926,33.91801],[-116.94628,33.90366],[-116.94654,33.9098],[-116.94679,33.92636],[-116.94693,33.94008],[-116.94681,33.95788]]]}},{"type":"Feature","properties":{"name":"Cathedral City","geoid":"0612048","kind":"city","focus_score":58,"dem_pct_2022_asm":69.0,"turnout_pct_2022":49.5,"has_election_data":true},"geometry":{"type":"Polygon","coordinates":[[[-116.50194,33.88278],[-116.4878,33.88847],[-116.47126,33.88842],[-116.44078,33.8891],[-116.44095,33.85937],[-116.43602,33.8451],[-116.42322,33.83064],[-116.4163,33.83057],[-116.40583,33.8273],[-116.40595,33.82319],[-116.40523,33.8214],[-116.40897,33.82019],[-116.42646,33.83063],[-116.43889,33.83798],[-116.43876,33.83064],[-116.44082,33.82686],[-116.44072,33.82327],[-116.44061,33.8015],[-116.44936,33.79787],[-116.44943,33.78697],[-116.44083,33.7801],[-116.44307,33.77972],[-116.44515,33.77495],[-116.44757,33.77629],[-116.45384,33.77257],[-116.46025,33.77252],[-116.46243,33.77051],[-116.46323,33.76747],[-116.4686,33.76551],[-116.47203,33.7607],[-116.47431,33.75788],[-116.47517,33.75804],[-116.47659,33.75837],[-116.47768,33.7594],[-116.48068,33.76544],[-116.4773,33.77132],[-116.47554,33.77249],[-116.4755,33.78141],[-116.47987,33.78412],[-116.48425,33.78683],[-116.48641,33.78734],[-116.48424,33.79062],[-116.48433,33.79248],[-116.48311,33.79439],[-116.47989,33.78708],[-116.4772,33.78685],[-116.47728,33.79056],[-116.47544,33.787],[-116.4742,33.78685],[-116.4694,33.7871],[-116.46694,33.78869],[-116.47112,33.79592],[-116.47546,33.79591],[-116.47548,33.80135],[-116.47559,33.81591],[-116.48856,33.81588],[-116.493,33.81946],[-116.49296,33.83035],[-116.49317,33.83051],[-116.49322,33.84493],[-116.49345,33.85942],[-116.49357,33.87116],[-116.50327,33.88036],[-116.50194,33.88278]]]}},{"type":"Feature","properties":{"name":"Oak Glen","geoid":"0652715","kind":"place","focus_score":0,"dem_pct_2022_asm":null,"turnout_pct_2022":0.0,"has_election_data":false},"geometry":{"type":"Polygon","coordinates":[[[-116.9995,34.04894],[-116.99076,34.05601],[-116.98635,34.06049],[-116.98244,34.06364],[-116.97341,34.06392],[-116.96896,34.06041],[-116.96405,34.05875],[-116.95883,34.05683],[-116.96118,34.06081],[-116.9634,34.06123],[-116.96525,34.06089],[-116.9667,34.06388],[-116.96882,34.0651],[-116.9652,34.06385],[-116.95804,34.06341],[-116.95813,34.06542],[-116.95669,34.06936],[-116.9595,34.07071],[-116.96334,34.07324],[-116.9646,34.07541],[-116.9674,34.07846],[-116.9638,34.07843],[-116.96061,34.07737],[-116.9595,34.07666],[-116.95844,34.07645],[-116.9525,34.07735],[-116.95053,34.07811],[-116.94936,34.07932],[-116.94634,34.07804],[-116.9436,34.07564],[-116.93617,34.07174],[-116.93097,34.06793],[-116.92801,34.06766],[-116.92177,34.06712],[-116.9155,34.06409],[-116.91039,34.06633],[-116.90714,34.06373],[-116.90575,34.06167],[-116.9053,34.05971],[-116.90351,34.05665],[-116.90604,34.05186],[-116.90509,34.04902],[-116.90988,34.0469],[-116.9037,34.04641],[-116.90742,34.04094],[-116.90576,34.03996],[-116.90835,34.03714],[-116.90614,34.0341],[-116.92951,34.02696],[-116.93063,34.02267],[-116.93389,34.01621],[-116.9439,34.01034],[-116.9542,34.00481],[-116.96307,34.00481],[-116.95895,34.0213],[-116.95766,34.02472],[-116.95981,34.02725],[-116.96569,34.03012],[-116.96725,34.03371],[-116.97215,34.03453],[-116.97294,34.033],[-116.98053,34.03285],[-116.99034,34.02966],[-116.99553,34.03347],[-116.9998,34.03351],[-116.9995,34.04894]]]}},{"type":"Feature","properties":{"name":"Calimesa","geoid":"0609864","kind":"city","focus_score":62,"dem_pct_2022_asm":32.9,"turnout_pct_2022":54.5,"has_election_data":true},"geometry":{"type":"Polygon","coordinates":[[[-117.07327,33.96588],[-117.07337,33.96591],[-117.07618,33.9683],[-117.08086,33.97098],[-117.08333,33.97274],[-117.08407,33.97293],[-117.08483,33.97289],[-117.08677,33.97397],[-117.0867,33.97426],[-117.09028,33.97505],[-117.09507,33.97458],[-117.09509,33.97564],[-117.08645,33.98274],[-117.08638,33.98991],[-117.10448,33.99011],[-117.11249,33.98994],[-117.11248,33.98633],[-117.12121,33.98649],[-117.12124,33.98976],[-117.12984,33.98994],[-117.1298,33.99697],[-117.12127,33.99687],[-117.12129,34.00392],[-117.11276,34.00393],[-117.10474,34.00402],[-117.06603,34.00393],[-117.06516,34.00394],[-117.06485,34.00394],[-117.05626,34.00408],[-117.05409,34.00411],[-117.04757,34.00432],[-117.03887,34.00469],[-117.03446,34.00488],[-117.02577,34.00468],[-117.02128,34.00459],[-117.01688,34.00446],[-117.00136,34.00431],[-116.99445,34.00453],[-116.99432,34.00094],[-116.98982,34.00098],[-116.98985,33.99836],[-116.99025,33.99027],[-116.99627,33.99013],[-116.99879,33.99026],[-116.99878,33.99003],[-116.9987,33.98309],[-117.00669,33.98304],[-117.02548,33.98289],[-117.02547,33.97587],[-117.02926,33.97589],[-117.02923,33.97373],[-117.02915,33.9686],[-117.03418,33.96833],[-117.02922,33.96516],[-117.02511,33.9617],[-117.02405,33.96094],[-117.01522,33.9551],[-117.01543,33.95491],[-117.01575,33.9546],[-117.01658,33.95401],[-117.01797,33.95375],[-117.01931,33.95396],[-117.0196,33.95401],[-117.02531,33.95416],[-117.03425,33.95416],[-117.03434,33.96103],[-117.03636,33.96138],[-117.04258,33.96246],[-117.05499,33.9646],[-117.0585,33.96508],[-117.06453,33.96538],[-117.07099,33.96438],[-117.07327,33.96588]]]}},{"type":"Feature","properties":{"name":"Indian Wells","geoid":"0636434","kind":"city","focus_score":72,"dem_pct_2022_asm":35.0,"turnout_pct_2022":77.4,"has_election_data":true},"geometry":{"type":"Polygon","coordinates":[[[-116.37327,33.69411],[-116.37331,33.69526],[-116.37328,33.69788],[-116.37344,33.70032],[-116.37344,33.70132],[-116.37354,33.70486],[-116.37365,33.71061],[-116.37365,33.71165],[-116.37034,33.7119],[-116.36548,33.71221],[-116.365,33.71309],[-116.36459,33.71298],[-116.36098,33.71299],[-116.361,33.71426],[-116.35636,33.71442],[-116.35636,33.71484],[-116.35635,33.71609],[-116.36066,33.71599],[-116.36066,33.72139],[-116.36066,33.72288],[-116.36068,33.72888],[-116.35634,33.72888],[-116.34753,33.72889],[-116.34754,33.73118],[-116.34754,33.7435],[-116.33879,33.74352],[-116.33005,33.74357],[-116.33009,33.72898],[-116.32966,33.72897],[-116.31556,33.72897],[-116.3126,33.72898],[-116.30389,33.72901],[-116.3031,33.7265],[-116.29773,33.72176],[-116.29585,33.71997],[-116.29495,33.71783],[-116.29493,33.71721],[-116.29922,33.7175],[-116.30011,33.71612],[-116.29914,33.71614],[-116.29885,33.70707],[-116.3022,33.70545],[-116.31243,33.69942],[-116.32107,33.69938],[-116.32103,33.68484],[-116.32148,33.68484],[-116.32148,33.67693],[-116.32147,33.67068],[-116.37295,33.67023],[-116.37295,33.67072],[-116.37291,33.68355],[-116.3737,33.68348],[-116.37305,33.68491],[-116.37327,33.69411]]]}},{"type":"Feature","properties":{"name":"Redlands","geoid":"0659962","kind":"city","focus_score":59,"dem_pct_2022_asm":30.6,"turnout_pct_2022":53.7,"has_election_data":true},"geometry":{"type":"MultiPolygon","coordinates":[[[[-117.10367,34.07709],[-117.12139,34.08818],[-117.12131,34.09109],[-117.12614,34.09115],[-117.12696,34.09167],[-117.11251,34.09139],[-117.11244,34.08943],[-117.11345,34.08876],[-117.11248,34.08598],[-117.1113,34.08577],[-117.11081,34.08451],[-117.10792,34.08311],[-117.10363,34.08125],[-117.10367,34.07675],[-117.09937,34.07678],[-117.09499,34.0768],[-117.06858,34.07702],[-117.06057,34.077],[-117.06035,34.08059],[-117.0524,34.08064],[-117.05241,34.07708],[-117.05241,34.077],[-117.05646,34.07701],[-117.05649,34.07534],[-117.06056,34.07556],[-117.06467,34.07512],[-117.06465,34.07647],[-117.06805,34.07647],[-117.06804,34.07566],[-117.06869,34.07564],[-117.06873,34.07482],[-117.07004,34.07491],[-117.07031,34.07537],[-117.07174,34.07499],[-117.07312,34.07406],[-117.0746,34.07405],[-117.07467,34.07331],[-117.07319,34.07335],[-117.07322,34.07272],[-117.072,34.07338],[-117.07021,34.07335],[-117.07031,34.07416],[-117.06987,34.0734],[-117.06807,34.07341],[-117.06832,34.06982],[-117.06898,34.06982],[-117.06903,34.06922],[-117.06924,34.06622],[-117.06945,34.06332],[-117.06951,34.0626],[-117.07769,34.06244],[-117.07931,34.06247],[-117.08216,34.06253],[-117.08208,34.0661],[-117.07783,34.06608],[-117.07771,34.06887],[-117.07687,34.06889],[-117.07656,34.0721],[-117.07492,34.07409],[-117.07864,34.07485],[-117.08623,34.07478],[-117.08627,34.07328],[-117.09942,34.07317],[-117.10103,34.07222],[-117.10105,34.07099],[-117.10106,34.06953],[-117.10392,34.06957],[-117.10559,34.0696],[-117.10603,34.07319],[-117.10653,34.0732],[-117.10367,34.07709]]],[[[-117.09435,34.07244],[-117.09436,34.07232],[-117.09438,34.07198],[-117.09503,34.07197],[-117.09501,34.07243],[-117.09435,34.07244]]],[[[-117.0995,34.07091],[-117.0995,34.07087],[-117.0995,34.07081],[-117.0995,34.07074],[-117.09975,34.07074],[-117.09974,34.07091],[-117.0995,34.07091]]],[[[-117.20154,34.03374],[-117.19153,34.03131],[-117.16682,34.04405],[-117.1388,34.03513],[-117.13725,34.0366],[-117.13447,34.03658],[-117.13446,34.0339],[-117.13756,34.0339],[-117.13719,34.03265],[-117.12988,34.0296],[-117.12764,34.02851],[-117.12623,34.02815],[-117.12598,34.02703],[-117.11431,34.02411],[-117.11437,34.02389],[-117.11287,34.02379],[-117.11177,34.02307],[-117.10666,34.02244],[-117.10504,34.01936],[-117.10382,34.01936],[-117.10392,34.01755],[-117.10639,34.01757],[-117.10924,34.01752],[-117.10719,34.01448],[-117.10708,34.0126],[-117.10605,34.01152],[-117.10735,34.00979],[-117.10488,34.01038],[-117.1042,34.00981],[-117.10759,34.00764],[-117.10232,34.00478],[-117.10474,34.00402],[-117.11276,34.00393],[-117.12129,34.00392],[-117.12484,34.00391],[-117.13133,34.00382],[-117.1421,34.00428],[-117.16782,34.00421],[-117.17313,34.00422],[-117.21237,34.00422],[-117.22537,34.00431],[-117.22537,34.01797],[-117.2081,34.01845],[-117.20846,34.03115],[-117.20849,34.03152],[-117.20154,34.03374]]],[[[-117.10283,34.06776],[-117.10282,34.06757],[-117.10303,34.06757],[-117.10303,34.06776],[-117.10283,34.06776]]],[[[-117.12139,34.04637],[-117.12322,34.04639],[-117.12323,34.04561],[-117.12468,34.04562],[-117.12466,34.04645],[-117.12139,34.04637]]],[[[-117.13872,34.09902],[-117.13453,34.09908],[-117.13454,34.09641],[-117.13872,34.09902]]]]}},{"type":"Feature","properties":{"name":"Idyllwild-Pine Cove","geoid":"0636203","kind":"place","focus_score":0,"dem_pct_2022_asm":null,"turnout_pct_2022":0.0,"has_election_data":false},"geometry":{"type":"Polygon","coordinates":[[[-116.75638,33.70767],[-116.76492,33.70993],[-116.7687,33.71073],[-116.76907,33.71118],[-116.76676,33.71368],[-116.7629,33.71683],[-116.76166,33.72028],[-116.76009,33.72383],[-116.75886,33.72655],[-116.7514,33.72886],[-116.74817,33.72928],[-116.74421,33.73179],[-116.74351,33.7328],[-116.74629,33.73104],[-116.75081,33.73505],[-116.75304,33.7359],[-116.75709,33.73722],[-116.7603,33.73969],[-116.76127,33.74388],[-116.7622,33.74531],[-116.75932,33.74972],[-116.75777,33.75372],[-116.75485,33.75585],[-116.74701,33.76046],[-116.74456,33.76218],[-116.73991,33.7658],[-116.73996,33.77262],[-116.73952,33.77424],[-116.73861,33.77509],[-116.73662,33.77606],[-116.73436,33.77639],[-116.73162,33.77596],[-116.72401,33.77898],[-116.71886,33.77269],[-116.71997,33.76948],[-116.71571,33.76638],[-116.71168,33.76276],[-116.71543,33.75908],[-116.70686,33.76278],[-116.70295,33.77328],[-116.7021,33.77459],[-116.68556,33.77321],[-116.68542,33.7454],[-116.6867,33.74277],[-116.69299,33.73864],[-116.69571,33.73514],[-116.70049,33.73212],[-116.70758,33.72777],[-116.7162,33.72099],[-116.71804,33.71934],[-116.72184,33.71923],[-116.72448,33.7238],[-116.72164,33.7283],[-116.72298,33.72909],[-116.72793,33.72337],[-116.7316,33.72105],[-116.73423,33.71659],[-116.73818,33.71282],[-116.74105,33.71026],[-116.74609,33.70544],[-116.75549,33.70687],[-116.75643,33.70765],[-116.75638,33.70767]]]}},{"type":"Feature","properties":{"name":"Whitewater","geoid":"0685208","kind":"place","focus_score":79,"dem_pct_2022_asm":52.8,"turnout_pct_2022":41.9,"has_election_data":true},"geometry":{"type":"Polygon","coordinates":[[[-116.71967,33.94758],[-116.69371,33.94729],[-116.69327,33.94633],[-116.69227,33.94777],[-116.69117,33.94667],[-116.68888,33.9491],[-116.68471,33.94967],[-116.6782,33.94929],[-116.67345,33.94937],[-116.67064,33.94881],[-116.66916,33.94997],[-116.66733,33.94988],[-116.66473,33.95172],[-116.66353,33.95522],[-116.66217,33.95725],[-116.65934,33.95753],[-116.65772,33.95654],[-116.65646,33.95251],[-116.65762,33.95136],[-116.65767,33.94923],[-116.66083,33.94797],[-116.6602,33.94725],[-116.64995,33.94725],[-116.64992,33.94353],[-116.64219,33.94349],[-116.64214,33.94007],[-116.63917,33.94016],[-116.63818,33.9393],[-116.63771,33.93757],[-116.63804,33.93486],[-116.63606,33.93155],[-116.63541,33.92674],[-116.63592,33.92305],[-116.64048,33.92379],[-116.64531,33.9236],[-116.65344,33.92225],[-116.65671,33.92203],[-116.67142,33.92291],[-116.67817,33.92268],[-116.68344,33.92284],[-116.69229,33.9245],[-116.69452,33.92478],[-116.69674,33.9246],[-116.70625,33.92183],[-116.70962,33.92128],[-116.71323,33.92128],[-116.71974,33.92232],[-116.7352,33.92489],[-116.73723,33.92494],[-116.73725,33.93267],[-116.73725,33.93289],[-116.73741,33.94724],[-116.71967,33.94758]]]}},{"type":"Feature","properties":{"name":"Cherry Valley","geoid":"0612916","kind":"place","focus_score":60,"dem_pct_2022_asm":30.3,"turnout_pct_2022":60.0,"has_election_data":true},"geometry":{"type":"Polygon","coordinates":[[[-117.00088,33.96875],[-117.00084,33.97235],[-116.99866,33.97239],[-116.9986,33.97601],[-116.99639,33.97604],[-116.99654,33.97977],[-116.99868,33.98098],[-116.9993,33.98247],[-116.99859,33.9825],[-116.99731,33.98401],[-116.99154,33.98794],[-116.99025,33.99027],[-116.98985,33.99836],[-116.98169,33.99728],[-116.98046,33.9973],[-116.97531,34.00044],[-116.97521,34.00102],[-116.97511,34.00159],[-116.97389,34.00271],[-116.97288,34.00336],[-116.97196,34.00371],[-116.97168,34.00399],[-116.97168,34.00479],[-116.96328,34.00482],[-116.96307,34.00481],[-116.96296,34.00481],[-116.9542,34.00481],[-116.94999,34.00482],[-116.94635,34.00481],[-116.9471,34.00232],[-116.94852,34.0008],[-116.94942,34.00077],[-116.95159,33.99755],[-116.95308,33.99723],[-116.95409,33.99611],[-116.9544,33.98927],[-116.95408,33.98578],[-116.95514,33.98325],[-116.95473,33.98276],[-116.95047,33.98595],[-116.94746,33.98675],[-116.94626,33.98814],[-116.94158,33.98814],[-116.94174,33.98672],[-116.94038,33.98525],[-116.94228,33.98392],[-116.94464,33.98086],[-116.94467,33.97961],[-116.94648,33.97793],[-116.94815,33.97734],[-116.94393,33.97493],[-116.94223,33.97175],[-116.94132,33.96877],[-116.93796,33.96893],[-116.93793,33.96171],[-116.94236,33.96171],[-116.94235,33.95989],[-116.94679,33.9599],[-116.94681,33.95788],[-116.95118,33.95794],[-116.95262,33.95976],[-116.95409,33.95974],[-116.95409,33.96158],[-116.96421,33.96156],[-116.96428,33.95426],[-116.9654,33.95428],[-116.96647,33.95536],[-116.96643,33.95789],[-116.96861,33.95807],[-116.96874,33.96151],[-116.97727,33.96146],[-116.97727,33.96274],[-116.9773,33.96874],[-116.98123,33.96874],[-116.98139,33.96874],[-116.9815,33.96507],[-116.98585,33.96508],[-116.98595,33.96146],[-116.99066,33.96146],[-116.99695,33.96148],[-116.99889,33.96148],[-116.99893,33.95991],[-117.00106,33.961],[-117.00103,33.96149],[-117.00088,33.96875]]]}},{"type":"Feature","properties":{"name":"Garnet","geoid":"0629112","kind":"place","focus_score":0,"dem_pct_2022_asm":null,"turnout_pct_2022":0.0,"has_election_data":false},"geometry":{"type":"Polygon","coordinates":[[[-116.49747,33.93222],[-116.49707,33.93948],[-116.49297,33.93947],[-116.48407,33.93958],[-116.48407,33.93962],[-116.47992,33.93949],[-116.47537,33.93953],[-116.47512,33.94654],[-116.47507,33.94686],[-116.45753,33.9468],[-116.45791,33.93253],[-116.45815,33.9253],[-116.45809,33.92161],[-116.45805,33.91817],[-116.45804,33.91792],[-116.45802,33.90322],[-116.47549,33.90321],[-116.47553,33.89626],[-116.47517,33.89278],[-116.47407,33.8886],[-116.4878,33.88847],[-116.50162,33.89138],[-116.50161,33.90328],[-116.50176,33.91776],[-116.49332,33.91768],[-116.49332,33.92446],[-116.4932,33.925],[-116.50177,33.925],[-116.50175,33.93223],[-116.49747,33.93222]]]}},{"type":"Feature","properties":{"name":"Highland","geoid":"0633588","kind":"city","focus_score":0,"dem_pct_2022_asm":null,"turnout_pct_2022":0.0,"has_election_data":false},"geometry":{"type":"Polygon","coordinates":[[[-117.13454,34.09641],[-117.13453,34.09908],[-117.13872,34.09902],[-117.13892,34.09915],[-117.18857,34.12121],[-117.15773,34.11971],[-117.13914,34.11746],[-117.13914,34.11701],[-117.13472,34.11693],[-117.13472,34.11693],[-117.13469,34.11523],[-117.13242,34.11345],[-117.13017,34.11339],[-117.13022,34.11511],[-117.12581,34.11332],[-117.12575,34.10971],[-117.12128,34.1093],[-117.11594,34.10932],[-117.09487,34.1008],[-117.09483,34.09849],[-117.08927,34.09853],[-117.08612,34.09725],[-117.08612,34.09126],[-117.07186,34.09148],[-117.06889,34.09028],[-117.06888,34.09028],[-117.06888,34.08776],[-117.06448,34.08778],[-117.06454,34.08416],[-117.06021,34.08418],[-117.06033,34.0821],[-117.06869,34.07823],[-117.06858,34.07702],[-117.09499,34.0768],[-117.09486,34.08134],[-117.09476,34.09125],[-117.10361,34.09112],[-117.10506,34.0902],[-117.10508,34.089],[-117.10796,34.08892],[-117.11244,34.08943],[-117.11251,34.09139],[-117.12696,34.09167],[-117.13454,34.09641]]]}},{"type":"Feature","properties":{"name":"Valle Vista","geoid":"0681708","kind":"place","focus_score":0,"dem_pct_2022_asm":null,"turnout_pct_2022":0.0,"has_election_data":false},"geometry":{"type":"Polygon","coordinates":[[[-116.84517,33.73278],[-116.84501,33.73238],[-116.88051,33.73213],[-116.88111,33.73267],[-116.88339,33.73272],[-116.885,33.73321],[-116.88787,33.73268],[-116.8889,33.73162],[-116.88975,33.73157],[-116.89043,33.73229],[-116.89227,33.73373],[-116.89328,33.73484],[-116.89328,33.73441],[-116.89327,33.73135],[-116.91864,33.72978],[-116.91874,33.72981],[-116.91025,33.7478],[-116.90872,33.7478],[-116.90876,33.74935],[-116.90882,33.75082],[-116.90879,33.75089],[-116.90883,33.75095],[-116.90885,33.75142],[-116.90913,33.75142],[-116.91021,33.75308],[-116.91022,33.75506],[-116.91149,33.75505],[-116.915,33.76045],[-116.91075,33.76052],[-116.91363,33.7623],[-116.91025,33.76203],[-116.90839,33.76235],[-116.90888,33.76364],[-116.90937,33.76414],[-116.90193,33.76401],[-116.8933,33.76385],[-116.89245,33.76382],[-116.88992,33.76388],[-116.88868,33.76307],[-116.88693,33.76214],[-116.88515,33.76094],[-116.88427,33.75966],[-116.88221,33.75893],[-116.88189,33.75893],[-116.87835,33.75895],[-116.87832,33.75596],[-116.87606,33.75462],[-116.8748,33.75388],[-116.87137,33.75162],[-116.87079,33.75132],[-116.86306,33.74677],[-116.86316,33.74925],[-116.86133,33.74769],[-116.85825,33.74721],[-116.8581,33.74276],[-116.84802,33.74092],[-116.84881,33.73827],[-116.8488,33.73826],[-116.84517,33.73278]]]}},{"type":"Feature","properties":{"name":"Sky Valley","geoid":"0672156","kind":"place","focus_score":0,"dem_pct_2022_asm":null,"turnout_pct_2022":0.0,"has_election_data":false},"geometry":{"type":"MultiPolygon","coordinates":[[[[-116.32589,33.91493],[-116.32483,33.91671],[-116.32498,33.91578],[-116.32312,33.91501],[-116.31882,33.91503],[-116.31868,33.91305],[-116.30597,33.90727],[-116.30632,33.90686],[-116.32589,33.91493]]],[[[-116.31516,33.84582],[-116.33426,33.84581],[-116.35289,33.84577],[-116.35332,33.85951],[-116.38662,33.85977],[-116.38541,33.86236],[-116.38706,33.86374],[-116.38551,33.86525],[-116.38621,33.86703],[-116.38505,33.86847],[-116.38713,33.86865],[-116.38597,33.87011],[-116.38432,33.87015],[-116.38358,33.87248],[-116.38358,33.87248],[-116.31516,33.84582]]],[[[-116.37878,33.93675],[-116.35733,33.92822],[-116.35738,33.92792],[-116.37878,33.93675]]],[[[-116.38359,33.87249],[-116.38455,33.87398],[-116.38347,33.87458],[-116.3856,33.87755],[-116.3844,33.87746],[-116.38362,33.87985],[-116.38094,33.88013],[-116.38002,33.87944],[-116.378,33.87923],[-116.38359,33.87249]]],[[[-116.40631,33.90954],[-116.40624,33.91048],[-116.40623,33.91253],[-116.41183,33.91808],[-116.42317,33.91806],[-116.42313,33.92133],[-116.4231,33.92492],[-116.42304,33.93228],[-116.40621,33.93212],[-116.40634,33.94687],[-116.40463,33.94687],[-116.39945,33.94366],[-116.39665,33.9436],[-116.39668,33.94218],[-116.38887,33.94055],[-116.3855,33.93934],[-116.38393,33.93878],[-116.38394,33.93974],[-116.3794,33.93976],[-116.37949,33.93703],[-116.37897,33.93683],[-116.40631,33.90954]]],[[[-116.39201,33.89672],[-116.39719,33.89691],[-116.39721,33.90137],[-116.39201,33.89672]]],[[[-116.4,33.90387],[-116.40648,33.90378],[-116.4066,33.9057],[-116.40631,33.90952],[-116.4,33.90387]]]]}},{"type":"Feature","properties":{"name":"Cabazon","geoid":"0609360","kind":"place","focus_score":73,"dem_pct_2022_asm":46.4,"turnout_pct_2022":27.0,"has_election_data":true},"geometry":{"type":"Polygon","coordinates":[[[-116.82453,33.93207],[-116.8245,33.93212],[-116.82447,33.93238],[-116.82447,33.93263],[-116.82447,33.93271],[-116.81027,33.9327],[-116.80674,33.93266],[-116.80674,33.93261],[-116.80676,33.93031],[-116.80679,33.92924],[-116.80681,33.92152],[-116.80269,33.91985],[-116.79938,33.91907],[-116.79676,33.9189],[-116.78946,33.9189],[-116.77208,33.91888],[-116.76054,33.92066],[-116.75472,33.92023],[-116.75462,33.91798],[-116.75447,33.90479],[-116.75447,33.90345],[-116.74856,33.90351],[-116.73749,33.90334],[-116.73771,33.9004],[-116.74193,33.9007],[-116.74692,33.89654],[-116.75456,33.89608],[-116.75876,33.89593],[-116.75877,33.89561],[-116.76323,33.89561],[-116.76341,33.89561],[-116.76317,33.89821],[-116.76359,33.90062],[-116.7663,33.89986],[-116.76922,33.90199],[-116.7714,33.90338],[-116.79374,33.90341],[-116.79763,33.90336],[-116.80354,33.90788],[-116.80507,33.90975],[-116.8097,33.91297],[-116.81062,33.91479],[-116.81133,33.9136],[-116.81412,33.91557],[-116.82397,33.92793],[-116.8245,33.9282],[-116.82454,33.9303],[-116.82454,33.93154],[-116.82453,33.93207]]]}},{"type":"Feature","properties":{"name":"Mentone","geoid":"0646884","kind":"place","focus_score":0,"dem_pct_2022_asm":null,"turnout_pct_2022":0.0,"has_election_data":false},"geometry":{"type":"Polygon","coordinates":[[[-117.12488,34.04829],[-117.10653,34.0732],[-117.10603,34.07319],[-117.10559,34.0696],[-117.10392,34.06957],[-117.10106,34.06953],[-117.10105,34.07099],[-117.10103,34.07222],[-117.09942,34.07317],[-117.08627,34.07328],[-117.08623,34.07478],[-117.07864,34.07485],[-117.07492,34.07409],[-117.07656,34.0721],[-117.07687,34.06889],[-117.07771,34.06887],[-117.07783,34.06608],[-117.08208,34.0661],[-117.08216,34.06253],[-117.07931,34.06247],[-117.08054,34.05998],[-117.07929,34.05767],[-117.08006,34.05827],[-117.08201,34.05474],[-117.08403,34.05547],[-117.08786,34.05405],[-117.08912,34.0525],[-117.09059,34.04994],[-117.09246,34.05066],[-117.09205,34.0495],[-117.09326,34.04826],[-117.1042,34.048],[-117.1041,34.04109],[-117.10735,34.04109],[-117.11221,34.04265],[-117.11856,34.04817],[-117.12137,34.04825],[-117.12489,34.04828],[-117.12488,34.04829]],[[-117.09438,34.07198],[-117.09436,34.07232],[-117.09435,34.07244],[-117.09501,34.07243],[-117.09503,34.07197],[-117.09438,34.07198]],[[-117.0995,34.07074],[-117.0995,34.07081],[-117.0995,34.07087],[-117.0995,34.07091],[-117.09974,34.07091],[-117.09975,34.07074],[-117.0995,34.07074]],[[-117.10282,34.06757],[-117.10283,34.06776],[-117.10303,34.06776],[-117.10303,34.06757],[-117.10282,34.06757]]]}},{"type":"Feature","properties":{"name":"Bermuda Dunes","geoid":"0606028","kind":"place","focus_score":74,"dem_pct_2022_asm":39.9,"turnout_pct_2022":59.0,"has_election_data":true},"geometry":{"type":"Polygon","coordinates":[[[-116.26661,33.74377],[-116.26661,33.74376],[-116.26843,33.74375],[-116.26873,33.7416],[-116.26813,33.7383],[-116.26785,33.73831],[-116.26826,33.73649],[-116.27534,33.73647],[-116.27538,33.73032],[-116.2754,33.72914],[-116.27665,33.7292],[-116.28628,33.72912],[-116.28628,33.73203],[-116.29837,33.73284],[-116.29837,33.73632],[-116.30224,33.73705],[-116.30386,33.73812],[-116.30385,33.7436],[-116.30382,33.75041],[-116.30381,33.75089],[-116.30371,33.7552],[-116.3034,33.75611],[-116.30267,33.75785],[-116.30199,33.75913],[-116.30183,33.75949],[-116.29518,33.75745],[-116.29508,33.75702],[-116.28638,33.75431],[-116.27968,33.75161],[-116.26661,33.74377]]]}},{"type":"Feature","properties":{"name":"Desert Edge","geoid":"0618986","kind":"place","focus_score":0,"dem_pct_2022_asm":null,"turnout_pct_2022":0.0,"has_election_data":false},"geometry":{"type":"Polygon","coordinates":[[[-116.45791,33.93253],[-116.43865,33.93241],[-116.43631,33.93239],[-116.43585,33.93233],[-116.43372,33.93234],[-116.43182,33.9323],[-116.43181,33.93128],[-116.4318,33.92512],[-116.42746,33.92503],[-116.4231,33.92492],[-116.42313,33.92133],[-116.42317,33.91806],[-116.42317,33.91584],[-116.42327,33.91038],[-116.42768,33.91042],[-116.4319,33.91041],[-116.44073,33.91039],[-116.44065,33.91757],[-116.44065,33.91798],[-116.44064,33.91812],[-116.44514,33.91797],[-116.45283,33.91815],[-116.45804,33.91792],[-116.45805,33.91817],[-116.45809,33.92161],[-116.45815,33.9253],[-116.45791,33.93253]]]}},{"type":"Feature","properties":{"name":"Mountain Center","geoid":"0649544","kind":"place","focus_score":75,"dem_pct_2022_asm":40.0,"turnout_pct_2022":62.4,"has_election_data":true},"geometry":{"type":"Polygon","coordinates":[[[-116.74105,33.71026],[-116.74035,33.71173],[-116.73818,33.71282],[-116.73527,33.71501],[-116.73423,33.71659],[-116.73398,33.71885],[-116.7316,33.72105],[-116.72849,33.72239],[-116.72793,33.72337],[-116.72455,33.72669],[-116.72298,33.72909],[-116.72012,33.72831],[-116.72164,33.7283],[-116.7225,33.72583],[-116.72448,33.7238],[-116.72522,33.71927],[-116.72184,33.71923],[-116.71977,33.71787],[-116.71804,33.71934],[-116.71817,33.71988],[-116.71497,33.71699],[-116.71482,33.71327],[-116.71288,33.71093],[-116.71134,33.71145],[-116.70834,33.71135],[-116.70691,33.71298],[-116.70652,33.7115],[-116.70642,33.71008],[-116.7074,33.70848],[-116.70792,33.70552],[-116.70913,33.70525],[-116.71209,33.70321],[-116.71269,33.70188],[-116.71617,33.70094],[-116.71804,33.701],[-116.72115,33.70245],[-116.72437,33.70318],[-116.72504,33.70449],[-116.72833,33.70454],[-116.73034,33.70571],[-116.73168,33.70542],[-116.73287,33.7055],[-116.73401,33.70539],[-116.7367,33.70374],[-116.7422,33.70567],[-116.74609,33.70544],[-116.74396,33.70821],[-116.74105,33.71026]]]}},{"type":"Feature","properties":{"name":"Desert Palms","geoid":"0619022","kind":"place","focus_score":0,"dem_pct_2022_asm":null,"turnout_pct_2022":0.0,"has_election_data":false},"geometry":{"type":"Polygon","coordinates":[[[-116.30081,33.76429],[-116.29088,33.75833],[-116.29147,33.75833],[-116.29312,33.75868],[-116.29569,33.75975],[-116.29518,33.75745],[-116.30183,33.75949],[-116.30098,33.76142],[-116.3008,33.76202],[-116.30066,33.76287],[-116.30066,33.76344],[-116.30087,33.76456],[-116.30113,33.76519],[-116.30302,33.76776],[-116.30346,33.76868],[-116.3036,33.77169],[-116.3014,33.77485],[-116.30108,33.77614],[-116.30102,33.78105],[-116.30105,33.78644],[-116.30081,33.76429]]]}}],"outline":{"type":"Polygon","coordinates":[[[-116.61426,33.68777],[-116.63418,33.64854],[-116.66624,33.65935],[-116.68481,33.67792],[-116.70614,33.68923],[-116.72242,33.70231],[-116.73135,33.70543],[-116.74266,33.70119],[-116.75324,33.69803],[-116.76123,33.69843],[-116.771,33.70266],[-116.75638,33.70767],[-116.7687,33.71073],[-116.78223,33.71523],[-116.79906,33.72097],[-116.81838,33.73642],[-116.8488,33.73826],[-116.84491,33.73238],[-116.88071,33.73213],[-116.91876,33.72977],[-116.90879,33.75089],[-116.91927,33.76702],[-116.93269,33.78689],[-116.96337,33.83623],[-116.96226,33.9035],[-116.99889,33.92299],[-117.02336,33.93298],[-117.07327,33.96588],[-117.11009,33.97743],[-117.13182,33.94694],[-117.2264,33.97527],[-117.28053,33.98966],[-117.27385,34.01874],[-117.24021,34.02315],[-117.23852,34.02873],[-117.23284,34.0284],[-117.23011,34.02556],[-117.2303,34.03458],[-117.2085,34.03152],[-117.20154,34.03374],[-117.19153,34.03131],[-117.16682,34.04405],[-117.1388,34.03513],[-117.12488,34.04829],[-117.10367,34.07709],[-117.13892,34.09915],[-117.18857,34.12121],[-117.15773,34.11971],[-117.13473,34.11693],[-117.06889,34.09028],[-117.04543,34.08101],[-117.02887,34.09683],[-117.00159,34.10217],[-116.95712,34.09573],[-116.92689,34.09184],[-116.91264,34.09784],[-116.9084,34.12023],[-116.7426,34.12137],[-116.53316,34.20562],[-116.49971,34.20146],[-116.48015,34.19628],[-116.45702,34.18993],[-116.42256,34.17639],[-116.38993,34.16585],[-116.33333,34.16754],[-116.31143,34.1713],[-116.27068,34.17158],[-116.26089,34.13873],[-116.2501,34.12057],[-116.16114,34.12041],[-116.05442,34.11733],[-116.02636,34.06976],[-116.0297,34.05249],[-116.04611,34.03446],[-115.81182,34.03529],[-115.62496,34.03528],[-115.30411,34.07786],[-115.19101,34.06408],[-115.2394,33.98261],[-115.25571,33.83926],[-115.30399,33.79358],[-115.40163,33.7649],[-115.43576,33.72738],[-115.46177,33.70056],[-115.56376,33.67779],[-115.68452,33.66616],[-115.8022,33.66136],[-115.91716,33.67131],[-116.00785,33.7029],[-116.18774,33.8552],[-116.2689,33.89142],[-116.37897,33.93683],[-116.40632,33.90953],[-116.37565,33.88207],[-116.38359,33.87248],[-116.31218,33.84466],[-116.3225,33.82282],[-116.30123,33.80334],[-116.30081,33.76429],[-116.26661,33.74377],[-116.27156,33.72196],[-116.27056,33.70681],[-116.23393,33.66837],[-116.23337,33.60078],[-116.32149,33.64964],[-116.3734,33.64741],[-116.40303,33.63224],[-116.41837,33.62763],[-116.42613,33.63636],[-116.44092,33.63142],[-116.55112,33.68484],[-116.61426,33.68777]]]}}