{"type":"FeatureCollection","district_id":"ad-58","district_code":"AD-58","source":{"places":"U.S. Census Bureau cartographic places (cb_2020_06_place_500k)","election":"UC Berkeley Statewide Database 2022 General (g22) SOV by SR precinct","city_join":"https://statewidedatabase.org/pub/data/G22/state/state_g22_srprec_to_city.csv","assembly_boundary":"ca-assembly-crc-2020.geojson","built_at":"2026-10-07","score_formula":"Illustrative focus (0\u2013100) = 70% competitiveness from 2022 Assembly two-party margin + 30% turnout (TOTVOTE/TOTREG) in overlapping SR precincts, aggregated to place via SWDB SRPREC\u2192city weights. Not a field targeting model."},"features":[{"type":"Feature","properties":{"name":"Riverside","geoid":"0662000","kind":"city","focus_score":74,"dem_pct_2022_asm":55.5,"turnout_pct_2022":38.6,"has_election_data":true},"geometry":{"type":"MultiPolygon","coordinates":[[[[-117.30518,34.00463],[-117.30496,34.00474],[-117.30496,34.00463],[-117.30518,34.00463]]],[[[-117.31037,34.00459],[-117.3112,34.00476],[-117.31057,34.00475],[-117.30985,34.00459],[-117.31037,34.00459]]],[[[-117.31457,34.00546],[-117.31412,34.00719],[-117.31372,34.00529],[-117.31457,34.00546]]],[[[-117.33109,34.00664],[-117.33102,34.0084],[-117.32832,34.00931],[-117.32832,34.00965],[-117.32673,34.01003],[-117.32673,34.00981],[-117.3255,34.00861],[-117.32408,34.00887],[-117.32457,34.00835],[-117.32072,34.00656],[-117.33109,34.00664]]],[[[-117.34764,34.01942],[-117.34718,34.01528],[-117.3489,34.0116],[-117.34474,34.01233],[-117.34302,34.01214],[-117.33385,34.01331],[-117.3366,34.0121],[-117.34718,33.98751],[-117.34688,33.95734],[-117.35548,33.94424],[-117.37254,33.94188],[-117.38351,33.91459],[-117.39983,33.88683],[-117.41213,33.88774],[-117.42471,33.88694],[-117.4542,33.88753],[-117.46095,33.88489],[-117.46502,33.88978],[-117.46504,33.88977],[-117.47133,33.8848],[-117.47981,33.88572],[-117.48233,33.88662],[-117.49173,33.88604],[-117.49379,33.88688],[-117.49431,33.88632],[-117.49602,33.88395],[-117.50194,33.88897],[-117.5013,33.89425],[-117.50754,33.90189],[-117.51083,33.90929],[-117.51346,33.91105],[-117.51256,33.91213],[-117.51336,33.918],[-117.51414,33.92089],[-117.51645,33.92724],[-117.51637,33.9317],[-117.51414,33.9361],[-117.51283,33.94341],[-117.5159,33.94561],[-117.5189,33.95558],[-117.5101,33.96007],[-117.49492,33.96082],[-117.48404,33.96166],[-117.47856,33.96254],[-117.46605,33.96441],[-117.45379,33.96683],[-117.44915,33.96506],[-117.43615,33.96686],[-117.43583,33.96849],[-117.43174,33.96773],[-117.41574,33.97271],[-117.41045,33.97568],[-117.40411,33.9767],[-117.39459,33.98735],[-117.39342,33.99204],[-117.38582,34.00244],[-117.38005,34.00651],[-117.37908,34.00643],[-117.3748,34.00953],[-117.36638,34.01941],[-117.34764,34.01942]]]]}},{"type":"Feature","properties":{"name":"Jurupa Valley","geoid":"0637692","kind":"city","focus_score":78,"dem_pct_2022_asm":52.0,"turnout_pct_2022":36.6,"has_election_data":true},"geometry":{"type":"Polygon","coordinates":[[[-117.39552,34.03381],[-117.39517,34.0338],[-117.37669,34.02762],[-117.37688,34.02644],[-117.37542,34.0194],[-117.37159,34.0194],[-117.37027,34.01944],[-117.36721,34.01941],[-117.37254,34.01239],[-117.37616,34.00831],[-117.37908,34.00643],[-117.37978,34.00617],[-117.38048,34.00703],[-117.38582,34.00244],[-117.39203,33.99635],[-117.39323,33.9902],[-117.393,33.98973],[-117.40986,33.97527],[-117.41292,33.97469],[-117.41574,33.97271],[-117.42764,33.96848],[-117.43568,33.96889],[-117.43585,33.96841],[-117.44012,33.96933],[-117.44838,33.96903],[-117.45079,33.96772],[-117.4514,33.96763],[-117.45225,33.96791],[-117.45379,33.96683],[-117.46112,33.96454],[-117.47141,33.96476],[-117.48316,33.96652],[-117.48823,33.9688],[-117.49899,33.9678],[-117.50581,33.96623],[-117.51573,33.96299],[-117.52137,33.96097],[-117.52322,33.9625],[-117.53357,33.95916],[-117.53412,33.95889],[-117.53702,33.95733],[-117.54251,33.95651],[-117.54412,33.95356],[-117.54969,33.95409],[-117.54884,33.96455],[-117.54893,33.98568],[-117.55024,34.02943],[-117.52431,34.03347],[-117.49992,34.03346],[-117.49307,34.03344],[-117.47125,34.03369],[-117.46548,34.03371],[-117.43271,34.03401],[-117.39552,34.03381]]]}},{"type":"Feature","properties":{"name":"Corona","geoid":"0616350","kind":"city","focus_score":78,"dem_pct_2022_asm":52.9,"turnout_pct_2022":40.1,"has_election_data":true},"geometry":{"type":"MultiPolygon","coordinates":[[[[-117.49333,33.87208],[-117.48898,33.86624],[-117.49089,33.86316],[-117.48893,33.8364],[-117.50194,33.83226],[-117.50114,33.83407],[-117.49657,33.84595],[-117.50571,33.85098],[-117.51455,33.85831],[-117.52255,33.85708],[-117.52757,33.85381],[-117.53499,33.85398],[-117.53189,33.8431],[-117.53525,33.83741],[-117.53908,33.86262],[-117.56581,33.85576],[-117.60194,33.85933],[-117.60949,33.86817],[-117.60014,33.87673],[-117.60535,33.87957],[-117.622,33.88204],[-117.59351,33.88407],[-117.57297,33.90057],[-117.56911,33.89625],[-117.56863,33.89579],[-117.56006,33.89506],[-117.55922,33.89645],[-117.55394,33.89908],[-117.54729,33.89789],[-117.54093,33.89723],[-117.53845,33.89794],[-117.53639,33.90337],[-117.53123,33.90473],[-117.52603,33.90687],[-117.52358,33.90212],[-117.51406,33.90923],[-117.50786,33.90225],[-117.50277,33.89606],[-117.50045,33.88982],[-117.51142,33.88559],[-117.51427,33.88195],[-117.52896,33.87954],[-117.53121,33.87572],[-117.52822,33.87401],[-117.52094,33.87469],[-117.51513,33.87186],[-117.51436,33.87005],[-117.50495,33.87002],[-117.49384,33.8726],[-117.49333,33.87208]]],[[[-117.51637,33.82934],[-117.51521,33.82929],[-117.51214,33.82678],[-117.51637,33.82934]]],[[[-117.52674,33.82928],[-117.52547,33.82675],[-117.5271,33.82812],[-117.52813,33.82925],[-117.51908,33.82944],[-117.51661,33.82935],[-117.52674,33.82928]]],[[[-117.52415,33.8241],[-117.52418,33.82411],[-117.52417,33.82414],[-117.52415,33.8241]]],[[[-117.53251,33.83079],[-117.5346,33.83141],[-117.53447,33.83139],[-117.53451,33.8327],[-117.53222,33.83274],[-117.53216,33.83569],[-117.53075,33.83152],[-117.53261,33.83068],[-117.53251,33.83079]]],[[[-117.5366,33.8263],[-117.5366,33.8263],[-117.5366,33.8263]]],[[[-117.61123,33.86789],[-117.61127,33.86796],[-117.61142,33.86947],[-117.61396,33.87179],[-117.61141,33.87416],[-117.60756,33.87142],[-117.61018,33.86897],[-117.61009,33.86887],[-117.61123,33.86789]]],[[[-117.61209,33.86715],[-117.61222,33.86739],[-117.61206,33.86718],[-117.61209,33.86715]]],[[[-117.61944,33.87877],[-117.61868,33.87825],[-117.61625,33.87558],[-117.6165,33.87501],[-117.61944,33.87877]]],[[[-117.62151,33.88143],[-117.62155,33.88146],[-117.62081,33.88132],[-117.62102,33.8808],[-117.62151,33.88143]]]]}},{"type":"Feature","properties":{"name":"Eastvale","geoid":"0621230","kind":"city","focus_score":81,"dem_pct_2022_asm":51.1,"turnout_pct_2022":41.7,"has_election_data":true},"geometry":{"type":"Polygon","coordinates":[[[-117.56528,33.96072],[-117.59302,33.96806],[-117.57769,33.98239],[-117.57566,33.98302],[-117.56701,33.98567],[-117.55838,33.98842],[-117.55843,33.99711],[-117.55832,34.00082],[-117.55827,34.01891],[-117.55834,34.02394],[-117.55834,34.02538],[-117.55024,34.02943],[-117.5503,33.99306],[-117.54893,33.98568],[-117.54885,33.97524],[-117.54884,33.96455],[-117.54891,33.95723],[-117.54955,33.95724],[-117.55383,33.95717],[-117.55607,33.95608],[-117.56528,33.96072]]]}},{"type":"Feature","properties":{"name":"Grand Terrace","geoid":"0630658","kind":"city","focus_score":0,"dem_pct_2022_asm":null,"turnout_pct_2022":0.0,"has_election_data":false},"geometry":{"type":"Polygon","coordinates":[[[-117.33132,34.02716],[-117.33106,34.02735],[-117.32699,34.03194],[-117.3272,34.032],[-117.33006,34.03207],[-117.32995,34.03294],[-117.32961,34.0339],[-117.32818,34.0378],[-117.33177,34.03785],[-117.33192,34.03695],[-117.33193,34.03697],[-117.33494,34.03567],[-117.33297,34.03844],[-117.3324,34.03844],[-117.3317,34.03844],[-117.3315,34.04044],[-117.32735,34.03953],[-117.32573,34.04016],[-117.32599,34.03974],[-117.32502,34.04044],[-117.32431,34.04072],[-117.31784,34.04193],[-117.3171,34.04197],[-117.31588,34.04168],[-117.31279,34.0422],[-117.31086,34.0438],[-117.31008,34.04429],[-117.30569,34.04496],[-117.30374,34.0449],[-117.30344,34.04478],[-117.29992,34.04476],[-117.29964,34.04441],[-117.30021,34.04357],[-117.30028,34.04291],[-117.29806,34.04112],[-117.29698,34.04108],[-117.29606,34.03901],[-117.29522,34.03783],[-117.29518,34.03781],[-117.29514,34.03765],[-117.29492,34.03765],[-117.29116,34.03542],[-117.29111,34.03513],[-117.29135,34.03485],[-117.29184,34.034],[-117.29199,34.03378],[-117.29197,34.03366],[-117.29192,34.02965],[-117.29608,34.0298],[-117.29604,34.01941],[-117.3049,34.0193],[-117.30938,34.0193],[-117.31369,34.01931],[-117.32239,34.01938],[-117.33328,34.01937],[-117.33616,34.01938],[-117.33595,34.01973],[-117.33132,34.02716]]]}},{"type":"Feature","properties":{"name":"El Cerrito","geoid":"0621810","kind":"place","focus_score":0,"dem_pct_2022_asm":null,"turnout_pct_2022":0.0,"has_election_data":false},"geometry":{"type":"Polygon","coordinates":[[[-117.50814,33.82436],[-117.51214,33.82678],[-117.51521,33.82929],[-117.51637,33.82934],[-117.51639,33.82935],[-117.51661,33.82935],[-117.51908,33.82944],[-117.52813,33.82925],[-117.5271,33.82812],[-117.52547,33.82675],[-117.52417,33.82414],[-117.52418,33.82411],[-117.5366,33.8263],[-117.5366,33.8263],[-117.53261,33.83068],[-117.53075,33.83152],[-117.53216,33.83569],[-117.53222,33.83274],[-117.53451,33.8327],[-117.53447,33.83139],[-117.5346,33.83141],[-117.53583,33.83178],[-117.53525,33.83741],[-117.53405,33.83911],[-117.53226,33.84182],[-117.53189,33.8431],[-117.53401,33.84477],[-117.53409,33.85011],[-117.53499,33.85398],[-117.53148,33.85529],[-117.53146,33.85381],[-117.52757,33.85381],[-117.52751,33.85827],[-117.52295,33.85744],[-117.52255,33.85708],[-117.52177,33.85639],[-117.52115,33.85387],[-117.5197,33.85299],[-117.51641,33.85244],[-117.51287,33.8529],[-117.51145,33.85213],[-117.51112,33.84978],[-117.51116,33.84795],[-117.50966,33.8457],[-117.50917,33.84313],[-117.51025,33.83968],[-117.50781,33.83645],[-117.50731,33.83239],[-117.50837,33.83009],[-117.50829,33.82785],[-117.50751,33.82718],[-117.50518,33.82622],[-117.50814,33.82436]]]}},{"type":"Feature","properties":{"name":"Highgrove","geoid":"0633574","kind":"place","focus_score":0,"dem_pct_2022_asm":null,"turnout_pct_2022":0.0,"has_election_data":false},"geometry":{"type":"Polygon","coordinates":[[[-117.33955,34.01939],[-117.33953,34.01939],[-117.33616,34.01938],[-117.33328,34.01937],[-117.32239,34.01938],[-117.31369,34.01931],[-117.30938,34.0193],[-117.3049,34.0193],[-117.29607,34.01824],[-117.28967,34.01827],[-117.28768,34.00493],[-117.28769,34.00475],[-117.30496,34.00463],[-117.30496,34.00474],[-117.30518,34.00463],[-117.30985,34.00459],[-117.31057,34.00475],[-117.3112,34.00476],[-117.31372,34.00529],[-117.31412,34.00719],[-117.31457,34.00546],[-117.3198,34.00655],[-117.32072,34.00656],[-117.32457,34.00835],[-117.32408,34.00887],[-117.3255,34.00861],[-117.32673,34.00981],[-117.32673,34.01003],[-117.32832,34.00965],[-117.32832,34.00931],[-117.33102,34.0084],[-117.33109,34.00664],[-117.33111,34.00664],[-117.33399,34.00951],[-117.33397,34.00993],[-117.33385,34.01331],[-117.3352,34.01332],[-117.33593,34.0121],[-117.34302,34.01214],[-117.34426,34.01247],[-117.34436,34.01232],[-117.34474,34.01233],[-117.34265,34.0155],[-117.34003,34.01939],[-117.33955,34.01939]]]}},{"type":"Feature","properties":{"name":"Home Gardens","geoid":"0634302","kind":"place","focus_score":0,"dem_pct_2022_asm":null,"turnout_pct_2022":0.0,"has_election_data":false},"geometry":{"type":"Polygon","coordinates":[[[-117.50034,33.87927],[-117.50014,33.87906],[-117.50033,33.87907],[-117.50252,33.87645],[-117.50045,33.87414],[-117.50111,33.87284],[-117.50142,33.87256],[-117.50237,33.87178],[-117.50495,33.87002],[-117.50742,33.86843],[-117.50862,33.86948],[-117.51436,33.87005],[-117.5143,33.87069],[-117.51447,33.87187],[-117.51513,33.87186],[-117.51525,33.87257],[-117.5194,33.87285],[-117.52094,33.87469],[-117.5239,33.87243],[-117.52619,33.87493],[-117.52822,33.87401],[-117.52967,33.87363],[-117.52976,33.87398],[-117.53121,33.87572],[-117.5301,33.87638],[-117.53218,33.87893],[-117.52896,33.87954],[-117.52337,33.88141],[-117.51594,33.88399],[-117.51427,33.88195],[-117.51337,33.88248],[-117.51032,33.88422],[-117.51142,33.88559],[-117.50513,33.8878],[-117.50194,33.88897],[-117.50131,33.88748],[-117.49776,33.88318],[-117.49602,33.88395],[-117.50034,33.87927]]]}},{"type":"Feature","properties":{"name":"Coronita","geoid":"0616420","kind":"place","focus_score":0,"dem_pct_2022_asm":null,"turnout_pct_2022":0.0,"has_election_data":false},"geometry":{"type":"Polygon","coordinates":[[[-117.61007,33.86889],[-117.61009,33.86887],[-117.61018,33.86897],[-117.60756,33.87142],[-117.61141,33.87416],[-117.61396,33.87179],[-117.61142,33.86947],[-117.61127,33.86796],[-117.61123,33.86789],[-117.61206,33.86718],[-117.61222,33.86739],[-117.61637,33.87484],[-117.6165,33.87501],[-117.61625,33.87558],[-117.61868,33.87825],[-117.61944,33.87877],[-117.62102,33.8808],[-117.62081,33.88132],[-117.62155,33.88146],[-117.62268,33.88223],[-117.62251,33.88221],[-117.622,33.88204],[-117.61301,33.88082],[-117.60801,33.88013],[-117.60535,33.87957],[-117.60496,33.87848],[-117.59965,33.87717],[-117.60014,33.87673],[-117.59976,33.87643],[-117.60913,33.86775],[-117.60949,33.86817],[-117.61007,33.86889]]]}}],"outline":{"type":"Polygon","coordinates":[[[-117.4331,34.03401],[-117.39526,34.03381],[-117.37529,34.03235],[-117.377,34.02657],[-117.37055,34.01944],[-117.34723,34.01942],[-117.33617,34.01938],[-117.33051,34.02845],[-117.32995,34.03295],[-117.33193,34.03697],[-117.33494,34.03567],[-117.33154,34.04045],[-117.32735,34.03953],[-117.32431,34.04072],[-117.31784,34.04193],[-117.31347,34.04214],[-117.31008,34.04429],[-117.30569,34.04496],[-117.29993,34.04477],[-117.297,34.04112],[-117.29606,34.03901],[-117.29522,34.03783],[-117.29098,34.03531],[-117.29199,34.03378],[-117.28765,34.00475],[-117.31037,34.00459],[-117.3198,34.00655],[-117.33111,34.00664],[-117.3366,34.0121],[-117.34818,34.00693],[-117.35561,33.99353],[-117.34718,33.98751],[-117.34851,33.97757],[-117.34848,33.966],[-117.34688,33.95734],[-117.34647,33.95229],[-117.34976,33.94634],[-117.35548,33.94424],[-117.36469,33.94508],[-117.36947,33.94648],[-117.37254,33.94188],[-117.37815,33.93634],[-117.3844,33.92414],[-117.38351,33.91459],[-117.38355,33.9036],[-117.38571,33.88677],[-117.42689,33.88695],[-117.44966,33.88731],[-117.46098,33.88488],[-117.46503,33.88978],[-117.47159,33.88278],[-117.48233,33.88662],[-117.49423,33.88589],[-117.50034,33.87927],[-117.48894,33.86757],[-117.48919,33.85841],[-117.48893,33.8364],[-117.50814,33.82436],[-117.51639,33.82935],[-117.52674,33.82928],[-117.52415,33.8241],[-117.5366,33.8263],[-117.53251,33.83079],[-117.53583,33.83178],[-117.53524,33.83747],[-117.53411,33.85011],[-117.53908,33.86262],[-117.54738,33.86298],[-117.55743,33.85729],[-117.56581,33.85576],[-117.581,33.85764],[-117.59782,33.85941],[-117.60194,33.85933],[-117.60685,33.86033],[-117.60762,33.86585],[-117.61007,33.86889],[-117.61209,33.86715],[-117.61637,33.87484],[-117.62151,33.88143],[-117.62268,33.88223],[-117.60397,33.88021],[-117.59351,33.88407],[-117.59079,33.89448],[-117.57743,33.89424],[-117.57297,33.90057],[-117.56842,33.89668],[-117.55984,33.89502],[-117.5578,33.89974],[-117.55353,33.89901],[-117.54732,33.89789],[-117.54057,33.89719],[-117.53635,33.90344],[-117.52984,33.90561],[-117.5134,33.91107],[-117.51651,33.92754],[-117.5159,33.94561],[-117.52335,33.95607],[-117.52323,33.96088],[-117.53357,33.95916],[-117.54412,33.95356],[-117.55336,33.94999],[-117.55083,33.95344],[-117.56528,33.96072],[-117.59302,33.96806],[-117.55834,34.00049],[-117.55838,34.02536],[-117.54213,34.03349],[-117.5141,34.03349],[-117.50033,34.03349],[-117.49308,34.03344],[-117.4701,34.0337],[-117.4331,34.03401]]]}}