{"type":"FeatureCollection","district_id":"ad-74","district_code":"AD-74","source":{"places":"U.S. Census Bureau cartographic places (cb_2020_06_place_500k)","election":"UC Berkeley Statewide Database 2022 General (g22) SOV by SR precinct","city_join":"https://statewidedatabase.org/pub/data/G22/state/state_g22_srprec_to_city.csv","assembly_boundary":"ca-assembly-crc-2020.geojson","built_at":"2026-10-07","score_formula":"Illustrative focus (0\u2013100) = 70% competitiveness from 2022 Assembly two-party margin + 30% turnout (TOTVOTE/TOTREG) in overlapping SR precincts, aggregated to place via SWDB SRPREC\u2192city weights. Not a field targeting model."},"features":[{"type":"Feature","properties":{"name":"Oceanside","geoid":"0653322","kind":"city","focus_score":0,"dem_pct_2022_asm":null,"turnout_pct_2022":0.0,"has_election_data":false},"geometry":{"type":"MultiPolygon","coordinates":[[[[-117.23937,33.26751],[-117.23937,33.26806],[-117.23868,33.2679],[-117.23937,33.26751]]],[[[-117.24499,33.27703],[-117.24404,33.26709],[-117.24263,33.26567],[-117.24928,33.26355],[-117.24286,33.25979],[-117.2552,33.24627],[-117.25792,33.24372],[-117.25992,33.24452],[-117.26042,33.24046],[-117.2592,33.23552],[-117.26222,33.22718],[-117.25349,33.22338],[-117.25605,33.22119],[-117.26222,33.21915],[-117.2622,33.21043],[-117.27091,33.2066],[-117.27361,33.20475],[-117.27951,33.19787],[-117.27951,33.19386],[-117.28772,33.1903],[-117.28825,33.18387],[-117.28064,33.18113],[-117.27834,33.18362],[-117.27806,33.18357],[-117.27737,33.1835],[-117.27838,33.18102],[-117.27339,33.18304],[-117.25316,33.17375],[-117.25067,33.16943],[-117.2592,33.15837],[-117.27096,33.17715],[-117.27526,33.17577],[-117.27894,33.17577],[-117.28212,33.1736],[-117.28391,33.17581],[-117.29934,33.18152],[-117.30362,33.18112],[-117.32098,33.18146],[-117.32361,33.18202],[-117.32691,33.18119],[-117.33218,33.17975],[-117.34025,33.1798],[-117.34428,33.1764],[-117.34929,33.1746],[-117.35223,33.17478],[-117.35412,33.16885],[-117.35972,33.16884],[-117.35871,33.16467],[-117.37987,33.18926],[-117.39148,33.20276],[-117.39748,33.2088],[-117.39556,33.214],[-117.39252,33.20701],[-117.387,33.20974],[-117.34699,33.24058],[-117.29795,33.27835],[-117.28913,33.28515],[-117.26928,33.29999],[-117.2623,33.29793],[-117.26131,33.29633],[-117.26225,33.29274],[-117.2493,33.28537],[-117.25362,33.28152],[-117.24569,33.27803],[-117.24499,33.27703]]]]}},{"type":"Feature","properties":{"name":"San Clemente","geoid":"0665084","kind":"city","focus_score":76,"dem_pct_2022_asm":40.0,"turnout_pct_2022":66.2,"has_election_data":true},"geometry":{"type":"Polygon","coordinates":[[[-117.57862,33.48545],[-117.57857,33.4853],[-117.57462,33.46899],[-117.57782,33.46899],[-117.57815,33.46563],[-117.579,33.4647],[-117.57287,33.46178],[-117.57146,33.45598],[-117.57144,33.45598],[-117.57144,33.45598],[-117.57143,33.45463],[-117.57334,33.45446],[-117.57334,33.45334],[-117.57848,33.45393],[-117.58342,33.43538],[-117.58833,33.41678],[-117.59078,33.40751],[-117.5936,33.39682],[-117.59365,33.39655],[-117.59414,33.3945],[-117.59474,33.39251],[-117.59589,33.38816],[-117.596,33.38779],[-117.59646,33.38825],[-117.60031,33.39716],[-117.60516,33.40288],[-117.60677,33.40478],[-117.60678,33.4048],[-117.608,33.40623],[-117.61249,33.41155],[-117.6199,33.41954],[-117.62217,33.422],[-117.62727,33.42587],[-117.63153,33.43061],[-117.63163,33.43069],[-117.6337,33.4323],[-117.6426,33.43923],[-117.64484,33.44036],[-117.64543,33.44065],[-117.64558,33.44073],[-117.64559,33.44073],[-117.64572,33.44083],[-117.65069,33.44462],[-117.64955,33.44587],[-117.64749,33.44838],[-117.64909,33.45158],[-117.65132,33.44894],[-117.65281,33.45007],[-117.65727,33.45268],[-117.65778,33.45409],[-117.65979,33.45439],[-117.65997,33.45447],[-117.65828,33.45644],[-117.65724,33.45767],[-117.65624,33.45885],[-117.65608,33.45903],[-117.65361,33.46059],[-117.65469,33.46407],[-117.65542,33.46343],[-117.66645,33.46693],[-117.6653,33.46812],[-117.66455,33.4684],[-117.6598,33.4678],[-117.65452,33.46784],[-117.64885,33.46658],[-117.64487,33.46982],[-117.64264,33.47177],[-117.64269,33.47814],[-117.63805,33.48108],[-117.63651,33.48119],[-117.63326,33.48002],[-117.63307,33.47898],[-117.62841,33.47873],[-117.62552,33.47857],[-117.62056,33.48007],[-117.61391,33.48009],[-117.61074,33.47966],[-117.61249,33.4835],[-117.6095,33.4835],[-117.60763,33.4835],[-117.6057,33.4835],[-117.59498,33.4835],[-117.59432,33.48429],[-117.59428,33.48432],[-117.57862,33.48545]]]}},{"type":"Feature","properties":{"name":"Vista","geoid":"0682996","kind":"city","focus_score":0,"dem_pct_2022_asm":null,"turnout_pct_2022":0.0,"has_election_data":false},"geometry":{"type":"MultiPolygon","coordinates":[[[[-117.25078,33.2351],[-117.24401,33.2342],[-117.23913,33.23128],[-117.23577,33.22928],[-117.22892,33.23035],[-117.22221,33.23586],[-117.22226,33.23217],[-117.21715,33.22903],[-117.21615,33.22901],[-117.21542,33.2252],[-117.208,33.22653],[-117.20664,33.22087],[-117.20673,33.2165],[-117.20519,33.20639],[-117.19999,33.20828],[-117.1983,33.20825],[-117.21339,33.20477],[-117.21681,33.20109],[-117.2135,33.18821],[-117.2167,33.19092],[-117.21971,33.1856],[-117.22181,33.18105],[-117.22484,33.17386],[-117.214,33.17298],[-117.2113,33.16866],[-117.21462,33.16685],[-117.21584,33.1653],[-117.21641,33.16196],[-117.21899,33.1596],[-117.21538,33.15398],[-117.21932,33.13955],[-117.23163,33.13469],[-117.25686,33.15713],[-117.24839,33.1702],[-117.23562,33.17316],[-117.23911,33.17922],[-117.24432,33.176],[-117.24854,33.17902],[-117.25291,33.17439],[-117.25605,33.17749],[-117.26423,33.18365],[-117.26641,33.18667],[-117.27386,33.18523],[-117.27821,33.18362],[-117.28394,33.18158],[-117.28775,33.19393],[-117.27949,33.20479],[-117.27089,33.20475],[-117.26223,33.21563],[-117.25349,33.22315],[-117.25778,33.23525],[-117.25078,33.2351]],[[-117.25404,33.18091],[-117.25349,33.18151],[-117.25497,33.18248],[-117.2562,33.1827],[-117.25605,33.18117],[-117.25404,33.18091]]],[[[-117.21536,33.20131],[-117.21457,33.20263],[-117.21315,33.20219],[-117.21345,33.20141],[-117.21536,33.20131]]],[[[-117.21622,33.19041],[-117.2157,33.19031],[-117.21591,33.19007],[-117.21622,33.19041]]]]}},{"type":"Feature","properties":{"name":"Laguna Niguel","geoid":"0639248","kind":"city","focus_score":83,"dem_pct_2022_asm":45.4,"turnout_pct_2022":64.8,"has_election_data":true},"geometry":{"type":"Polygon","coordinates":[[[-117.71714,33.56037],[-117.71591,33.56231],[-117.71521,33.56684],[-117.71519,33.56686],[-117.70083,33.56939],[-117.70035,33.56898],[-117.69414,33.56317],[-117.69274,33.56132],[-117.69102,33.55897],[-117.68763,33.55764],[-117.68633,33.55752],[-117.68633,33.55752],[-117.68591,33.55745],[-117.6823,33.55915],[-117.681,33.55996],[-117.68043,33.5608],[-117.67944,33.56098],[-117.67908,33.5618],[-117.67645,33.56353],[-117.67328,33.55294],[-117.67319,33.5504],[-117.67379,33.54463],[-117.67467,33.54177],[-117.68052,33.54207],[-117.67997,33.54617],[-117.6816,33.54308],[-117.6821,33.53871],[-117.68433,33.53653],[-117.6836,33.53537],[-117.68363,33.52977],[-117.68261,33.52496],[-117.68043,33.52323],[-117.67924,33.51756],[-117.67953,33.5151],[-117.68092,33.50893],[-117.67776,33.50892],[-117.67878,33.50723],[-117.68388,33.50055],[-117.68607,33.49372],[-117.68418,33.49314],[-117.69037,33.48858],[-117.69406,33.48963],[-117.70005,33.49123],[-117.70606,33.48911],[-117.70936,33.48896],[-117.71377,33.491],[-117.71832,33.49492],[-117.72178,33.49476],[-117.72987,33.49687],[-117.73227,33.49813],[-117.73329,33.49814],[-117.73321,33.50281],[-117.73488,33.50468],[-117.73685,33.50553],[-117.73871,33.50764],[-117.73563,33.50712],[-117.73467,33.50986],[-117.7363,33.51019],[-117.73935,33.51147],[-117.73917,33.51282],[-117.73315,33.52013],[-117.73702,33.53945],[-117.73695,33.53961],[-117.73468,33.54031],[-117.72828,33.53877],[-117.72224,33.54343],[-117.72022,33.54998],[-117.72162,33.55112],[-117.71839,33.5556],[-117.71818,33.55689],[-117.71714,33.56037]]]}},{"type":"Feature","properties":{"name":"San Juan Capistrano","geoid":"0668028","kind":"city","focus_score":76,"dem_pct_2022_asm":40.9,"turnout_pct_2022":62.8,"has_election_data":true},"geometry":{"type":"Polygon","coordinates":[[[-117.65906,33.53387],[-117.65024,33.52845],[-117.63725,33.52045],[-117.62936,33.51732],[-117.62875,33.51759],[-117.62614,33.51863],[-117.61982,33.51919],[-117.61996,33.51774],[-117.62275,33.51283],[-117.6222,33.50831],[-117.62125,33.50521],[-117.62039,33.50433],[-117.62015,33.50385],[-117.61813,33.49989],[-117.61592,33.49499],[-117.6163,33.49227],[-117.61074,33.47966],[-117.62056,33.48007],[-117.62841,33.47873],[-117.63326,33.48002],[-117.63805,33.48108],[-117.64264,33.47177],[-117.64885,33.46658],[-117.6598,33.4678],[-117.6653,33.46812],[-117.66766,33.46731],[-117.67004,33.46695],[-117.67513,33.46951],[-117.67933,33.46909],[-117.67937,33.47352],[-117.67921,33.47856],[-117.68529,33.48156],[-117.68409,33.48503],[-117.68663,33.48729],[-117.68458,33.49325],[-117.68587,33.49454],[-117.67754,33.50614],[-117.67704,33.50893],[-117.67937,33.50892],[-117.6797,33.51045],[-117.67911,33.51581],[-117.67918,33.51784],[-117.68456,33.52397],[-117.68225,33.52848],[-117.68279,33.53373],[-117.68479,33.53562],[-117.68351,33.53819],[-117.68153,33.54026],[-117.6805,33.54427],[-117.6796,33.54412],[-117.67815,33.54072],[-117.67413,33.54313],[-117.67296,33.54239],[-117.65906,33.53387]]]}},{"type":"Feature","properties":{"name":"Camp Pendleton Mainside","geoid":"0610554","kind":"place","focus_score":0,"dem_pct_2022_asm":null,"turnout_pct_2022":0.0,"has_election_data":false},"geometry":{"type":"Polygon","coordinates":[[[-117.36687,33.28993],[-117.37,33.29653],[-117.36264,33.29883],[-117.35909,33.30274],[-117.35301,33.31128],[-117.34867,33.31146],[-117.34601,33.31162],[-117.33955,33.3143],[-117.3322,33.32094],[-117.32873,33.32493],[-117.32764,33.32828],[-117.32804,33.32882],[-117.3278,33.33229],[-117.32973,33.3356],[-117.33049,33.33966],[-117.33125,33.34343],[-117.33021,33.34824],[-117.32659,33.35285],[-117.32598,33.35695],[-117.32566,33.35977],[-117.32164,33.36261],[-117.31626,33.36851],[-117.31412,33.37181],[-117.30059,33.32958],[-117.29958,33.3282],[-117.30026,33.32261],[-117.29993,33.31766],[-117.3012,33.31208],[-117.29764,33.3101],[-117.29919,33.30577],[-117.30155,33.29739],[-117.30612,33.29289],[-117.30426,33.29046],[-117.29962,33.2916],[-117.29693,33.29374],[-117.29393,33.29451],[-117.29122,33.29326],[-117.2932,33.28939],[-117.29607,33.28701],[-117.29658,33.28509],[-117.29668,33.27934],[-117.30603,33.27214],[-117.30585,33.27943],[-117.30598,33.2821],[-117.31173,33.2837],[-117.31792,33.28604],[-117.31967,33.29139],[-117.3243,33.29119],[-117.32521,33.29577],[-117.32961,33.29968],[-117.33187,33.29338],[-117.32975,33.28973],[-117.33414,33.28532],[-117.34861,33.28836],[-117.35551,33.28856],[-117.36362,33.28688],[-117.36948,33.28752],[-117.36992,33.28849],[-117.36687,33.28993]]]}},{"type":"Feature","properties":{"name":"Camp Pendleton South","geoid":"0610561","kind":"place","focus_score":0,"dem_pct_2022_asm":null,"turnout_pct_2022":0.0,"has_election_data":false},"geometry":{"type":"Polygon","coordinates":[[[-117.42592,33.25199],[-117.42342,33.25395],[-117.4207,33.2554],[-117.41897,33.25515],[-117.41661,33.25756],[-117.41363,33.25824],[-117.40727,33.25492],[-117.40615,33.25413],[-117.40496,33.25269],[-117.40211,33.24738],[-117.39592,33.23876],[-117.39505,33.23779],[-117.39422,33.23699],[-117.38891,33.23277],[-117.38668,33.23594],[-117.38227,33.23836],[-117.38027,33.24111],[-117.38006,33.24461],[-117.37894,33.24846],[-117.37684,33.24565],[-117.36708,33.24429],[-117.34699,33.24058],[-117.36439,33.22716],[-117.36974,33.22308],[-117.387,33.20974],[-117.38853,33.20856],[-117.38932,33.20796],[-117.39252,33.20701],[-117.39407,33.20845],[-117.39374,33.21273],[-117.39556,33.214],[-117.39839,33.2107],[-117.398,33.20945],[-117.40238,33.2056],[-117.40286,33.20556],[-117.40301,33.20625],[-117.40577,33.20921],[-117.40569,33.21385],[-117.40397,33.21569],[-117.43143,33.25055],[-117.42906,33.25191],[-117.42592,33.25199]]]}},{"type":"Feature","properties":{"name":"Dana Point","geoid":"0617946","kind":"city","focus_score":80,"dem_pct_2022_asm":42.7,"turnout_pct_2022":66.6,"has_election_data":true},"geometry":{"type":"Polygon","coordinates":[[[-117.73161,33.49411],[-117.73135,33.49469],[-117.73207,33.4954],[-117.73227,33.49813],[-117.72987,33.49687],[-117.72178,33.49476],[-117.71832,33.49492],[-117.71377,33.491],[-117.70936,33.48896],[-117.70606,33.48911],[-117.70005,33.49123],[-117.69406,33.48963],[-117.69037,33.48858],[-117.68259,33.48723],[-117.6845,33.48362],[-117.68537,33.48077],[-117.67856,33.47846],[-117.67814,33.47255],[-117.6762,33.46816],[-117.67371,33.46663],[-117.66948,33.46702],[-117.66645,33.46693],[-117.65469,33.46407],[-117.65608,33.45903],[-117.65724,33.45767],[-117.65997,33.45447],[-117.65778,33.45409],[-117.65281,33.45007],[-117.64909,33.45158],[-117.64955,33.44587],[-117.65269,33.44615],[-117.66359,33.45198],[-117.67338,33.4581],[-117.67911,33.46084],[-117.68426,33.46191],[-117.68942,33.46166],[-117.69198,33.45663],[-117.69138,33.45403],[-117.69488,33.45565],[-117.70709,33.46028],[-117.70855,33.46063],[-117.71337,33.46002],[-117.71535,33.46056],[-117.71569,33.46266],[-117.7151,33.46446],[-117.72036,33.47291],[-117.72143,33.47514],[-117.72533,33.48153],[-117.72641,33.4833],[-117.73226,33.48484],[-117.73227,33.49411],[-117.73161,33.49411]]]}},{"type":"Feature","properties":{"name":"Fallbrook","geoid":"0623462","kind":"place","focus_score":0,"dem_pct_2022_asm":null,"turnout_pct_2022":0.0,"has_election_data":false},"geometry":{"type":"MultiPolygon","coordinates":[[[[-117.24187,33.41361],[-117.24922,33.40394],[-117.24933,33.40391],[-117.24934,33.40855],[-117.24318,33.4134],[-117.24077,33.41444],[-117.24019,33.41369],[-117.24187,33.41361]]],[[[-117.24926,33.33045],[-117.24927,33.33045],[-117.24927,33.33048],[-117.24926,33.33045]]],[[[-117.25839,33.32185],[-117.25839,33.32185],[-117.26008,33.32185],[-117.26008,33.32648],[-117.26008,33.32921],[-117.25574,33.32926],[-117.25079,33.32901],[-117.25839,33.32185]]],[[[-117.25114,33.33967],[-117.2535,33.33975],[-117.25373,33.35242],[-117.25114,33.33967]]],[[[-117.2549,33.35822],[-117.26109,33.35821],[-117.26208,33.35829],[-117.26071,33.36912],[-117.25969,33.37671],[-117.25897,33.38214],[-117.25774,33.39077],[-117.25737,33.39163],[-117.2558,33.40225],[-117.25519,33.40224],[-117.2549,33.35822]]]]}}],"outline":{"type":"Polygon","coordinates":[[[-117.71856,33.55563],[-117.7152,33.56686],[-117.70859,33.56928],[-117.70083,33.56939],[-117.68633,33.55752],[-117.67639,33.56586],[-117.67328,33.55294],[-117.66983,33.54049],[-117.65906,33.53387],[-117.65025,33.52845],[-117.62938,33.51731],[-117.6272,33.51842],[-117.62614,33.51863],[-117.61982,33.51919],[-117.62015,33.50385],[-117.60571,33.4835],[-117.57861,33.48545],[-117.57146,33.45598],[-117.52693,33.46178],[-117.48521,33.50502],[-117.33322,33.47851],[-117.28624,33.46327],[-117.26476,33.45625],[-117.24409,33.44968],[-117.2361,33.43196],[-117.22576,33.43096],[-117.22737,33.42784],[-117.23026,33.42372],[-117.2346,33.41893],[-117.23785,33.41381],[-117.24187,33.41361],[-117.24922,33.40394],[-117.25519,33.40237],[-117.2549,33.35815],[-117.24926,33.33045],[-117.25839,33.32185],[-117.24921,33.31529],[-117.24516,33.30623],[-117.24219,33.2996],[-117.24304,33.29439],[-117.24151,33.29274],[-117.24404,33.28682],[-117.24713,33.28235],[-117.24709,33.28031],[-117.24593,33.27838],[-117.23866,33.26791],[-117.24263,33.26568],[-117.24287,33.25784],[-117.25792,33.24372],[-117.25078,33.2351],[-117.24401,33.2342],[-117.23701,33.23001],[-117.2359,33.22927],[-117.22891,33.22955],[-117.22933,33.23294],[-117.22221,33.23586],[-117.21836,33.23572],[-117.22125,33.23326],[-117.21735,33.22906],[-117.21539,33.2303],[-117.21394,33.22926],[-117.21542,33.2252],[-117.2081,33.22697],[-117.20662,33.22077],[-117.20577,33.21987],[-117.20801,33.21198],[-117.20519,33.20639],[-117.19959,33.21003],[-117.19675,33.20612],[-117.20606,33.2018],[-117.21678,33.20124],[-117.21346,33.19568],[-117.21019,33.19251],[-117.21381,33.18781],[-117.21671,33.19093],[-117.21899,33.19066],[-117.21975,33.18535],[-117.21909,33.18081],[-117.22408,33.18125],[-117.22448,33.17426],[-117.21926,33.17351],[-117.21518,33.17403],[-117.21145,33.17069],[-117.21006,33.16794],[-117.21325,33.16675],[-117.21584,33.16531],[-117.21578,33.16193],[-117.21853,33.16013],[-117.21534,33.15391],[-117.214,33.14891],[-117.21932,33.13955],[-117.2303,33.13365],[-117.25426,33.15231],[-117.27893,33.17578],[-117.28304,33.17298],[-117.29934,33.18152],[-117.31462,33.18009],[-117.32361,33.18202],[-117.32891,33.18065],[-117.34428,33.1764],[-117.35411,33.16886],[-117.35903,33.16438],[-117.62293,33.34049],[-117.7509,33.42327],[-117.73232,33.49319],[-117.7342,33.50281],[-117.73883,33.50757],[-117.73465,33.50987],[-117.73941,33.51079],[-117.73701,33.53956],[-117.71856,33.55563]]]}}