{"type":"FeatureCollection","district_id":"ad-7","district_code":"AD-7","source":{"places":"U.S. Census Bureau cartographic places (cb_2020_06_place_500k)","election":"UC Berkeley Statewide Database 2022 General (g22) SOV by SR precinct","city_join":"https://statewidedatabase.org/pub/data/G22/state/state_g22_srprec_to_city.csv","assembly_boundary":"ca-assembly-crc-2020.geojson","built_at":"2026-10-07","score_formula":"Illustrative focus (0\u2013100) = 70% competitiveness from 2022 Assembly two-party margin + 30% turnout (TOTVOTE/TOTREG) in overlapping SR precincts, aggregated to place via SWDB SRPREC\u2192city weights. Not a field targeting model."},"features":[{"type":"Feature","properties":{"name":"Rancho Cordova","geoid":"0659444","kind":"city","focus_score":78,"dem_pct_2022_asm":56.1,"turnout_pct_2022":54.8,"has_election_data":true},"geometry":{"type":"Polygon","coordinates":[[[-121.18728,38.56934],[-121.18744,38.53591],[-121.18905,38.53276],[-121.24269,38.52167],[-121.2429,38.53666],[-121.24298,38.55256],[-121.24434,38.55369],[-121.24953,38.55758],[-121.25381,38.55951],[-121.25943,38.56793],[-121.27141,38.56924],[-121.28595,38.56724],[-121.28725,38.56666],[-121.29081,38.56697],[-121.29462,38.56603],[-121.30528,38.56643],[-121.3075,38.56646],[-121.3146,38.56282],[-121.3173,38.56101],[-121.32787,38.55739],[-121.33627,38.56208],[-121.33639,38.56787],[-121.32812,38.57663],[-121.32742,38.57892],[-121.32914,38.58037],[-121.32694,38.58673],[-121.3308,38.59092],[-121.33149,38.59687],[-121.32628,38.60264],[-121.3212,38.60395],[-121.31596,38.60368],[-121.30875,38.60773],[-121.3038,38.61328],[-121.3064,38.61942],[-121.30419,38.62418],[-121.29466,38.63025],[-121.28939,38.63067],[-121.28999,38.62545],[-121.28694,38.62078],[-121.27634,38.62917],[-121.26847,38.63252],[-121.26609,38.62794],[-121.26815,38.61837],[-121.26456,38.61135],[-121.23163,38.62376],[-121.21713,38.63094],[-121.21579,38.62921],[-121.21223,38.62419],[-121.21183,38.61991],[-121.21594,38.62233],[-121.21738,38.62069],[-121.22175,38.62118],[-121.23299,38.62097],[-121.23288,38.61799],[-121.23432,38.61048],[-121.23599,38.60441],[-121.23415,38.60295],[-121.23934,38.59989],[-121.24256,38.59274],[-121.21354,38.59288],[-121.2041,38.58257],[-121.20241,38.57845],[-121.19904,38.58263],[-121.18739,38.58113],[-121.18727,38.56936],[-121.18728,38.56934]]]}},{"type":"Feature","properties":{"name":"Folsom","geoid":"0624638","kind":"city","focus_score":88,"dem_pct_2022_asm":48.4,"turnout_pct_2022":67.6,"has_election_data":true},"geometry":{"type":"Polygon","coordinates":[[[-121.10795,38.69474],[-121.10335,38.68509],[-121.09891,38.67577],[-121.08421,38.64486],[-121.08309,38.62873],[-121.08919,38.62785],[-121.08995,38.62767],[-121.11601,38.62166],[-121.11632,38.62158],[-121.13085,38.6181],[-121.14124,38.61732],[-121.14173,38.61723],[-121.1436,38.61612],[-121.14168,38.61173],[-121.14172,38.61041],[-121.14224,38.6111],[-121.14555,38.61179],[-121.14901,38.61253],[-121.15044,38.63306],[-121.1537,38.63616],[-121.15588,38.63967],[-121.15646,38.64215],[-121.17509,38.6427],[-121.20138,38.63494],[-121.2097,38.63335],[-121.21014,38.6346],[-121.20753,38.63694],[-121.20676,38.64045],[-121.19491,38.64533],[-121.1926,38.65],[-121.19264,38.65056],[-121.18923,38.66681],[-121.1908,38.67477],[-121.1883,38.67676],[-121.19103,38.68],[-121.19201,38.67941],[-121.19525,38.6778],[-121.19746,38.67688],[-121.20004,38.67533],[-121.2,38.67809],[-121.19757,38.68167],[-121.1964,38.68548],[-121.19263,38.69967],[-121.19369,38.71391],[-121.18291,38.71384],[-121.1819,38.71388],[-121.17038,38.7131],[-121.14662,38.7114],[-121.14129,38.71177],[-121.13886,38.70898],[-121.13822,38.70823],[-121.13497,38.70675],[-121.13378,38.70539],[-121.13207,38.70583],[-121.13075,38.70638],[-121.12887,38.70845],[-121.12677,38.70943],[-121.12478,38.71028],[-121.122,38.71326],[-121.11973,38.71486],[-121.11881,38.71651],[-121.10795,38.69474]]]}},{"type":"Feature","properties":{"name":"Citrus Heights","geoid":"0613588","kind":"city","focus_score":80,"dem_pct_2022_asm":44.9,"turnout_pct_2022":58.2,"has_election_data":true},"geometry":{"type":"Polygon","coordinates":[[[-121.3262,38.70689],[-121.32513,38.70765],[-121.31758,38.71469],[-121.31643,38.71551],[-121.31369,38.71821],[-121.30577,38.72262],[-121.29891,38.72204],[-121.29399,38.72181],[-121.2904,38.7215],[-121.28196,38.7209],[-121.27828,38.72061],[-121.27245,38.72025],[-121.2672,38.71989],[-121.26111,38.71946],[-121.25425,38.71895],[-121.25424,38.71895],[-121.24389,38.71695],[-121.24433,38.70052],[-121.24437,38.69317],[-121.25301,38.69709],[-121.25805,38.69564],[-121.25889,38.69319],[-121.26227,38.69205],[-121.26239,38.68285],[-121.26224,38.67802],[-121.26218,38.66847],[-121.26319,38.66644],[-121.26654,38.66398],[-121.27637,38.66385],[-121.29226,38.66362],[-121.29768,38.66354],[-121.29932,38.66594],[-121.2994,38.67068],[-121.30915,38.67196],[-121.31135,38.67291],[-121.31004,38.67354],[-121.31263,38.67097],[-121.31522,38.6726],[-121.31984,38.67291],[-121.3226,38.67399],[-121.328,38.67322],[-121.32705,38.67388],[-121.32845,38.67514],[-121.32691,38.6781],[-121.3269,38.68103],[-121.32975,38.68518],[-121.3282,38.68963],[-121.32657,38.69151],[-121.32655,38.6946],[-121.32628,38.70349],[-121.327,38.70589],[-121.3262,38.70689]]]}},{"type":"Feature","properties":{"name":"Carmichael","geoid":"0611390","kind":"place","focus_score":86,"dem_pct_2022_asm":53.3,"turnout_pct_2022":67.9,"has_election_data":true},"geometry":{"type":"MultiPolygon","coordinates":[[[[-121.33098,38.57865],[-121.34053,38.57967],[-121.342,38.57958],[-121.34821,38.5814],[-121.34839,38.5817],[-121.3488,38.58462],[-121.34901,38.58521],[-121.35222,38.58848],[-121.35386,38.58736],[-121.35387,38.58739],[-121.35484,38.59542],[-121.35514,38.60011],[-121.35528,38.6046],[-121.35423,38.61012],[-121.33951,38.61366],[-121.3282,38.63169],[-121.33109,38.64799],[-121.34314,38.64742],[-121.34286,38.64785],[-121.34136,38.64963],[-121.34199,38.65326],[-121.33723,38.6562],[-121.33594,38.66072],[-121.33673,38.66217],[-121.33669,38.66827],[-121.33669,38.675],[-121.33338,38.68114],[-121.33625,38.68268],[-121.3266,38.6911],[-121.33188,38.68626],[-121.32671,38.68798],[-121.32684,38.67957],[-121.32878,38.67692],[-121.32702,38.67478],[-121.32736,38.67366],[-121.3275,38.67274],[-121.31982,38.67388],[-121.31665,38.67256],[-121.31533,38.67118],[-121.31255,38.67349],[-121.30976,38.67295],[-121.31109,38.67193],[-121.30874,38.67079],[-121.29942,38.67026],[-121.29799,38.6644],[-121.29279,38.66361],[-121.29222,38.66107],[-121.2921,38.65605],[-121.29202,38.64921],[-121.29182,38.64143],[-121.29177,38.63629],[-121.29145,38.63067],[-121.30271,38.62556],[-121.30505,38.62253],[-121.30321,38.61416],[-121.3064,38.60969],[-121.31514,38.60461],[-121.31809,38.6027],[-121.3228,38.60432],[-121.32865,38.60069],[-121.33164,38.59447],[-121.32865,38.58813],[-121.32702,38.58541],[-121.32952,38.57928],[-121.33098,38.57865]]],[[[-121.34763,38.64507],[-121.34828,38.64495],[-121.34715,38.64529],[-121.34763,38.64507]]],[[[-121.3506,38.6439],[-121.35059,38.64425],[-121.34893,38.64475],[-121.3506,38.6439]]],[[[-121.35215,38.6431],[-121.35362,38.64328],[-121.35088,38.64375],[-121.35215,38.6431]]],[[[-121.35714,38.64387],[-121.35714,38.6439],[-121.35438,38.6434],[-121.35714,38.64387]]]]}},{"type":"Feature","properties":{"name":"Orangevale","geoid":"0654092","kind":"place","focus_score":74,"dem_pct_2022_asm":38.5,"turnout_pct_2022":66.4,"has_election_data":true},"geometry":{"type":"Polygon","coordinates":[[[-121.24094,38.71807],[-121.23917,38.71794],[-121.23607,38.71766],[-121.23517,38.71764],[-121.23481,38.71761],[-121.23093,38.7173],[-121.22586,38.7168],[-121.22232,38.71657],[-121.21649,38.71619],[-121.20853,38.71566],[-121.2067,38.71555],[-121.19282,38.71462],[-121.18857,38.71431],[-121.18873,38.71388],[-121.19369,38.71391],[-121.19438,38.69969],[-121.19263,38.69967],[-121.19277,38.68665],[-121.1964,38.68548],[-121.19747,38.6845],[-121.19757,38.68167],[-121.1999,38.68171],[-121.2,38.67809],[-121.19964,38.67809],[-121.20004,38.67533],[-121.19948,38.67509],[-121.19746,38.67688],[-121.1958,38.6776],[-121.19525,38.6778],[-121.19338,38.6786],[-121.19201,38.67941],[-121.19135,38.67981],[-121.19103,38.68],[-121.19019,38.679],[-121.1883,38.67676],[-121.18851,38.6763],[-121.1908,38.67477],[-121.18938,38.67005],[-121.18923,38.66681],[-121.18965,38.66432],[-121.19264,38.65056],[-121.19256,38.6501],[-121.20285,38.65512],[-121.20392,38.65646],[-121.20441,38.65721],[-121.20557,38.66067],[-121.20771,38.66351],[-121.20869,38.66358],[-121.2113,38.66447],[-121.21215,38.66493],[-121.21228,38.66616],[-121.21373,38.66498],[-121.21472,38.66445],[-121.21562,38.66416],[-121.21861,38.66399],[-121.22572,38.66391],[-121.23502,38.66412],[-121.24171,38.66427],[-121.24428,38.66424],[-121.24428,38.66883],[-121.24433,38.67808],[-121.24433,38.67865],[-121.24989,38.67864],[-121.25488,38.67863],[-121.26224,38.67853],[-121.26239,38.68285],[-121.26226,38.68868],[-121.26227,38.69205],[-121.26228,38.69313],[-121.25889,38.69319],[-121.25805,38.69316],[-121.25805,38.69564],[-121.25367,38.6956],[-121.25301,38.69709],[-121.25256,38.69319],[-121.24437,38.69317],[-121.24435,38.69496],[-121.24433,38.70052],[-121.24444,38.71666],[-121.24389,38.71695],[-121.24283,38.7182],[-121.24094,38.71807]]]}},{"type":"Feature","properties":{"name":"Fair Oaks","geoid":"0623294","kind":"place","focus_score":90,"dem_pct_2022_asm":49.6,"turnout_pct_2022":69.0,"has_election_data":true},"geometry":{"type":"Polygon","coordinates":[[[-121.28456,38.66373],[-121.27637,38.66385],[-121.27214,38.66391],[-121.26654,38.66398],[-121.26304,38.66403],[-121.26319,38.66644],[-121.26217,38.66645],[-121.26218,38.66847],[-121.26218,38.66858],[-121.26224,38.67802],[-121.26224,38.67853],[-121.25488,38.67863],[-121.24989,38.67864],[-121.24433,38.67865],[-121.24433,38.67808],[-121.24428,38.66883],[-121.24428,38.66424],[-121.24171,38.66427],[-121.23502,38.66412],[-121.22572,38.66391],[-121.21861,38.66399],[-121.21562,38.66416],[-121.21472,38.66445],[-121.21373,38.66498],[-121.21228,38.66616],[-121.21215,38.66493],[-121.2113,38.66447],[-121.20869,38.66358],[-121.20771,38.66351],[-121.20557,38.66067],[-121.20441,38.65721],[-121.20392,38.65646],[-121.20285,38.65512],[-121.19256,38.6501],[-121.1926,38.65],[-121.19436,38.64585],[-121.19491,38.64533],[-121.20056,38.64247],[-121.20676,38.64045],[-121.20744,38.64023],[-121.2185,38.63713],[-121.22497,38.63606],[-121.23455,38.63242],[-121.2386,38.63243],[-121.24362,38.63326],[-121.256,38.63849],[-121.2565,38.63849],[-121.2621,38.63768],[-121.26646,38.63569],[-121.26909,38.63358],[-121.27634,38.62917],[-121.28513,38.6207],[-121.28694,38.62078],[-121.29011,38.62367],[-121.28999,38.62545],[-121.28842,38.62949],[-121.28939,38.63067],[-121.29145,38.63067],[-121.29166,38.63227],[-121.29177,38.63629],[-121.29176,38.63984],[-121.29182,38.64143],[-121.29187,38.64458],[-121.29202,38.64921],[-121.29206,38.65268],[-121.2921,38.65605],[-121.2921,38.65646],[-121.29222,38.66107],[-121.29226,38.66362],[-121.28456,38.66373]]]}},{"type":"Feature","properties":{"name":"Mather","geoid":"0646226","kind":"place","focus_score":86,"dem_pct_2022_asm":48.7,"turnout_pct_2022":58.8,"has_election_data":true},"geometry":{"type":"Polygon","coordinates":[[[-121.24424,38.52558],[-121.26483,38.52894],[-121.27041,38.53032],[-121.27926,38.53259],[-121.29245,38.53583],[-121.30137,38.53801],[-121.30228,38.53824],[-121.31295,38.5402],[-121.31302,38.54017],[-121.31335,38.54023],[-121.3146,38.53983],[-121.31637,38.53889],[-121.31742,38.53875],[-121.31851,38.53893],[-121.32103,38.5416],[-121.33467,38.54382],[-121.33478,38.54385],[-121.33481,38.54384],[-121.33496,38.54386],[-121.33498,38.54785],[-121.3362,38.55472],[-121.3362,38.55675],[-121.32787,38.55739],[-121.31901,38.56011],[-121.3173,38.56101],[-121.31692,38.56125],[-121.3146,38.56282],[-121.30847,38.566],[-121.3075,38.56646],[-121.305,38.56763],[-121.30528,38.56643],[-121.30038,38.56648],[-121.29462,38.56603],[-121.29069,38.56563],[-121.29081,38.56697],[-121.28836,38.56708],[-121.28725,38.56666],[-121.28587,38.56679],[-121.28595,38.56724],[-121.27387,38.56782],[-121.27141,38.56924],[-121.27008,38.56786],[-121.25943,38.56793],[-121.25409,38.56052],[-121.25381,38.55951],[-121.2537,38.55887],[-121.24953,38.55758],[-121.24746,38.55617],[-121.24434,38.55369],[-121.24381,38.55254],[-121.24298,38.55256],[-121.24296,38.54838],[-121.2429,38.53666],[-121.24274,38.52556],[-121.24423,38.52558],[-121.24424,38.52558]]]}},{"type":"Feature","properties":{"name":"North Highlands","geoid":"0651924","kind":"place","focus_score":82,"dem_pct_2022_asm":50.7,"turnout_pct_2022":41.7,"has_election_data":true},"geometry":{"type":"Polygon","coordinates":[[[-121.34485,38.64634],[-121.34828,38.64495],[-121.34893,38.64475],[-121.3506,38.6439],[-121.35362,38.64328],[-121.35438,38.6434],[-121.36015,38.64469],[-121.36161,38.64457],[-121.36607,38.64455],[-121.37056,38.64374],[-121.37571,38.64313],[-121.37581,38.64308],[-121.3782,38.64144],[-121.38069,38.64057],[-121.38201,38.64102],[-121.38321,38.6404],[-121.38606,38.64303],[-121.38624,38.64309],[-121.3887,38.64368],[-121.39705,38.6417],[-121.39726,38.64166],[-121.40315,38.64061],[-121.39785,38.64551],[-121.38287,38.65932],[-121.38461,38.66858],[-121.38668,38.67585],[-121.39216,38.67862],[-121.39447,38.6814],[-121.39533,38.68321],[-121.40136,38.69054],[-121.39397,38.70437],[-121.38742,38.70424],[-121.37663,38.70403],[-121.37368,38.704],[-121.36365,38.70327],[-121.36367,38.69763],[-121.36375,38.68904],[-121.35808,38.68903],[-121.35764,38.68754],[-121.36184,38.67979],[-121.36253,38.6781],[-121.3684,38.67269],[-121.36703,38.66835],[-121.3551,38.66821],[-121.34587,38.6681],[-121.33669,38.66827],[-121.33673,38.66217],[-121.33594,38.66072],[-121.33723,38.6562],[-121.34199,38.65326],[-121.34136,38.64963],[-121.34286,38.64785],[-121.34485,38.64634]]]}},{"type":"Feature","properties":{"name":"Foothill Farms","geoid":"0624722","kind":"place","focus_score":0,"dem_pct_2022_asm":null,"turnout_pct_2022":0.0,"has_election_data":false},"geometry":{"type":"Polygon","coordinates":[[[-121.36112,38.70382],[-121.36047,38.70381],[-121.35696,38.70376],[-121.3543,38.70373],[-121.3459,38.70362],[-121.34154,38.70353],[-121.33543,38.70315],[-121.33518,38.70308],[-121.33123,38.7024],[-121.33058,38.70272],[-121.33026,38.70269],[-121.32991,38.70306],[-121.32898,38.70352],[-121.32773,38.70464],[-121.327,38.70589],[-121.32639,38.70554],[-121.32628,38.70349],[-121.32645,38.69845],[-121.32655,38.6946],[-121.32658,38.6921],[-121.32657,38.69151],[-121.33625,38.68268],[-121.33448,38.68155],[-121.33338,38.68114],[-121.33646,38.67771],[-121.33669,38.675],[-121.33669,38.67219],[-121.33669,38.66827],[-121.33811,38.66779],[-121.34587,38.6681],[-121.35271,38.66818],[-121.3551,38.66821],[-121.36438,38.66832],[-121.36703,38.66835],[-121.37304,38.66842],[-121.3684,38.67269],[-121.36389,38.67686],[-121.36253,38.6781],[-121.3637,38.67911],[-121.36184,38.67979],[-121.35684,38.6844],[-121.35764,38.68754],[-121.35762,38.68903],[-121.35808,38.68903],[-121.35967,38.68904],[-121.36375,38.68904],[-121.36369,38.69449],[-121.36367,38.69763],[-121.36365,38.70189],[-121.36365,38.70327],[-121.36364,38.70386],[-121.36112,38.70382]]]}},{"type":"Feature","properties":{"name":"McClellan Park","geoid":"0644760","kind":"place","focus_score":0,"dem_pct_2022_asm":null,"turnout_pct_2022":0.0,"has_election_data":false},"geometry":{"type":"Polygon","coordinates":[[[-121.41057,38.6399],[-121.41068,38.64713],[-121.4157,38.64718],[-121.41759,38.64987],[-121.41759,38.64995],[-121.4199,38.65097],[-121.4233,38.65101],[-121.4234,38.65103],[-121.42333,38.65115],[-121.42223,38.65191],[-121.42221,38.65297],[-121.42164,38.65391],[-121.42164,38.65452],[-121.42162,38.65691],[-121.42197,38.65732],[-121.42044,38.65937],[-121.41961,38.66003],[-121.41926,38.66001],[-121.4157,38.65827],[-121.41549,38.65867],[-121.41503,38.65832],[-121.41518,38.65909],[-121.41526,38.66898],[-121.41527,38.66898],[-121.41264,38.67313],[-121.41256,38.67307],[-121.40999,38.6709],[-121.40878,38.67048],[-121.40867,38.67041],[-121.40862,38.67043],[-121.40852,38.6704],[-121.40575,38.67051],[-121.40376,38.67203],[-121.40364,38.67226],[-121.40359,38.67228],[-121.4036,38.67233],[-121.40351,38.67249],[-121.4036,38.68333],[-121.406,38.68336],[-121.406,38.68338],[-121.40189,38.69055],[-121.40136,38.69054],[-121.39533,38.69047],[-121.39533,38.68321],[-121.39685,38.68143],[-121.39447,38.6814],[-121.39413,38.67873],[-121.39216,38.67862],[-121.39217,38.67593],[-121.38668,38.67585],[-121.38463,38.67177],[-121.38461,38.66858],[-121.38293,38.66853],[-121.38287,38.65932],[-121.38845,38.65418],[-121.39785,38.64551],[-121.40134,38.64228],[-121.40315,38.64061],[-121.40404,38.63979],[-121.40561,38.6398],[-121.41055,38.63989],[-121.41057,38.6399]]]}},{"type":"Feature","properties":{"name":"Rosemont","geoid":"0662910","kind":"place","focus_score":0,"dem_pct_2022_asm":null,"turnout_pct_2022":0.0,"has_election_data":false},"geometry":{"type":"Polygon","coordinates":[[[-121.35933,38.53555],[-121.3598,38.53568],[-121.38486,38.54269],[-121.38118,38.54706],[-121.37886,38.54707],[-121.37881,38.54986],[-121.37673,38.55233],[-121.37673,38.55233],[-121.37512,38.55309],[-121.37632,38.55468],[-121.37553,38.55927],[-121.36734,38.56013],[-121.35944,38.56097],[-121.34933,38.56204],[-121.34912,38.56208],[-121.34898,38.56209],[-121.34895,38.5621],[-121.3433,38.56301],[-121.33636,38.56609],[-121.33627,38.56208],[-121.3362,38.55675],[-121.3362,38.55472],[-121.33498,38.54785],[-121.33496,38.54386],[-121.33496,38.54379],[-121.35933,38.53555]]]}},{"type":"Feature","properties":{"name":"Gold River","geoid":"0630345","kind":"place","focus_score":87,"dem_pct_2022_asm":53.6,"turnout_pct_2022":74.9,"has_election_data":true},"geometry":{"type":"Polygon","coordinates":[[[-121.26646,38.63569],[-121.2621,38.63768],[-121.2565,38.63849],[-121.256,38.63849],[-121.24362,38.63326],[-121.2386,38.63243],[-121.23455,38.63242],[-121.22497,38.63606],[-121.22474,38.63572],[-121.22382,38.63476],[-121.22191,38.63378],[-121.2202,38.63331],[-121.21816,38.63216],[-121.21713,38.63094],[-121.22841,38.625],[-121.23163,38.62376],[-121.24652,38.61816],[-121.26456,38.61135],[-121.26639,38.61859],[-121.26815,38.61837],[-121.26584,38.62629],[-121.26609,38.62794],[-121.26717,38.63025],[-121.26847,38.63252],[-121.26909,38.63358],[-121.26646,38.63569]]]}}],"outline":{"type":"Polygon","coordinates":[[[-121.10987,38.69878],[-121.09891,38.67577],[-121.08422,38.64495],[-121.08297,38.62875],[-121.08896,38.6279],[-121.11632,38.62158],[-121.13075,38.61811],[-121.14173,38.61728],[-121.14167,38.6102],[-121.14224,38.6111],[-121.14298,38.61148],[-121.14555,38.61179],[-121.14822,38.61192],[-121.1515,38.61447],[-121.16454,38.60975],[-121.17435,38.60007],[-121.18728,38.56934],[-121.18731,38.5362],[-121.18877,38.53293],[-121.23592,38.50462],[-121.24424,38.52558],[-121.26531,38.52902],[-121.30228,38.53824],[-121.31295,38.5402],[-121.31618,38.53891],[-121.31796,38.53868],[-121.33478,38.54385],[-121.35933,38.53555],[-121.38486,38.54269],[-121.37673,38.55233],[-121.37553,38.55927],[-121.34898,38.56209],[-121.33639,38.56787],[-121.32754,38.57724],[-121.32744,38.57893],[-121.33098,38.57865],[-121.33982,38.57971],[-121.34641,38.57933],[-121.34837,38.58159],[-121.34887,38.58515],[-121.35387,38.58737],[-121.35485,38.59542],[-121.35522,38.60021],[-121.35529,38.60547],[-121.35423,38.61012],[-121.34605,38.61119],[-121.33951,38.61366],[-121.32858,38.61826],[-121.3282,38.63169],[-121.3279,38.64251],[-121.33109,38.64799],[-121.33991,38.6481],[-121.34314,38.64742],[-121.34485,38.64634],[-121.34763,38.64507],[-121.3487,38.64487],[-121.35215,38.6431],[-121.35365,38.64328],[-121.35736,38.64391],[-121.36161,38.64457],[-121.36648,38.64422],[-121.37575,38.64312],[-121.37936,38.64065],[-121.38327,38.6404],[-121.38613,38.6431],[-121.39716,38.64169],[-121.40548,38.63902],[-121.41059,38.6399],[-121.41766,38.64997],[-121.42348,38.65104],[-121.42223,38.65191],[-121.42212,38.65804],[-121.41949,38.66012],[-121.4157,38.65827],[-121.41521,38.65922],[-121.41527,38.66897],[-121.41264,38.67313],[-121.40867,38.67041],[-121.40359,38.67228],[-121.40601,38.68336],[-121.39397,38.70437],[-121.37664,38.70404],[-121.36048,38.70381],[-121.3423,38.70358],[-121.33536,38.70315],[-121.33026,38.70269],[-121.3261,38.707],[-121.31369,38.71821],[-121.30584,38.72263],[-121.2989,38.72205],[-121.29385,38.7218],[-121.28965,38.72147],[-121.28146,38.72091],[-121.27828,38.72061],[-121.27547,38.72042],[-121.27245,38.72025],[-121.26722,38.71989],[-121.26177,38.71951],[-121.25426,38.71895],[-121.24094,38.71807],[-121.23481,38.71761],[-121.22738,38.71701],[-121.21699,38.71622],[-121.20854,38.71567],[-121.19272,38.71461],[-121.18202,38.71389],[-121.17002,38.71308],[-121.14102,38.71176],[-121.13886,38.70898],[-121.13497,38.70675],[-121.13207,38.70583],[-121.12835,38.70888],[-121.12498,38.71006],[-121.12206,38.71323],[-121.11983,38.71451],[-121.1191,38.71708],[-121.10987,38.69878]]]}}